{"type":"FeatureCollection","name":"ahmedabad_boundary","features":[{"type":"Feature","properties":{"canonical_city_id":"ahmedabad","scope_type":"district","source_districts":["Ahmadabad"],"source_shape_ids":["76128533B93113981386565"],"source":"geoBoundaries gbOpen India ADM2","source_revision":"9469f09","boundary_year":"2021","license":"ODbL 1.0"},"geometry":{"type":"MultiPolygon","coordinates":[[[[72.35676,21.59134],[72.3563,21.5914],[72.35442,21.59232],[72.35328,21.59396],[72.35282,21.59485],[72.3518,21.59667],[72.35082,21.59945],[72.34909,21.60325],[72.34778,21.60591],[72.34717,21.60773],[72.3476,21.60893],[72.34855,21.60953],[72.34962,21.60969],[72.35131,21.60829],[72.35205,21.60708],[72.35278,21.60563],[72.35358,21.60378],[72.35493,21.60229],[72.35619,21.60114],[72.3576,21.60039],[72.3592,21.59957],[72.3603,21.59805],[72.36088,21.59633],[72.36064,21.5939],[72.35903,21.59176],[72.35676,21.59134]]],[[[72.32961,21.80444],[72.3234,21.81011],[72.31795,21.81995],[72.31108,21.84759],[72.30788,21.86165],[72.30041,21.89111],[72.29422,21.91511],[72.29363,21.93571],[72.29618,21.95279],[72.30226,21.96865],[72.3096,21.97907],[72.32055,21.98691],[72.33683,21.99636],[72.36025,22.00155],[72.37951,22.00151],[72.38906,21.99828],[72.39842,21.98908],[72.4058,21.97062],[72.40754,21.95603],[72.40638,21.94039],[72.40299,21.9297],[72.38648,21.90557],[72.37534,21.88261],[72.37024,21.86679],[72.36775,21.84834],[72.36426,21.82068],[72.36075,21.81227],[72.35464,21.80649],[72.34642,21.80337],[72.33809,21.80253],[72.32961,21.80444]]],[[[72.16588,21.95878],[72.1657,21.95955],[72.16555,21.96032],[72.16542,21.96109],[72.16533,21.96187],[72.16527,21.96265],[72.16523,21.96343],[72.16523,21.96422],[72.16525,21.965],[72.1653,21.96578],[72.16539,21.96656],[72.1655,21.96733],[72.16564,21.9681],[72.16581,21.96887],[72.166,21.96963],[72.16623,21.97038],[72.16649,21.97113],[72.16677,21.97187],[72.16708,21.97259],[72.16742,21.97331],[72.16778,21.97401],[72.16817,21.9747],[72.16858,21.97538],[72.16902,21.97605],[72.16949,21.9767],[72.16998,21.97733],[72.17016,21.97755],[72.17049,21.97795],[72.17103,21.97855],[72.17159,21.97914],[72.17217,21.9797],[72.17276,21.98021],[72.17328,21.9807],[72.17377,21.98121],[72.17422,21.98175],[72.17465,21.98231],[72.17505,21.98289],[72.17541,21.98348],[72.17574,21.9841],[72.17603,21.98473],[72.17629,21.98537],[72.17651,21.98603],[72.17669,21.9867],[72.17684,21.98737],[72.17695,21.98805],[72.17702,21.98873],[72.17705,21.98942],[72.17704,21.99011],[72.177,21.99079],[72.17691,21.99148],[72.17725,21.99223],[72.17821,21.99386],[72.17344,21.99564],[72.17036,21.99753],[72.169,22.00043],[72.16736,22.00314],[72.16424,22.00827],[72.15541,22.01906],[72.15155,22.02378],[72.15127,22.02422],[72.14339,22.03581],[72.14022,22.04048],[72.13348,22.05255],[72.12605,22.05796],[72.11084,22.0588],[72.11027,22.05873],[72.10857,22.05852],[72.10637,22.05824],[72.09857,22.05727],[72.0888,22.05766],[72.08025,22.05987],[72.07837,22.06125],[72.07198,22.07312],[72.07191,22.07324],[72.05972,22.09585],[72.06066,22.10118],[72.06133,22.10103],[72.06213,22.1009],[72.06294,22.1008],[72.06376,22.10074],[72.06458,22.10072],[72.0654,22.10074],[72.06621,22.1008],[72.06702,22.1009],[72.06783,22.10104],[72.06862,22.10122],[72.0694,22.10144],[72.07095,22.10166],[72.07206,22.1018],[72.07318,22.10192],[72.0743,22.10202],[72.07526,22.10209],[72.07542,22.1021],[72.07654,22.10216],[72.07766,22.10221],[72.0778,22.10221],[72.07879,22.10224],[72.07961,22.10225],[72.07991,22.10225],[72.0807,22.10224],[72.08103,22.10224],[72.08216,22.10221],[72.08328,22.10217],[72.0844,22.1021],[72.08566,22.10204],[72.08643,22.10201],[72.0872,22.102],[72.08783,22.10201],[72.08797,22.10201],[72.08842,22.10202],[72.08874,22.10202],[72.08951,22.10205],[72.09028,22.10209],[72.09105,22.10214],[72.09181,22.1022],[72.09258,22.10228],[72.09334,22.10237],[72.0941,22.10247],[72.09486,22.10259],[72.09562,22.10271],[72.09638,22.10285],[72.09713,22.103],[72.09788,22.10317],[72.09862,22.10334],[72.09937,22.10353],[72.10011,22.10373],[72.10084,22.10394],[72.10238,22.10477],[72.10345,22.10528],[72.10453,22.10576],[72.10563,22.10621],[72.10675,22.10661],[72.10788,22.10699],[72.10902,22.10732],[72.11018,22.10762],[72.11135,22.10788],[72.11252,22.1081],[72.11371,22.10828],[72.1149,22.10843],[72.11727,22.1086],[72.11837,22.10885],[72.11912,22.10905],[72.11986,22.10928],[72.1206,22.10953],[72.12132,22.10981],[72.12203,22.1101],[72.12273,22.11043],[72.12342,22.11077],[72.1241,22.11114],[72.12476,22.11153],[72.1254,22.11194],[72.12603,22.11237],[72.12665,22.11282],[72.12724,22.11329],[72.12782,22.11378],[72.12838,22.11429],[72.12892,22.11481],[72.12944,22.11536],[72.12949,22.1154],[72.13037,22.11612],[72.13095,22.11663],[72.13153,22.11715],[72.1321,22.11768],[72.13266,22.11821],[72.13321,22.11876],[72.13374,22.11931],[72.13427,22.11988],[72.13479,22.12045],[72.13529,22.12103],[72.13579,22.12162],[72.13627,22.12221],[72.13674,22.12282],[72.13721,22.12343],[72.13765,22.12405],[72.13809,22.12467],[72.13852,22.12531],[72.13894,22.12598],[72.13923,22.12644],[72.13964,22.12712],[72.13972,22.12725],[72.1401,22.12791],[72.14047,22.12857],[72.14082,22.12924],[72.14483,22.1332],[72.14773,22.13596],[72.1507,22.13867],[72.15371,22.14133],[72.15677,22.14394],[72.16,22.1466],[72.16049,22.14707],[72.16093,22.14759],[72.16131,22.14815],[72.16163,22.14874],[72.16187,22.14936],[72.16205,22.15],[72.16215,22.15065],[72.16218,22.15131],[72.16213,22.15197],[72.15542,22.15291],[72.1511,22.15361],[72.1468,22.15437],[72.14501,22.15472],[72.14469,22.15478],[72.14251,22.15521],[72.1382,22.15559],[72.13711,22.1557],[72.13597,22.15584],[72.13373,22.15613],[72.13096,22.15659],[72.13067,22.15665],[72.13028,22.15674],[72.1296,22.15684],[72.12892,22.15692],[72.12823,22.15696],[72.12754,22.15696],[72.12685,22.15694],[72.12616,22.15688],[72.12548,22.15678],[72.12489,22.15668],[72.1248,22.15666],[72.12413,22.1565],[72.12348,22.1563],[72.12283,22.15608],[72.12209,22.15574],[72.12134,22.1554],[72.12055,22.15513],[72.11975,22.15495],[72.11892,22.15484],[72.11808,22.15481],[72.11725,22.15486],[72.11642,22.155],[72.11562,22.15521],[72.11484,22.1555],[72.1141,22.15587],[72.11341,22.1563],[72.11277,22.1568],[72.11218,22.15736],[72.11167,22.15798],[72.11122,22.15864],[72.11085,22.15934],[72.11057,22.16007],[72.11036,22.16082],[72.11024,22.16159],[72.11021,22.16237],[72.11026,22.16315],[72.11043,22.16386],[72.11045,22.16458],[72.11025,22.16527],[72.10986,22.16589],[72.1093,22.16638],[72.10862,22.16671],[72.10786,22.16686],[72.1081,22.16748],[72.10836,22.1681],[72.10865,22.16871],[72.10895,22.16931],[72.10921,22.16978],[72.10928,22.1699],[72.10964,22.17048],[72.11001,22.17105],[72.11041,22.1716],[72.11082,22.17214],[72.11126,22.17267],[72.11171,22.17318],[72.11219,22.17368],[72.11268,22.17416],[72.11319,22.17463],[72.11372,22.17508],[72.11426,22.17551],[72.11482,22.17592],[72.1154,22.17631],[72.11598,22.17669],[72.11659,22.17705],[72.1172,22.17738],[72.11783,22.1777],[72.11847,22.17799],[72.11912,22.17827],[72.11979,22.17852],[72.12046,22.17875],[72.12113,22.17896],[72.12182,22.17915],[72.12251,22.17932],[72.12342,22.1795],[72.1242,22.17979],[72.12493,22.18019],[72.12559,22.18068],[72.12667,22.18126],[72.12696,22.18241],[72.12727,22.18314],[72.12747,22.1839],[72.12755,22.18468],[72.12772,22.18608],[72.12789,22.18689],[72.12805,22.1877],[72.1282,22.18851],[72.12833,22.18932],[72.12844,22.19014],[72.12854,22.19096],[72.12862,22.19178],[72.12869,22.1926],[72.12874,22.19342],[72.12878,22.19424],[72.1288,22.19506],[72.1288,22.19536],[72.12881,22.19589],[72.1288,22.19659],[72.1288,22.19671],[72.12877,22.19753],[72.12873,22.19836],[72.12866,22.19938],[72.12783,22.19986],[72.127,22.20035],[72.12618,22.20086],[72.12538,22.20138],[72.12458,22.20191],[72.1238,22.20246],[72.12302,22.20302],[72.12226,22.20359],[72.1215,22.20417],[72.12076,22.20476],[72.12003,22.20537],[72.11931,22.20599],[72.1186,22.20662],[72.1179,22.20726],[72.11751,22.20763],[72.11721,22.20792],[72.11654,22.20858],[72.11588,22.20925],[72.11503,22.21016],[72.11424,22.21047],[72.11347,22.2108],[72.11271,22.21115],[72.11196,22.21153],[72.11123,22.21193],[72.11052,22.21235],[72.10982,22.2128],[72.10913,22.21327],[72.10847,22.21376],[72.10782,22.21428],[72.1072,22.21481],[72.10654,22.21541],[72.10582,22.21581],[72.10538,22.21601],[72.10506,22.21616],[72.10483,22.21624],[72.10429,22.21645],[72.10349,22.2167],[72.10268,22.21689],[72.10185,22.21703],[72.10102,22.21712],[72.10018,22.21715],[72.09934,22.21713],[72.0985,22.21706],[72.09768,22.21692],[72.09696,22.21677],[72.0962,22.21703],[72.09542,22.21724],[72.09462,22.21739],[72.09382,22.2175],[72.093,22.21755],[72.09219,22.21755],[72.09137,22.2175],[72.09071,22.21733],[72.09004,22.21724],[72.08936,22.21725],[72.08868,22.21734],[72.08803,22.21752],[72.08741,22.21778],[72.08683,22.21812],[72.08661,22.2183],[72.08621,22.21863],[72.08565,22.21905],[72.08519,22.2196],[72.08588,22.22006],[72.0865,22.2206],[72.08703,22.22122],[72.08746,22.2219],[72.08779,22.22263],[72.088,22.2234],[72.0881,22.22418],[72.08807,22.22498],[72.08793,22.22576],[72.08768,22.22651],[72.08731,22.22723],[72.08688,22.22786],[72.08638,22.22842],[72.0858,22.22891],[72.08489,22.22945],[72.08416,22.22973],[72.0834,22.22992],[72.08263,22.23001],[72.08184,22.22999],[72.08107,22.22988],[72.08032,22.22967],[72.0796,22.22943],[72.07878,22.22927],[72.07793,22.22921],[72.07709,22.22927],[72.07626,22.22943],[72.07546,22.22971],[72.07472,22.23007],[72.07414,22.23047],[72.07403,22.23054],[72.07342,22.23109],[72.0729,22.23171],[72.07056,22.23458],[72.06926,22.23609],[72.06794,22.23759],[72.06658,22.23906],[72.0652,22.2405],[72.06379,22.24193],[72.06236,22.24333],[72.0609,22.24471],[72.05941,22.24607],[72.0579,22.2474],[72.05637,22.2487],[72.05499,22.25009],[72.05412,22.24962],[72.05352,22.24936],[72.05289,22.24913],[72.05225,22.24895],[72.05159,22.24881],[72.05093,22.24871],[72.05026,22.24865],[72.04959,22.24864],[72.03648,22.24572],[72.03552,22.24547],[72.03064,22.24428],[72.02955,22.24401],[72.02265,22.24217],[72.02172,22.24194],[72.02091,22.24179],[72.02009,22.24169],[72.01926,22.24165],[72.01843,22.24167],[72.01761,22.24173],[72.01679,22.24185],[72.01599,22.24202],[72.01519,22.24225],[72.01442,22.24252],[72.01367,22.24285],[72.01295,22.24322],[72.01225,22.24364],[72.01159,22.2441],[72.01096,22.2446],[72.01053,22.24524],[72.01015,22.24585],[72.00974,22.24644],[72.00929,22.247],[72.00882,22.24755],[72.00831,22.24807],[72.00777,22.24857],[72.00721,22.24904],[72.00662,22.24948],[72.00601,22.24989],[72.00538,22.25027],[72.00472,22.25063],[72.00405,22.25094],[72.00335,22.25123],[72.00265,22.25148],[72.00186,22.25174],[72.0012,22.25195],[72.00054,22.25214],[71.99988,22.25232],[71.99922,22.25249],[71.99855,22.25265],[71.99788,22.2528],[71.9972,22.25294],[71.99664,22.25305],[71.99652,22.25307],[71.99585,22.25319],[71.99516,22.25329],[71.99448,22.25339],[71.9938,22.25347],[71.99311,22.25355],[71.99242,22.25361],[71.99174,22.25366],[71.99105,22.2537],[71.99036,22.25372],[71.98967,22.25374],[71.98898,22.25375],[71.98829,22.25374],[71.9876,22.25373],[71.98691,22.2537],[71.98622,22.25366],[71.98553,22.25361],[71.98484,22.25355],[71.98416,22.25347],[71.98347,22.25339],[71.98279,22.2533],[71.98211,22.25319],[71.98143,22.25307],[71.98076,22.25295],[71.98008,22.25281],[71.97941,22.25266],[71.97875,22.2525],[71.97809,22.25226],[71.97737,22.25207],[71.97663,22.25195],[71.97476,22.25197],[71.97402,22.25211],[71.9733,22.25232],[71.97265,22.25258],[71.97164,22.25313],[71.9703,22.25356],[71.96945,22.2538],[71.9686,22.25404],[71.96791,22.25422],[71.96774,22.25426],[71.96688,22.25447],[71.96602,22.25466],[71.96516,22.25484],[71.96428,22.25501],[71.96341,22.25516],[71.96254,22.2553],[71.96166,22.25542],[71.96078,22.25553],[71.9599,22.25562],[71.95901,22.2557],[71.95813,22.25577],[71.95724,22.25582],[71.95636,22.25585],[71.95547,22.25588],[71.95458,22.25588],[71.95369,22.25588],[71.95281,22.25586],[71.95192,22.25582],[71.95104,22.25577],[71.95015,22.25571],[71.94927,22.25563],[71.94839,22.25554],[71.94772,22.25529],[71.94692,22.25506],[71.94609,22.25492],[71.94525,22.25485],[71.94441,22.25487],[71.94358,22.25497],[71.94276,22.25515],[71.94196,22.25541],[71.9412,22.25574],[71.94068,22.25616],[71.94016,22.25659],[71.93959,22.25695],[71.93896,22.25723],[71.9383,22.25743],[71.93761,22.25754],[71.93691,22.25756],[71.93622,22.25749],[71.93642,22.2584],[71.93653,22.25917],[71.93657,22.25994],[71.93656,22.26071],[71.93649,22.26148],[71.93637,22.26224],[71.93619,22.263],[71.93595,22.26374],[71.93568,22.2643],[71.93538,22.26485],[71.93514,22.26543],[71.93502,22.26587],[71.93497,22.26603],[71.93487,22.26665],[71.93484,22.26727],[71.93488,22.26789],[71.93498,22.2685],[71.93516,22.2691],[71.9354,22.26968],[71.9357,22.27023],[71.93624,22.27078],[71.93671,22.27129],[71.93712,22.27184],[71.93747,22.27244],[71.93775,22.27306],[71.93796,22.2737],[71.93809,22.27437],[71.93815,22.27504],[71.93813,22.27572],[71.93804,22.27639],[71.93798,22.27648],[71.9374,22.27742],[71.93658,22.27648],[71.93593,22.27599],[71.93535,22.27564],[71.93472,22.27535],[71.93407,22.27512],[71.93339,22.27496],[71.9327,22.27486],[71.932,22.27483],[71.93131,22.27487],[71.93039,22.27501],[71.92955,22.27504],[71.92871,22.275],[71.92787,22.27487],[71.92706,22.27466],[71.92635,22.27441],[71.92561,22.27562],[71.9251,22.27654],[71.92462,22.27748],[71.92418,22.27843],[71.92377,22.27939],[71.90347,22.27866],[71.89748,22.27845],[71.89761,22.27645],[71.89807,22.2713],[71.89825,22.27068],[71.89852,22.27009],[71.89887,22.26954],[71.8993,22.26904],[71.8998,22.2686],[71.90037,22.26823],[71.90098,22.26794],[71.90163,22.26772],[71.90231,22.2676],[71.90307,22.26724],[71.90381,22.26667],[71.90449,22.26604],[71.90509,22.26534],[71.90561,22.26458],[71.90604,22.26379],[71.90638,22.26295],[71.90663,22.26209],[71.90679,22.26108],[71.90544,22.26127],[71.90469,22.26133],[71.90393,22.26134],[71.90317,22.26133],[71.90242,22.26127],[71.90167,22.26118],[71.90093,22.26105],[71.9002,22.26093],[71.89965,22.26054],[71.89935,22.25996],[71.89938,22.25931],[71.89967,22.25874],[71.8891,22.2565],[71.88845,22.25637],[71.8877,22.25629],[71.88695,22.25629],[71.8862,22.25636],[71.88546,22.2565],[71.88474,22.25671],[71.88405,22.25699],[71.88339,22.25734],[71.88278,22.25775],[71.88221,22.25822],[71.8817,22.25874],[71.88126,22.2593],[71.881,22.25998],[71.88072,22.2608],[71.88034,22.26159],[71.87988,22.26234],[71.87934,22.26304],[71.87872,22.26369],[71.87804,22.26427],[71.87729,22.26478],[71.87649,22.26521],[71.87565,22.26557],[71.87483,22.26585],[71.87419,22.26615],[71.87311,22.26686],[71.87301,22.26152],[71.87277,22.26095],[71.87244,22.26042],[71.87203,22.25994],[71.87154,22.25954],[71.87098,22.25921],[71.87038,22.25896],[71.86974,22.2588],[71.86909,22.25874],[71.86843,22.25878],[71.86779,22.25891],[71.86717,22.25913],[71.8666,22.25944],[71.86588,22.25982],[71.86518,22.26012],[71.86446,22.26038],[71.86372,22.26061],[71.86297,22.2608],[71.86222,22.26095],[71.86146,22.26107],[71.86069,22.26115],[71.85992,22.26119],[71.85914,22.2612],[71.85837,22.26116],[71.8576,22.2611],[71.85683,22.26101],[71.85663,22.26178],[71.85633,22.26253],[71.85596,22.26325],[71.85541,22.26406],[71.85515,22.26481],[71.85492,22.26559],[71.85485,22.26589],[71.85474,22.26637],[71.8546,22.26716],[71.85451,22.26795],[71.85446,22.26875],[71.85446,22.26954],[71.85451,22.27034],[71.85459,22.27114],[71.85473,22.27192],[71.8549,22.27271],[71.85512,22.27348],[71.85539,22.27424],[71.85569,22.27498],[71.85604,22.27571],[71.8598,22.28622],[71.8592,22.28648],[71.8586,22.28671],[71.85798,22.28692],[71.85736,22.28712],[71.85674,22.28729],[71.85611,22.28744],[71.85523,22.28762],[71.8545,22.28773],[71.85363,22.28795],[71.85303,22.28838],[71.85248,22.28886],[71.85199,22.2894],[71.85156,22.28998],[71.8512,22.2906],[71.85091,22.29125],[71.8507,22.29193],[71.85056,22.29262],[71.8505,22.29332],[71.85052,22.29402],[71.85062,22.29472],[71.8508,22.2954],[71.85105,22.29607],[71.85161,22.29641],[71.85236,22.2967],[71.85305,22.29709],[71.85368,22.29757],[71.85423,22.29812],[71.85469,22.29874],[71.85506,22.29941],[71.85532,22.30012],[71.85547,22.30086],[71.85783,22.30948],[71.8576,22.31061],[71.85741,22.31111],[71.85733,22.31133],[71.85714,22.31208],[71.85704,22.31284],[71.85702,22.3136],[71.85709,22.31437],[71.85732,22.31501],[71.85738,22.31564],[71.8573,22.31627],[71.85709,22.31687],[71.85674,22.31742],[71.85628,22.31789],[71.85572,22.31825],[71.8551,22.31851],[71.85443,22.31863],[71.85375,22.31863],[71.85309,22.31849],[71.85247,22.31823],[71.85192,22.31786],[71.85147,22.31738],[71.85115,22.3168],[71.85061,22.31626],[71.84988,22.31598],[71.84909,22.31599],[71.84838,22.3163],[71.84786,22.31686],[71.84763,22.31756],[71.84781,22.31831],[71.84811,22.319],[71.8482,22.31973],[71.84806,22.32046],[71.84772,22.32112],[71.84719,22.32167],[71.84652,22.32207],[71.84575,22.32228],[71.84496,22.32228],[71.84422,22.32225],[71.84343,22.32242],[71.84271,22.32278],[71.84213,22.32331],[71.84174,22.32398],[71.84155,22.32471],[71.84168,22.32604],[71.84175,22.32667],[71.84178,22.3273],[71.84178,22.32793],[71.84174,22.32856],[71.84167,22.32918],[71.84155,22.3298],[71.84141,22.33042],[71.84123,22.33103],[71.84102,22.33163],[71.84029,22.33252],[71.84088,22.33336],[71.84134,22.33412],[71.84176,22.33491],[71.84214,22.33572],[71.84247,22.33654],[71.84275,22.33738],[71.84299,22.33823],[71.84323,22.33936],[71.8454,22.35542],[71.84552,22.35632],[71.84908,22.3585],[71.84927,22.36028],[71.84956,22.363],[71.84972,22.36453],[71.85017,22.36869],[71.85495,22.3709],[71.85488,22.37124],[71.85453,22.37293],[71.85309,22.37995],[71.85202,22.38972],[71.85268,22.39048],[71.85927,22.39808],[71.86067,22.39856],[71.86418,22.39976],[71.86665,22.40375],[71.87592,22.40695],[71.88172,22.41249],[71.88364,22.41799],[71.88419,22.41811],[71.89034,22.41908],[71.89189,22.41932],[71.89724,22.41456],[71.90352,22.40683],[71.90743,22.3985],[71.90886,22.39379],[71.90933,22.39224],[71.91026,22.38602],[71.91089,22.38056],[71.91269,22.37848],[71.91363,22.37739],[71.917,22.38255],[71.92144,22.38113],[71.92205,22.38095],[71.9221,22.38093],[71.92212,22.38092],[71.92658,22.37937],[71.92763,22.37901],[71.92842,22.37874],[71.93251,22.38035],[71.93484,22.38126],[71.93483,22.38174],[71.93463,22.38951],[71.93413,22.39389],[71.9335,22.39932],[71.9334,22.40018],[71.93332,22.40085],[71.93239,22.40689],[71.9308,22.41063],[71.92916,22.41448],[71.93065,22.42148],[71.92869,22.4253],[71.92778,22.42725],[71.92692,22.42909],[71.92539,22.43235],[71.92456,22.43747],[71.92403,22.44078],[71.9243,22.4498],[71.92642,22.45289],[71.92962,22.45756],[71.93828,22.46237],[71.93949,22.46253],[71.94207,22.46289],[71.94318,22.46304],[71.94542,22.46335],[71.94574,22.46339],[71.95292,22.46486],[71.95545,22.46537],[71.96131,22.46914],[71.96247,22.46988],[71.95967,22.47322],[71.96032,22.47795],[71.95859,22.48991],[71.95118,22.48988],[71.94251,22.48797],[71.93903,22.48722],[71.93341,22.486],[71.93087,22.48207],[71.92997,22.48068],[71.92809,22.47779],[71.92484,22.47828],[71.92318,22.47852],[71.92135,22.47881],[71.91696,22.47944],[71.90933,22.48053],[71.90811,22.48348],[71.90864,22.4868],[71.91044,22.49305],[71.91206,22.49849],[71.91855,22.49903],[71.91972,22.49935],[71.92098,22.4997],[71.92074,22.5031],[71.92053,22.50593],[71.91569,22.50362],[71.91484,22.50645],[71.91481,22.50656],[71.91401,22.50924],[71.91007,22.51767],[71.9172,22.51987],[71.92294,22.52164],[71.92419,22.52673],[71.92773,22.52942],[71.93039,22.53319],[71.93556,22.53801],[71.94027,22.53974],[71.94408,22.53997],[71.94718,22.54015],[71.9525,22.53836],[71.95441,22.53709],[71.95781,22.53483],[71.96603,22.53339],[71.97058,22.52863],[71.96991,22.52438],[71.96929,22.52314],[71.96751,22.51961],[71.96783,22.51413],[71.96809,22.50963],[71.97615,22.50879],[71.97954,22.50666],[71.98762,22.50722],[72.00033,22.50811],[72.01166,22.51287],[72.0189,22.51214],[72.01958,22.51207],[72.02366,22.51166],[72.0324,22.50679],[72.03387,22.50131],[72.03658,22.49125],[72.03879,22.48685],[72.04026,22.4839],[72.04045,22.48354],[72.04358,22.47953],[72.04451,22.47834],[72.04605,22.47636],[72.05094,22.47477],[72.05212,22.4729],[72.05223,22.47039],[72.05275,22.45841],[72.05173,22.44678],[72.05166,22.44596],[72.05156,22.44487],[72.05382,22.44354],[72.05508,22.44279],[72.05931,22.44208],[72.05943,22.44206],[72.06475,22.44118],[72.06709,22.44079],[72.07052,22.4399],[72.07924,22.43763],[72.0857,22.43769],[72.09216,22.44172],[72.10344,22.44873],[72.10868,22.45074],[72.10965,22.45111],[72.1117,22.45326],[72.11806,22.45996],[72.11928,22.46125],[72.12127,22.46334],[72.14203,22.47253],[72.14394,22.47363],[72.14542,22.47449],[72.14922,22.47669],[72.15155,22.47725],[72.15491,22.47806],[72.15643,22.47843],[72.16249,22.47989],[72.16165,22.4811],[72.16057,22.48264],[72.15974,22.48381],[72.15928,22.48447],[72.15583,22.4894],[72.15354,22.49126],[72.14876,22.49516],[72.14777,22.49596],[72.1483,22.49652],[72.14914,22.4974],[72.14947,22.49775],[72.15104,22.49937],[72.15133,22.50104],[72.15078,22.50208],[72.1441,22.51465],[72.1462,22.51681],[72.14648,22.5171],[72.14659,22.51722],[72.14921,22.51992],[72.15061,22.52136],[72.15251,22.52273],[72.16439,22.5313],[72.17169,22.53516],[72.18818,22.54211],[72.18851,22.54368],[72.18867,22.54444],[72.18873,22.5447],[72.18863,22.5451],[72.18818,22.54687],[72.18807,22.54728],[72.18793,22.5478],[72.18755,22.54932],[72.1874,22.54994],[72.18728,22.55039],[72.18645,22.55154],[72.18577,22.55248],[72.18544,22.55293],[72.18528,22.55314],[72.18428,22.55452],[72.18385,22.55512],[72.18334,22.55582],[72.18317,22.55607],[72.18112,22.55825],[72.17056,22.56951],[72.17005,22.57005],[72.16596,22.57309],[72.16305,22.57525],[72.15936,22.57798],[72.15503,22.5806],[72.14353,22.58755],[72.1377,22.59017],[72.12819,22.59444],[72.11839,22.59883],[72.1176,22.59919],[72.11484,22.59961],[72.10294,22.60145],[72.10264,22.60167],[72.1025,22.60177],[72.09745,22.60558],[72.0885,22.60195],[72.0737,22.59594],[72.07176,22.59515],[72.06671,22.59435],[72.06644,22.59431],[72.06442,22.59966],[72.06399,22.60311],[72.06368,22.60562],[72.06334,22.60839],[72.06304,22.61415],[72.06288,22.61717],[72.06291,22.61821],[72.06306,22.62449],[72.06318,22.62919],[72.06321,22.63037],[72.06349,22.64168],[72.06245,22.65108],[72.0624,22.6513],[72.05854,22.65621],[72.05742,22.65763],[72.05109,22.66139],[72.04856,22.6629],[72.03748,22.67078],[72.02809,22.67962],[72.0306,22.68137],[72.04659,22.68883],[72.05765,22.69398],[72.06732,22.67674],[72.06752,22.6767],[72.06936,22.6764],[72.07419,22.6756],[72.07452,22.67563],[72.08389,22.67655],[72.09108,22.67598],[72.09157,22.67667],[72.09707,22.68431],[72.10047,22.69211],[72.10602,22.71159],[72.10735,22.71906],[72.10768,22.72091],[72.10448,22.72348],[72.10381,22.72402],[72.09899,22.72516],[72.09491,22.72613],[72.08418,22.72868],[72.0835,22.72844],[72.08258,22.7281],[72.08167,22.72775],[72.08076,22.72738],[72.07986,22.72699],[72.07945,22.7268],[72.07897,22.72659],[72.07808,22.72618],[72.0772,22.72575],[72.07633,22.72531],[72.07547,22.72485],[72.07462,22.72439],[72.07378,22.7239],[72.07294,22.72341],[72.07212,22.7229],[72.0713,22.72237],[72.0705,22.72184],[72.06971,22.72129],[72.06892,22.72072],[72.06815,22.72015],[72.06739,22.71956],[72.06664,22.71896],[72.06554,22.71799],[72.06503,22.7175],[72.0645,22.71702],[72.06396,22.71657],[72.06347,22.71607],[72.06286,22.71528],[72.06192,22.71511],[72.0613,22.71474],[72.06067,22.71439],[72.06002,22.71406],[72.05937,22.71375],[72.0587,22.71346],[72.05802,22.71319],[72.05734,22.71295],[72.05664,22.71272],[72.05593,22.71253],[72.05522,22.71235],[72.05451,22.7122],[72.05378,22.71207],[72.05306,22.71196],[72.05232,22.71188],[72.05159,22.71182],[72.05085,22.71178],[72.05012,22.71177],[72.04938,22.71178],[72.04864,22.71182],[72.04791,22.71188],[72.04718,22.71196],[72.04655,22.71174],[72.04578,22.71166],[72.04502,22.71179],[72.04432,22.7121],[72.04374,22.71258],[72.04333,22.71319],[72.04307,22.71392],[72.04286,22.71451],[72.04262,22.7151],[72.04237,22.71567],[72.04209,22.71624],[72.04179,22.7168],[72.04147,22.71735],[72.04113,22.71788],[72.04077,22.71841],[72.04039,22.71892],[72.03999,22.71942],[72.03957,22.71991],[72.03913,22.72039],[72.03868,22.72085],[72.03821,22.72129],[72.03761,22.72158],[72.03696,22.72211],[72.0365,22.72278],[72.03625,22.72354],[72.03615,22.72429],[72.03599,22.72497],[72.03575,22.72564],[72.03544,22.72627],[72.03506,22.72687],[72.03461,22.72743],[72.0341,22.72795],[72.03354,22.72841],[72.03292,22.72882],[72.03227,22.72916],[72.03158,22.72944],[72.03086,22.72965],[72.03013,22.72979],[72.02938,22.72986],[72.02863,22.72986],[72.02788,22.72978],[72.02715,22.72963],[72.02643,22.72941],[72.02575,22.72912],[72.0251,22.72877],[72.0245,22.72836],[72.02394,22.72789],[72.02345,22.72737],[72.02301,22.7268],[72.02264,22.7262],[72.02234,22.72556],[72.02211,22.72489],[72.02196,22.72421],[72.02189,22.72352],[72.02189,22.7228],[72.02185,22.7221],[72.02177,22.72141],[72.02165,22.72072],[72.02149,22.72003],[72.02129,22.71935],[72.02106,22.71869],[72.02078,22.71803],[72.02047,22.7174],[72.02013,22.71677],[72.01975,22.71617],[72.01933,22.71558],[72.01889,22.71502],[72.01841,22.71447],[72.01837,22.71443],[72.0179,22.71395],[72.01737,22.71346],[72.0168,22.713],[72.01622,22.71256],[72.0156,22.71215],[72.01497,22.71177],[72.01413,22.71157],[72.01351,22.71141],[72.01303,22.711],[72.01281,22.71043],[72.01289,22.70983],[72.01325,22.70933],[72.01382,22.70904],[72.01448,22.70872],[72.01496,22.70817],[72.01516,22.70748],[72.01521,22.70631],[72.01522,22.70567],[72.01522,22.70502],[72.01521,22.70438],[72.01518,22.70373],[72.01514,22.70309],[72.01509,22.70245],[72.01503,22.7018],[72.01495,22.70116],[72.01487,22.70052],[72.01477,22.69988],[72.01466,22.69925],[72.01454,22.69861],[72.0144,22.69798],[72.01426,22.69735],[72.0141,22.69672],[72.01393,22.6961],[72.01375,22.69547],[72.01355,22.69485],[72.01335,22.69424],[72.01286,22.69315],[72.01232,22.69259],[72.01163,22.69218],[72.01023,22.69194],[72.00943,22.6921],[72.00871,22.69245],[72.00812,22.69297],[72.0077,22.69362],[72.0075,22.69436],[72.00745,22.69505],[72.00738,22.6957],[72.0073,22.69635],[72.00719,22.69699],[72.00705,22.69763],[72.00689,22.69826],[72.00671,22.69889],[72.0065,22.69951],[72.00627,22.70013],[72.00602,22.70074],[72.00575,22.70133],[72.00545,22.70192],[72.00513,22.7025],[72.00479,22.70307],[72.00443,22.70363],[72.00404,22.70418],[72.00328,22.70465],[72.00275,22.70503],[72.00238,22.70554],[72.00219,22.70613],[72.00222,22.70675],[72.00244,22.70733],[72.00285,22.70782],[72.00341,22.70816],[72.00405,22.70833],[72.00471,22.70831],[72.0054,22.70809],[72.00607,22.70802],[72.00672,22.70822],[72.00722,22.70864],[72.0075,22.70921],[72.00755,22.70991],[72.00749,22.71064],[72.00733,22.71135],[72.00706,22.71204],[72.00669,22.71268],[72.00622,22.71327],[72.00567,22.71379],[72.00505,22.71424],[72.00437,22.7146],[72.00373,22.71476],[72.00294,22.71503],[72.00222,22.71545],[72.00162,22.716],[72.00105,22.71683],[72.00074,22.71776],[72.00068,22.71854],[72.0008,22.71932],[72.00109,22.72006],[72.00142,22.72063],[72.00173,22.72126],[72.00198,22.7219],[72.00219,22.72256],[72.00235,22.72322],[72.00246,22.7239],[72.00252,22.72459],[72.00253,22.72527],[72.00248,22.72595],[72.00239,22.72664],[72.00224,22.72731],[72.00219,22.72806],[72.00247,22.72874],[72.00303,22.72926],[72.00325,22.72934],[72.00376,22.72952],[72.00455,22.72949],[72.00526,22.72915],[72.00576,22.72858],[72.00601,22.72797],[72.00637,22.72744],[72.00688,22.72705],[72.00751,22.72682],[72.00818,22.72678],[72.00882,22.72693],[72.00897,22.72702],[72.00939,22.72727],[72.00982,22.72775],[72.01006,22.72832],[72.0101,22.72894],[72.00993,22.72954],[72.00933,22.73003],[72.00856,22.73017],[72.00796,22.73064],[72.0077,22.73133],[72.00784,22.73205],[72.00834,22.73261],[72.00881,22.73316],[72.0091,22.73381],[72.00918,22.7345],[72.00906,22.7352],[72.00873,22.73583],[72.00823,22.73635],[72.00764,22.73674],[72.0071,22.73717],[72.00703,22.73724],[72.00662,22.73766],[72.00622,22.73821],[72.00591,22.73881],[72.00569,22.73944],[72.00557,22.74009],[72.00555,22.74075],[72.00562,22.7414],[72.0058,22.74204],[72.00606,22.74265],[72.0062,22.74287],[72.00642,22.74322],[72.00686,22.74374],[72.00738,22.7442],[72.00795,22.74459],[72.00859,22.74489],[72.00924,22.74508],[72.00974,22.7455],[72.01002,22.74607],[72.01002,22.74669],[72.00975,22.74726],[72.00925,22.74768],[72.00861,22.74788],[72.00794,22.74782],[72.00729,22.74752],[72.0068,22.74731],[72.00662,22.74723],[72.00594,22.74698],[72.00523,22.74677],[72.00514,22.74675],[72.00452,22.74661],[72.00379,22.7465],[72.00306,22.74644],[72.00232,22.74642],[72.00177,22.74644],[72.00118,22.74924],[72.00089,22.75139],[72.00119,22.7538],[72.00132,22.75409],[72.00206,22.75567],[72.00304,22.75638],[72.00351,22.75673],[72.00467,22.75806],[72.00612,22.7594],[72.00642,22.76207],[72.00642,22.76341],[72.00412,22.76744],[72.00296,22.76798],[72.00384,22.77119],[72.00471,22.77199],[72.005,22.77386],[72.0053,22.77493],[72.00501,22.77707],[72.00473,22.77868],[72.00473,22.78002],[72.00503,22.7827],[72.00504,22.78618],[72.00447,22.78832],[72.00418,22.7894],[72.00187,22.79209],[72.00159,22.79423],[72.00102,22.79664],[72.00074,22.79852],[72.00045,22.79879],[71.99669,22.79988],[71.99612,22.80042],[71.99496,22.80203],[71.99381,22.80284],[71.9941,22.80391],[71.99526,22.80471],[71.99613,22.80577],[71.99613,22.80658],[71.99614,22.80841],[71.99614,22.80952],[71.99564,22.80953],[71.99527,22.80953],[71.99441,22.80953],[71.99354,22.809],[71.99209,22.80874],[71.99182,22.80887],[71.99152,22.80901],[71.99036,22.80955],[71.99065,22.81087],[71.99065,22.81089],[71.99124,22.81356],[71.99211,22.81463],[71.99183,22.81811],[71.99068,22.82053],[71.98952,22.82],[71.98865,22.81866],[71.98839,22.81818],[71.98796,22.81739],[71.98778,22.81706],[71.98662,22.81519],[71.98632,22.81466],[71.98574,22.81499],[71.98488,22.81547],[71.984,22.81691],[71.98373,22.81735],[71.98345,22.81976],[71.98345,22.82244],[71.98317,22.82565],[71.98319,22.82887],[71.98319,22.82994],[71.98326,22.8307],[71.98348,22.83315],[71.98368,22.83468],[71.98395,22.83665],[71.98544,22.84041],[71.98762,22.84403],[71.98819,22.84503],[71.98863,22.84582],[71.98818,22.84693],[71.98803,22.8473],[71.98745,22.84872],[71.98712,22.84954],[71.98588,22.8526],[71.98577,22.8529],[71.9854,22.85394],[71.985,22.85507],[71.98471,22.85591],[71.98507,22.86173],[71.98469,22.87012],[71.98548,22.8744],[71.98644,22.87956],[71.98887,22.88549],[71.98898,22.88577],[71.992,22.89098],[71.99201,22.89099],[71.99449,22.89649],[71.99483,22.89713],[71.99652,22.90034],[71.99694,22.90114],[71.99943,22.90588],[72.00244,22.90601],[72.00248,22.9062],[72.00235,22.90893],[72.00199,22.91645],[72.00192,22.91786],[72.00303,22.92085],[72.00414,22.92383],[71.99945,22.92697],[71.99742,22.9285],[71.9904,22.93381],[71.98969,22.93711],[71.98872,22.94158],[71.99074,22.94974],[71.99429,22.95512],[71.99852,22.95718],[71.99937,22.95759],[72.00228,22.96133],[72.00271,22.96188],[72.00332,22.9627],[72.00347,22.96286],[72.00883,22.96975],[72.00996,22.9712],[72.01513,22.98072],[72.0215,22.99249],[72.01782,22.99424],[72.01516,22.99444],[72.01243,22.99465],[72.01025,22.99947],[72.01006,23.00253],[72.00979,23.00688],[72.01474,23.0128],[72.01884,23.01901],[72.0193,23.01971],[72.0192,23.02147],[72.01698,23.02636],[72.01518,23.03035],[72.01737,23.03469],[72.0177,23.04707],[72.01773,23.04815],[72.01775,23.04936],[72.01776,23.04944],[72.01778,23.05011],[72.0178,23.05094],[72.01715,23.05601],[72.01707,23.05664],[72.01408,23.05965],[72.00099,23.06631],[71.99073,23.06912],[71.98753,23.06909],[71.98325,23.06906],[71.9826,23.06906],[71.98148,23.06733],[71.98109,23.06674],[71.97964,23.06578],[71.97038,23.05968],[71.96771,23.05791],[71.96425,23.05486],[71.96334,23.05406],[71.95923,23.0487],[71.95832,23.04564],[71.95912,23.04336],[71.96049,23.04204],[71.9631,23.03954],[71.95897,23.03927],[71.95853,23.03925],[71.95761,23.03919],[71.95457,23.03899],[71.95095,23.03998],[71.94829,23.04284],[71.94912,23.04591],[71.95038,23.05059],[71.95349,23.05515],[71.95326,23.05657],[71.95262,23.06051],[71.94985,23.06666],[71.9497,23.06678],[71.94604,23.06997],[71.94132,23.06814],[71.93275,23.06746],[71.92036,23.07521],[71.91623,23.07971],[71.9152,23.08282],[71.91516,23.08296],[71.9125,23.09081],[71.90825,23.09899],[71.90724,23.10094],[71.90208,23.11087],[71.9058,23.11555],[71.90754,23.12122],[71.90608,23.13094],[71.90492,23.1387],[71.90527,23.14361],[71.90539,23.14533],[71.90546,23.14625],[71.90801,23.1512],[71.9088,23.15802],[71.90892,23.15845],[71.90928,23.1598],[71.91053,23.16449],[71.91136,23.16761],[71.91135,23.17428],[71.91134,23.18125],[71.91502,23.18405],[71.929,23.18689],[71.93238,23.19074],[71.93652,23.19545],[71.93882,23.19806],[71.94225,23.20078],[71.94234,23.20085],[71.94261,23.20106],[71.94471,23.20273],[71.94715,23.20466],[71.95307,23.20788],[71.95323,23.20797],[71.96298,23.20902],[71.96471,23.20994],[71.96627,23.21077],[71.968,23.21198],[71.97433,23.21478],[71.97776,23.21504],[71.98365,23.21549],[71.98716,23.21576],[71.98774,23.2158],[71.98985,23.21596],[71.99165,23.21609],[71.99206,23.21823],[71.99383,23.22741],[71.99424,23.22952],[71.9984,23.24351],[71.99859,23.24414],[72.00027,23.24978],[71.99764,23.25354],[71.99436,23.25494],[71.99182,23.25603],[71.98774,23.25648],[71.97473,23.25478],[71.97067,23.25294],[71.96561,23.24915],[71.96387,23.24785],[71.96234,23.24671],[71.94886,23.24248],[71.94402,23.24562],[71.94193,23.25289],[71.94075,23.257],[71.93472,23.26752],[71.93396,23.26785],[71.92932,23.26985],[71.91824,23.26686],[71.90936,23.26539],[71.90806,23.26238],[71.90719,23.26036],[71.9065,23.25726],[71.90595,23.25477],[71.90562,23.25178],[71.90556,23.25113],[71.90336,23.23068],[71.90125,23.22588],[71.8991,23.22481],[71.89354,23.22475],[71.88872,23.2247],[71.8856,23.22467],[71.87769,23.22459],[71.87651,23.22686],[71.87598,23.22788],[71.87619,23.23016],[71.87726,23.24189],[71.8777,23.24674],[71.88035,23.25361],[71.88073,23.25415],[71.88369,23.25837],[71.88359,23.25875],[71.88241,23.26342],[71.88163,23.2665],[71.88156,23.26679],[71.88143,23.26734],[71.87729,23.27399],[71.87625,23.27903],[71.87717,23.28439],[71.87728,23.28503],[71.87816,23.2902],[71.88057,23.29592],[71.88407,23.29828],[71.88446,23.29935],[71.88737,23.30729],[71.88435,23.31167],[71.88141,23.31593],[71.88265,23.3193],[71.88575,23.32773],[71.88677,23.3305],[71.88681,23.33061],[71.88909,23.3322],[71.8968,23.33325],[71.89507,23.33903],[71.89458,23.34441],[71.89136,23.35051],[71.88956,23.35271],[71.88798,23.35465],[71.88734,23.35877],[71.88699,23.36106],[71.88693,23.36113],[71.88386,23.3652],[71.87743,23.3713],[71.87509,23.37637],[71.87544,23.38034],[71.87575,23.38385],[71.87879,23.38713],[71.88002,23.38846],[71.88313,23.38968],[71.88762,23.39144],[71.88785,23.39153],[71.89438,23.39216],[71.89614,23.3907],[71.89909,23.38827],[71.90112,23.38659],[71.9086,23.3858],[71.91945,23.38954],[71.92052,23.38991],[71.9251,23.39148],[71.92773,23.3921],[71.93349,23.39345],[71.9435,23.39286],[71.95434,23.39223],[71.95475,23.39221],[71.9582,23.39312],[71.96055,23.39374],[71.96362,23.39756],[71.96397,23.39799],[71.9681,23.40524],[71.97273,23.42337],[71.9732,23.43074],[71.97322,23.43103],[71.97166,23.43889],[71.97016,23.4465],[71.96989,23.44787],[71.96903,23.45986],[71.97075,23.46725],[71.97533,23.47377],[71.9833,23.47827],[71.99137,23.48282],[71.99725,23.4897],[71.99871,23.4914],[72.00037,23.50051],[72.00101,23.50401],[72.00261,23.50366],[72.00739,23.50263],[72.01164,23.50378],[72.01229,23.50395],[72.01277,23.50408],[72.01484,23.50464],[72.0218,23.50651],[72.02486,23.50733],[72.02708,23.50793],[72.02725,23.50798],[72.03375,23.50857],[72.03587,23.50563],[72.03559,23.50324],[72.03528,23.50068],[72.03468,23.49567],[72.03378,23.49249],[72.03258,23.48825],[72.03176,23.48535],[72.03055,23.48338],[72.02714,23.47785],[72.0292,23.47492],[72.03139,23.47329],[72.03384,23.47147],[72.03558,23.46608],[72.03582,23.46049],[72.03795,23.45785],[72.04161,23.45816],[72.04178,23.45811],[72.0428,23.45781],[72.04369,23.45755],[72.04411,23.45743],[72.0465,23.45673],[72.04978,23.4533],[72.05148,23.4498],[72.05239,23.44793],[72.05295,23.44677],[72.0534,23.44585],[72.05388,23.44486],[72.05434,23.44392],[72.05459,23.444],[72.06525,23.44746],[72.06733,23.44837],[72.07589,23.45211],[72.07725,23.45252],[72.07764,23.45263],[72.07814,23.45278],[72.08322,23.45428],[72.09029,23.45638],[72.09359,23.45736],[72.09961,23.45914],[72.10204,23.45656],[72.10453,23.4539],[72.1063,23.45202],[72.10654,23.45177],[72.10691,23.45137],[72.10709,23.45126],[72.10871,23.45045],[72.10889,23.45036],[72.10937,23.45013],[72.11854,23.45114],[72.12626,23.45201],[72.12965,23.45091],[72.13187,23.45019],[72.13855,23.4487],[72.14325,23.44765],[72.14819,23.44654],[72.15084,23.44595],[72.15305,23.44545],[72.15319,23.44542],[72.15599,23.4448],[72.15907,23.44411],[72.16423,23.44183],[72.16827,23.44092],[72.17082,23.43911],[72.17291,23.43762],[72.17392,23.43089],[72.17458,23.42905],[72.17673,23.42315],[72.1769,23.42294],[72.17893,23.42044],[72.18183,23.41688],[72.1862,23.41348],[72.18657,23.41324],[72.18891,23.413],[72.19245,23.41741],[72.19497,23.41821],[72.19763,23.41906],[72.19926,23.41932],[72.2026,23.41984],[72.20679,23.42049],[72.20888,23.42201],[72.2104,23.42311],[72.21049,23.42407],[72.21059,23.42506],[72.21074,23.42647],[72.21096,23.42862],[72.2111,23.43001],[72.21123,23.43129],[72.21552,23.43395],[72.21659,23.43461],[72.22228,23.43515],[72.2265,23.43273],[72.22883,23.42924],[72.23085,23.4262],[72.23185,23.42573],[72.23218,23.42557],[72.23613,23.42369],[72.23708,23.42438],[72.23894,23.42574],[72.23973,23.42631],[72.23942,23.43348],[72.24191,23.43554],[72.24335,23.43674],[72.24609,23.43902],[72.24706,23.44366],[72.24751,23.44579],[72.24852,23.45055],[72.25287,23.45373],[72.25363,23.45429],[72.2572,23.45847],[72.25782,23.4592],[72.26354,23.46049],[72.26861,23.45318],[72.26973,23.45156],[72.27092,23.44985],[72.27118,23.44948],[72.27293,23.44695],[72.27707,23.44384],[72.27715,23.44381],[72.27722,23.44378],[72.27734,23.44372],[72.27758,23.44363],[72.27771,23.4436],[72.27783,23.44358],[72.27794,23.44357],[72.27801,23.44356],[72.27808,23.44355],[72.27819,23.4435],[72.27835,23.44344],[72.27845,23.44341],[72.27859,23.44338],[72.27876,23.44336],[72.27889,23.44336],[72.279,23.44336],[72.27909,23.44336],[72.27915,23.44336],[72.27923,23.44336],[72.27926,23.44335],[72.27932,23.44334],[72.27935,23.44332],[72.27941,23.44328],[72.27949,23.44324],[72.27956,23.44324],[72.2798,23.44324],[72.27995,23.44322],[72.28025,23.44317],[72.28066,23.44311],[72.28132,23.44293],[72.28159,23.44288],[72.28185,23.44285],[72.28204,23.44285],[72.28228,23.44288],[72.2826,23.44294],[72.28309,23.44307],[72.28328,23.44309],[72.28341,23.44308],[72.28569,23.43926],[72.2858,23.43909],[72.2854,23.43821],[72.28432,23.43583],[72.28405,23.43524],[72.28383,23.43475],[72.28287,23.43265],[72.28223,23.42907],[72.2821,23.42828],[72.28457,23.42658],[72.2877,23.42443],[72.28989,23.42219],[72.29254,23.41948],[72.29384,23.41842],[72.2978,23.41518],[72.29926,23.41398],[72.29956,23.41374],[72.29935,23.41337],[72.29657,23.40841],[72.29375,23.40337],[72.29337,23.4025],[72.29333,23.40241],[72.29199,23.39936],[72.2914,23.39801],[72.29069,23.39639],[72.28901,23.39258],[72.28886,23.39224],[72.28655,23.39057],[72.28102,23.3866],[72.27981,23.38573],[72.27685,23.3836],[72.27679,23.38356],[72.27674,23.38346],[72.27631,23.38279],[72.27443,23.37986],[72.27419,23.37948],[72.27335,23.37621],[72.27319,23.37557],[72.26898,23.3738],[72.2678,23.37331],[72.26763,23.37324],[72.26621,23.37236],[72.26253,23.37009],[72.2625,23.3681],[72.26248,23.36709],[72.26354,23.36326],[72.26355,23.36323],[72.26644,23.35276],[72.26676,23.35162],[72.26547,23.34634],[72.26298,23.34449],[72.26062,23.34273],[72.25731,23.34027],[72.25363,23.33689],[72.25124,23.3347],[72.24923,23.33286],[72.24912,23.32946],[72.2463,23.32659],[72.2461,23.32639],[72.24471,23.32496],[72.24298,23.32408],[72.24151,23.32332],[72.2414,23.32332],[72.23737,23.32312],[72.23225,23.32287],[72.22674,23.31996],[72.22525,23.31743],[72.22346,23.3144],[72.22261,23.31297],[72.22188,23.3122],[72.22013,23.31038],[72.21137,23.31027],[72.20935,23.30853],[72.20832,23.30638],[72.20662,23.30281],[72.20607,23.30166],[72.20248,23.29415],[72.2007,23.29041],[72.20007,23.28909],[72.19993,23.28313],[72.19988,23.28122],[72.19985,23.27996],[72.19979,23.27709],[72.19859,23.2766],[72.19312,23.27755],[72.18959,23.27817],[72.18421,23.27744],[72.17969,23.27451],[72.17764,23.26909],[72.17733,23.26827],[72.17698,23.26736],[72.17669,23.26235],[72.17747,23.25823],[72.18089,23.25373],[72.18095,23.25361],[72.18157,23.25229],[72.18368,23.24782],[72.18436,23.24636],[72.18467,23.2457],[72.18468,23.24568],[72.18497,23.24325],[72.18327,23.23883],[72.18308,23.23833],[72.18365,23.23594],[72.18422,23.23356],[72.18567,23.22753],[72.18626,23.22128],[72.18616,23.22018],[72.18569,23.21534],[72.18268,23.20994],[72.17704,23.20507],[72.17411,23.20053],[72.17318,23.1991],[72.17087,23.19553],[72.17055,23.19127],[72.17143,23.18819],[72.1745,23.17738],[72.17715,23.17419],[72.17823,23.17288],[72.18179,23.1707],[72.18434,23.16602],[72.18511,23.16194],[72.18539,23.16044],[72.18705,23.15159],[72.18713,23.15112],[72.18846,23.14403],[72.1883,23.14391],[72.18555,23.14192],[72.18467,23.14182],[72.18205,23.14152],[72.1817,23.14146],[72.16666,23.13976],[72.16438,23.13769],[72.16611,23.13233],[72.16463,23.12237],[72.16449,23.1214],[72.1642,23.11944],[72.16214,23.11494],[72.15767,23.1135],[72.15809,23.10956],[72.15971,23.10805],[72.16166,23.10624],[72.16269,23.10528],[72.16385,23.10421],[72.16429,23.1038],[72.16882,23.10334],[72.17048,23.10317],[72.18357,23.10482],[72.18519,23.10502],[72.1853,23.10503],[72.18753,23.10532],[72.19021,23.10507],[72.19098,23.105],[72.19206,23.10673],[72.19432,23.11035],[72.19829,23.11669],[72.20249,23.11704],[72.21173,23.1193],[72.21336,23.1197],[72.22333,23.12214],[72.23451,23.119],[72.23965,23.11755],[72.2405,23.11679],[72.24109,23.11626],[72.24187,23.11557],[72.24244,23.11505],[72.24273,23.11479],[72.24701,23.11096],[72.24837,23.10975],[72.25109,23.10863],[72.25171,23.10838],[72.25321,23.10776],[72.25899,23.1054],[72.26,23.10499],[72.26104,23.10456],[72.26194,23.10168],[72.26205,23.10134],[72.26276,23.09908],[72.26095,23.08764],[72.26456,23.08529],[72.27126,23.08388],[72.27853,23.08235],[72.28122,23.08178],[72.28289,23.08074],[72.28442,23.07979],[72.28695,23.07475],[72.28527,23.06331],[72.28687,23.05473],[72.28748,23.05367],[72.28771,23.05327],[72.2886,23.05174],[72.28953,23.05013],[72.29102,23.04753],[72.29195,23.0459],[72.29415,23.04209],[72.29505,23.04053],[72.29579,23.04067],[72.30235,23.04197],[72.30433,23.04236],[72.30478,23.0427],[72.3061,23.04368],[72.3145,23.0497],[72.32173,23.05492],[72.3229,23.05699],[72.32512,23.06096],[72.32553,23.06169],[72.32489,23.06388],[72.32443,23.06546],[72.32384,23.0675],[72.32224,23.06948],[72.32029,23.07188],[72.31965,23.07267],[72.31957,23.07277],[72.31829,23.07435],[72.31153,23.08011],[72.31059,23.08092],[72.30943,23.08256],[72.3073,23.08556],[72.30774,23.08708],[72.3097,23.09386],[72.3098,23.09423],[72.31003,23.09502],[72.31062,23.09561],[72.31164,23.09665],[72.31373,23.09876],[72.31698,23.10204],[72.31843,23.10264],[72.32759,23.10643],[72.32844,23.10654],[72.3334,23.10716],[72.33596,23.10748],[72.33669,23.10757],[72.33734,23.10765],[72.34036,23.10601],[72.34463,23.10156],[72.35157,23.09134],[72.35253,23.08992],[72.35691,23.08708],[72.35717,23.08709],[72.36256,23.08725],[72.36334,23.08727],[72.36387,23.08729],[72.37023,23.08982],[72.37287,23.08813],[72.37566,23.08326],[72.37631,23.0829],[72.37865,23.0816],[72.38077,23.08041],[72.38263,23.0786],[72.38369,23.07756],[72.38248,23.06836],[72.38228,23.06686],[72.38337,23.06208],[72.3835,23.06151],[72.38423,23.06045],[72.38454,23.05999],[72.38501,23.05931],[72.38517,23.05908],[72.38539,23.05877],[72.38635,23.05735],[72.38673,23.05682],[72.38704,23.05637],[72.38714,23.05622],[72.38747,23.05573],[72.38793,23.05507],[72.38805,23.0549],[72.38832,23.05451],[72.38851,23.05423],[72.38896,23.05357],[72.3891,23.05336],[72.38931,23.05306],[72.38969,23.05251],[72.3938,23.05369],[72.40032,23.05556],[72.40123,23.05655],[72.40195,23.05731],[72.40255,23.05795],[72.40325,23.0587],[72.40335,23.0632],[72.40707,23.06755],[72.41105,23.06721],[72.41655,23.0644],[72.41973,23.06467],[72.42356,23.06499],[72.42505,23.06511],[72.42525,23.06512],[72.4282,23.06537],[72.42888,23.06543],[72.42939,23.06449],[72.42973,23.06384],[72.43134,23.06085],[72.43361,23.05664],[72.43348,23.05622],[72.43172,23.05036],[72.43124,23.04874],[72.43317,23.04452],[72.43595,23.04406],[72.43861,23.04362],[72.44045,23.04388],[72.4462,23.04469],[72.4467,23.04476],[72.44745,23.04487],[72.44751,23.0452],[72.44787,23.04706],[72.4479,23.0472],[72.44793,23.04736],[72.44811,23.04831],[72.44817,23.04862],[72.44878,23.05181],[72.44891,23.05246],[72.44905,23.05317],[72.44924,23.05416],[72.4493,23.05449],[72.44937,23.05487],[72.44948,23.05545],[72.44953,23.05568],[72.44955,23.05579],[72.44962,23.05616],[72.45023,23.05934],[72.45312,23.06026],[72.45472,23.06077],[72.46101,23.05966],[72.46511,23.05992],[72.46909,23.06018],[72.46914,23.06018],[72.47228,23.06299],[72.47384,23.06438],[72.47415,23.07124],[72.47304,23.07204],[72.47293,23.07212],[72.47189,23.07287],[72.47169,23.07301],[72.4684,23.07539],[72.46338,23.0779],[72.46288,23.07814],[72.46258,23.07829],[72.46224,23.07845],[72.46206,23.07879],[72.46189,23.07911],[72.46166,23.07953],[72.46148,23.07987],[72.46022,23.08226],[72.46371,23.08343],[72.4697,23.0839],[72.4745,23.08428],[72.47737,23.08532],[72.47781,23.08548],[72.47838,23.08568],[72.47866,23.08578],[72.47883,23.08584],[72.47891,23.08587],[72.47911,23.08594],[72.47913,23.08599],[72.47924,23.08629],[72.47943,23.08632],[72.47955,23.08634],[72.47986,23.08639],[72.4802,23.08648],[72.48053,23.08655],[72.48072,23.08662],[72.48087,23.08667],[72.48154,23.08691],[72.48164,23.08691],[72.48176,23.08686],[72.48197,23.08675],[72.48216,23.08654],[72.48226,23.08633],[72.4825,23.08582],[72.48266,23.08564],[72.48281,23.08553],[72.483,23.08552],[72.48326,23.08551],[72.48338,23.08551],[72.4835,23.08551],[72.48391,23.0857],[72.48421,23.08584],[72.48434,23.0859],[72.48442,23.08596],[72.48453,23.08605],[72.48474,23.08621],[72.48494,23.08641],[72.48509,23.08655],[72.48539,23.08671],[72.48566,23.08685],[72.48571,23.08692],[72.48575,23.08697],[72.48581,23.08702],[72.48602,23.08715],[72.48611,23.08724],[72.48616,23.08733],[72.48617,23.08742],[72.48618,23.0877],[72.48619,23.08795],[72.48619,23.08822],[72.48617,23.08849],[72.48613,23.08902],[72.48614,23.08926],[72.48616,23.08952],[72.4862,23.08977],[72.48636,23.09099],[72.48645,23.0919],[72.48653,23.09245],[72.48672,23.09335],[72.48679,23.0936],[72.48683,23.09385],[72.48685,23.09413],[72.48685,23.09435],[72.48684,23.09494],[72.48682,23.0951],[72.48676,23.09529],[72.4867,23.09544],[72.48662,23.09558],[72.48629,23.09608],[72.48572,23.09692],[72.4854,23.09741],[72.48522,23.09769],[72.48514,23.09783],[72.48501,23.09808],[72.48494,23.09822],[72.48484,23.0984],[72.48473,23.09853],[72.48463,23.09862],[72.48456,23.09868],[72.48446,23.09874],[72.48419,23.09889],[72.48401,23.09899],[72.48358,23.09924],[72.4826,23.09987],[72.48237,23.10001],[72.48196,23.10023],[72.48217,23.10159],[72.48222,23.10192],[72.48234,23.10265],[72.48237,23.10286],[72.48237,23.10291],[72.48266,23.10396],[72.48272,23.10419],[72.48275,23.10431],[72.48276,23.10451],[72.48273,23.10464],[72.4827,23.10471],[72.48264,23.10483],[72.48219,23.10521],[72.48212,23.10527],[72.48148,23.10579],[72.48123,23.106],[72.48084,23.10636],[72.4807,23.10647],[72.47992,23.10694],[72.47951,23.10726],[72.47899,23.10765],[72.47887,23.10771],[72.47876,23.10771],[72.47862,23.10768],[72.47825,23.10761],[72.47806,23.10758],[72.47804,23.10777],[72.47795,23.10824],[72.47789,23.10841],[72.47785,23.10854],[72.47775,23.1088],[72.47765,23.10917],[72.47762,23.10926],[72.47759,23.10937],[72.47762,23.10947],[72.4775,23.10969],[72.47722,23.10957],[72.47722,23.10983],[72.47715,23.11038],[72.47715,23.1106],[72.47718,23.11085],[72.47732,23.11176],[72.47739,23.11222],[72.47746,23.11288],[72.47756,23.1135],[72.47764,23.11402],[72.47766,23.1143],[72.47765,23.11449],[72.47746,23.11458],[72.47731,23.11463],[72.47716,23.1147],[72.477,23.11475],[72.4768,23.1147],[72.47654,23.11468],[72.47645,23.11477],[72.4762,23.11487],[72.47585,23.115],[72.47567,23.11506],[72.47548,23.11512],[72.47536,23.11508],[72.47554,23.11634],[72.47561,23.11658],[72.47564,23.11671],[72.47599,23.11796],[72.47603,23.11847],[72.47599,23.11876],[72.47596,23.11889],[72.4759,23.11907],[72.47582,23.11926],[72.47574,23.11938],[72.47577,23.11948],[72.47579,23.11959],[72.47582,23.11973],[72.47585,23.1199],[72.47587,23.12002],[72.47588,23.12015],[72.47588,23.12024],[72.47588,23.12032],[72.47587,23.12038],[72.47585,23.12056],[72.47581,23.12076],[72.47578,23.12096],[72.47574,23.12114],[72.47572,23.1213],[72.4757,23.1214],[72.47569,23.12145],[72.47568,23.12151],[72.47567,23.12162],[72.47563,23.1218],[72.4756,23.12199],[72.47557,23.1221],[72.47555,23.12224],[72.47553,23.12241],[72.4755,23.12255],[72.47548,23.12272],[72.47545,23.12288],[72.47544,23.12292],[72.47542,23.12305],[72.4754,23.12317],[72.47538,23.12327],[72.47536,23.12338],[72.47535,23.12351],[72.47533,23.12361],[72.47531,23.12371],[72.47528,23.12382],[72.47527,23.12392],[72.47525,23.12408],[72.47522,23.12422],[72.4752,23.12431],[72.47519,23.12438],[72.47519,23.12441],[72.47518,23.12445],[72.47516,23.12455],[72.47512,23.12485],[72.47506,23.12515],[72.47502,23.1254],[72.475,23.12554],[72.47498,23.1257],[72.47496,23.12579],[72.47494,23.1259],[72.47493,23.12599],[72.47491,23.12607],[72.4749,23.12612],[72.4749,23.1262],[72.47488,23.1263],[72.47487,23.12634],[72.47484,23.12648],[72.47482,23.1266],[72.4748,23.12672],[72.47475,23.12706],[72.47474,23.12715],[72.47486,23.12723],[72.47512,23.12743],[72.47596,23.1281],[72.47837,23.13002],[72.47927,23.13074],[72.48017,23.13146],[72.4809,23.13202],[72.48128,23.13233],[72.48148,23.13253],[72.48165,23.13275],[72.48179,23.13294],[72.48191,23.13315],[72.48202,23.13343],[72.48217,23.13409],[72.48224,23.13454],[72.48259,23.13637],[72.48288,23.13793],[72.48313,23.1391],[72.48323,23.13955],[72.48333,23.14005],[72.48346,23.14045],[72.48363,23.14083],[72.4841,23.14166],[72.48453,23.14243],[72.48477,23.14289],[72.48523,23.14372],[72.48553,23.14432],[72.48572,23.14469],[72.48593,23.14455],[72.48602,23.14454],[72.4862,23.14443],[72.48628,23.14436],[72.48643,23.14426],[72.48661,23.14414],[72.48687,23.14395],[72.487,23.14388],[72.48711,23.14382],[72.48722,23.14379],[72.48733,23.14377],[72.48744,23.14375],[72.48766,23.14374],[72.48794,23.14373],[72.48809,23.14373],[72.48828,23.14372],[72.48858,23.1437],[72.48882,23.14368],[72.48903,23.14366],[72.48919,23.14364],[72.48932,23.14362],[72.48942,23.14359],[72.48957,23.14354],[72.4897,23.14349],[72.48986,23.14343],[72.49001,23.14335],[72.49023,23.14325],[72.49043,23.14314],[72.49058,23.14306],[72.4907,23.14298],[72.4908,23.1429],[72.49089,23.14283],[72.49096,23.14276],[72.49104,23.14266],[72.49111,23.14257],[72.4912,23.14246],[72.49132,23.14232],[72.49143,23.14219],[72.49155,23.14207],[72.49175,23.14184],[72.49179,23.14179],[72.49186,23.14171],[72.49188,23.14168],[72.49196,23.14159],[72.49207,23.14146],[72.49221,23.14129],[72.49234,23.14114],[72.49248,23.14098],[72.49262,23.14081],[72.49275,23.14065],[72.49283,23.14053],[72.49291,23.14041],[72.49296,23.14032],[72.49303,23.14019],[72.4931,23.14006],[72.49325,23.13978],[72.49342,23.13945],[72.49346,23.13939],[72.49368,23.13901],[72.49378,23.13886],[72.49389,23.13871],[72.49396,23.1386],[72.49404,23.13849],[72.49412,23.13838],[72.49421,23.13827],[72.49431,23.13814],[72.4944,23.13803],[72.49447,23.13793],[72.49461,23.13775],[72.49484,23.13745],[72.49519,23.13699],[72.49539,23.13675],[72.49558,23.13648],[72.49592,23.13604],[72.49613,23.13575],[72.49634,23.13546],[72.4964,23.13538],[72.4966,23.1351],[72.49672,23.13491],[72.49688,23.13464],[72.497,23.13444],[72.49707,23.13431],[72.4971,23.13418],[72.49713,23.13407],[72.49715,23.13396],[72.49717,23.13384],[72.49717,23.13371],[72.49716,23.13343],[72.49716,23.13309],[72.49716,23.13283],[72.49716,23.1325],[72.49715,23.13236],[72.49715,23.13215],[72.49729,23.1322],[72.49738,23.13222],[72.49747,23.13225],[72.49759,23.13233],[72.49775,23.13245],[72.49782,23.13249],[72.49793,23.13255],[72.49812,23.13264],[72.49823,23.1327],[72.49829,23.13274],[72.49839,23.13281],[72.49845,23.13286],[72.4985,23.1329],[72.49854,23.13295],[72.49858,23.13303],[72.49866,23.13318],[72.49871,23.13329],[72.49875,23.13336],[72.4988,23.13341],[72.49892,23.13355],[72.4991,23.13373],[72.49976,23.13446],[72.49989,23.13458],[72.49995,23.13463],[72.50005,23.13473],[72.5003,23.135],[72.50041,23.1351],[72.5005,23.13518],[72.50064,23.13529],[72.50084,23.13541],[72.50097,23.13546],[72.50103,23.13549],[72.50125,23.13556],[72.50136,23.1356],[72.50144,23.13565],[72.50152,23.1357],[72.5016,23.13575],[72.50175,23.13583],[72.50179,23.13586],[72.50181,23.13591],[72.50185,23.13624],[72.50188,23.13633],[72.5021,23.13669],[72.5022,23.13682],[72.50234,23.137],[72.50237,23.13704],[72.50239,23.13712],[72.50238,23.13746],[72.50237,23.13803],[72.50235,23.13818],[72.50234,23.13832],[72.50235,23.13844],[72.50238,23.13854],[72.50242,23.13861],[72.50249,23.13865],[72.50255,23.13866],[72.5027,23.13865],[72.50279,23.13864],[72.50289,23.13866],[72.50313,23.1387],[72.50323,23.13874],[72.5033,23.13878],[72.50334,23.13886],[72.50339,23.13897],[72.50346,23.13906],[72.5039,23.13937],[72.50425,23.13963],[72.50469,23.13994],[72.50495,23.1401],[72.50508,23.14017],[72.50547,23.14035],[72.50569,23.14044],[72.50583,23.14049],[72.50607,23.1405],[72.50609,23.14059],[72.5061,23.14065],[72.50627,23.1408],[72.50682,23.14141],[72.50714,23.14178],[72.50751,23.14224],[72.50762,23.14239],[72.50769,23.14252],[72.50775,23.14271],[72.50783,23.14295],[72.50805,23.14377],[72.50809,23.14395],[72.50817,23.14415],[72.50824,23.14427],[72.50831,23.14437],[72.50836,23.14446],[72.50842,23.14456],[72.50848,23.1447],[72.50854,23.14484],[72.50857,23.14497],[72.50861,23.14506],[72.50867,23.14517],[72.50874,23.14526],[72.50883,23.14536],[72.50896,23.1455],[72.5091,23.14564],[72.50923,23.14578],[72.50938,23.14597],[72.50946,23.14608],[72.5095,23.14611],[72.50953,23.14617],[72.5096,23.14633],[72.50964,23.14649],[72.50966,23.14657],[72.5097,23.14662],[72.50976,23.14667],[72.50983,23.14668],[72.50993,23.14669],[72.51002,23.1467],[72.51019,23.14673],[72.51035,23.14677],[72.51065,23.14685],[72.51088,23.14691],[72.51107,23.14693],[72.5115,23.14695],[72.51186,23.14697],[72.51196,23.14684],[72.51228,23.14668],[72.51253,23.1466],[72.5127,23.14659],[72.51288,23.14659],[72.51305,23.14659],[72.51314,23.14673],[72.51321,23.14685],[72.51335,23.14713],[72.51351,23.14724],[72.5138,23.14727],[72.51415,23.14727],[72.51464,23.14722],[72.51471,23.14721],[72.51508,23.14724],[72.51535,23.14724],[72.51569,23.14724],[72.51669,23.14717],[72.51678,23.14717],[72.51694,23.14717],[72.51728,23.14714],[72.51741,23.14708],[72.51756,23.147],[72.51834,23.14644],[72.51858,23.14629],[72.51898,23.14616],[72.5195,23.14602],[72.52001,23.14597],[72.52066,23.14599],[72.52107,23.14597],[72.52129,23.14593],[72.52155,23.14589],[72.5218,23.14581],[72.52241,23.14559],[72.52248,23.14556],[72.52256,23.14553],[72.52327,23.14532],[72.52393,23.14515],[72.52433,23.1451],[72.52458,23.14506],[72.52505,23.14517],[72.52583,23.14535],[72.52622,23.14541],[72.52689,23.1454],[72.52722,23.14539],[72.52726,23.14548],[72.52716,23.14599],[72.52696,23.1466],[72.52682,23.147],[72.52678,23.14719],[72.52678,23.14734],[72.52678,23.14755],[72.52669,23.14802],[72.52662,23.14828],[72.52655,23.1484],[72.52643,23.14855],[72.52628,23.14884],[72.52614,23.14909],[72.52608,23.14923],[72.52604,23.14948],[72.52602,23.14964],[72.52588,23.14992],[72.52576,23.15014],[72.52558,23.15042],[72.52535,23.15083],[72.52511,23.15129],[72.52483,23.15196],[72.52469,23.15243],[72.52449,23.15291],[72.52436,23.15317],[72.52427,23.15339],[72.52417,23.15356],[72.52408,23.15376],[72.52402,23.154],[72.52392,23.15421],[72.5238,23.15435],[72.52355,23.15458],[72.52313,23.15493],[72.5229,23.1552],[72.52258,23.15562],[72.52241,23.15598],[72.52235,23.15619],[72.52227,23.15649],[72.52219,23.15661],[72.52202,23.15679],[72.52164,23.15721],[72.52141,23.15745],[72.52121,23.15773],[72.52111,23.15795],[72.52109,23.15808],[72.52109,23.15846],[72.52112,23.15944],[72.52117,23.15979],[72.52116,23.1599],[72.52111,23.15999],[72.52104,23.16004],[72.52092,23.16012],[72.52075,23.16015],[72.52058,23.16018],[72.52049,23.16025],[72.52047,23.16035],[72.52045,23.16066],[72.52045,23.16081],[72.52042,23.16098],[72.52034,23.16116],[72.52026,23.16134],[72.52017,23.16154],[72.52002,23.16189],[72.51993,23.1621],[72.51981,23.1622],[72.51969,23.16232],[72.51955,23.16254],[72.51948,23.16275],[72.5194,23.16296],[72.51934,23.16315],[72.51916,23.16349],[72.5187,23.16407],[72.5186,23.16423],[72.51853,23.16437],[72.5184,23.16475],[72.51824,23.16541],[72.51797,23.16638],[72.51784,23.16644],[72.51769,23.16654],[72.51752,23.16671],[72.51743,23.16689],[72.51739,23.16698],[72.51737,23.16717],[72.51732,23.16745],[72.5174,23.16782],[72.51752,23.16838],[72.51772,23.16925],[72.51866,23.16911],[72.51956,23.16898],[72.52097,23.16879],[72.52192,23.16864],[72.52283,23.16865],[72.52317,23.16871],[72.52419,23.16878],[72.52455,23.1688],[72.52509,23.16882],[72.52573,23.16884],[72.52616,23.16885],[72.5267,23.16889],[72.52698,23.16896],[72.52761,23.1692],[72.52834,23.16931],[72.52883,23.16934],[72.5291,23.16935],[72.52926,23.16933],[72.52956,23.16931],[72.52979,23.16926],[72.53004,23.1693],[72.53014,23.1694],[72.53021,23.16958],[72.53019,23.16988],[72.53107,23.16956],[72.53138,23.16905],[72.53257,23.16712],[72.53279,23.16676],[72.5343,23.1643],[72.53724,23.16427],[72.53899,23.16443],[72.53955,23.16449],[72.53976,23.16451],[72.54027,23.16456],[72.54129,23.16467],[72.54133,23.16467],[72.54315,23.16423],[72.5435,23.16414],[72.54371,23.16409],[72.54467,23.1624],[72.54474,23.16225],[72.54483,23.16214],[72.54563,23.16053],[72.54705,23.15771],[72.54881,23.15421],[72.55033,23.15126],[72.55041,23.15115],[72.55098,23.15],[72.55129,23.14952],[72.55163,23.14895],[72.55197,23.14831],[72.55218,23.14782],[72.55235,23.1475],[72.553,23.14625],[72.55331,23.14562],[72.55376,23.14472],[72.55485,23.14256],[72.55627,23.13977],[72.55748,23.13738],[72.55785,23.1366],[72.55799,23.13622],[72.55815,23.1356],[72.55817,23.13538],[72.55952,23.13551],[72.56078,23.13509],[72.56298,23.13436],[72.56505,23.13368],[72.56552,23.13351],[72.56721,23.13329],[72.56763,23.13324],[72.56897,23.13302],[72.57133,23.13269],[72.57196,23.1326],[72.5726,23.13251],[72.57306,23.13244],[72.57539,23.13213],[72.5791,23.13164],[72.583,23.13111],[72.58462,23.13091],[72.58474,23.13087],[72.5849,23.13082],[72.58495,23.13086],[72.585,23.13087],[72.58506,23.13088],[72.58513,23.13087],[72.58522,23.13084],[72.58527,23.13082],[72.5853,23.13079],[72.58554,23.13078],[72.58565,23.13077],[72.5862,23.13068],[72.5868,23.1306],[72.58768,23.13047],[72.58803,23.13041],[72.58852,23.1303],[72.58885,23.13021],[72.58918,23.13013],[72.58953,23.13001],[72.58988,23.12988],[72.59113,23.12936],[72.59133,23.12927],[72.59204,23.12898],[72.59499,23.12769],[72.59646,23.12704],[72.5986,23.12612],[72.60047,23.1253],[72.60389,23.12387],[72.60738,23.12241],[72.60978,23.12141],[72.61004,23.1213],[72.61096,23.12088],[72.61304,23.11989],[72.61377,23.11952],[72.61434,23.11927],[72.6144,23.11927],[72.6145,23.11927],[72.61456,23.11926],[72.61462,23.11924],[72.61467,23.1192],[72.61471,23.11916],[72.61474,23.11912],[72.61475,23.11909],[72.61476,23.11905],[72.61476,23.11901],[72.61476,23.11897],[72.61476,23.11895],[72.61475,23.11892],[72.61473,23.11887],[72.61471,23.11884],[72.61468,23.11881],[72.61464,23.11878],[72.61459,23.11876],[72.61472,23.11868],[72.61492,23.11859],[72.61507,23.11852],[72.61529,23.11845],[72.61572,23.11832],[72.61731,23.11789],[72.61708,23.11752],[72.61658,23.11665],[72.61641,23.11642],[72.61631,23.1163],[72.61618,23.11619],[72.61601,23.11607],[72.61558,23.11584],[72.61559,23.11566],[72.61555,23.11527],[72.61548,23.115],[72.61546,23.11493],[72.61542,23.11487],[72.61537,23.11427],[72.61532,23.11378],[72.61526,23.11322],[72.61526,23.11314],[72.61519,23.11249],[72.61518,23.11238],[72.61515,23.11215],[72.61513,23.1121],[72.61508,23.11202],[72.61503,23.11189],[72.6149,23.11153],[72.61485,23.11144],[72.61477,23.11133],[72.61474,23.11129],[72.61473,23.11125],[72.61459,23.1107],[72.6145,23.11034],[72.61446,23.1103],[72.61443,23.11024],[72.6142,23.1096],[72.61411,23.10931],[72.61411,23.10923],[72.61411,23.1092],[72.61412,23.10917],[72.61414,23.10914],[72.61452,23.10886],[72.61458,23.1088],[72.61461,23.10875],[72.61465,23.10867],[72.61432,23.10855],[72.61426,23.10851],[72.61358,23.10785],[72.61352,23.10779],[72.6135,23.10777],[72.61326,23.10755],[72.61317,23.10746],[72.61295,23.1073],[72.61277,23.10714],[72.61262,23.10699],[72.61249,23.10685],[72.61232,23.10668],[72.61217,23.10653],[72.61192,23.10635],[72.61104,23.10581],[72.61109,23.10544],[72.6111,23.10506],[72.61114,23.10464],[72.61117,23.1041],[72.61064,23.10404],[72.61029,23.10398],[72.60995,23.10393],[72.60967,23.1039],[72.60951,23.10387],[72.60905,23.10381],[72.609,23.10282],[72.609,23.10255],[72.609,23.10245],[72.609,23.10145],[72.609,23.10136],[72.60905,23.10127],[72.60915,23.10111],[72.60951,23.1006],[72.60933,23.10044],[72.60917,23.10026],[72.60905,23.10003],[72.60879,23.10002],[72.6085,23.10004],[72.60802,23.10005],[72.60798,23.1001],[72.6063,23.10012],[72.60615,23.10011],[72.60607,23.1001],[72.60602,23.10006],[72.60511,23.09879],[72.60456,23.09816],[72.60441,23.09796],[72.60441,23.09725],[72.6044,23.0959],[72.6044,23.0955],[72.60442,23.09521],[72.60444,23.09498],[72.60447,23.09485],[72.60458,23.09472],[72.60475,23.09455],[72.6047,23.09438],[72.60466,23.09422],[72.60441,23.09382],[72.60432,23.09372],[72.60423,23.09366],[72.60408,23.09355],[72.60371,23.09303],[72.60359,23.09281],[72.60328,23.0926],[72.60218,23.09159],[72.60154,23.0909],[72.60248,23.08985],[72.60595,23.08904],[72.60733,23.08972],[72.61083,23.09144],[72.61522,23.09111],[72.61641,23.09103],[72.6239,23.09048],[72.62989,23.09071],[72.63001,23.09071],[72.63424,23.09086],[72.64174,23.09273],[72.64198,23.09288],[72.64389,23.09408],[72.64462,23.09501],[72.64511,23.09587],[72.64624,23.09747],[72.64772,23.09896],[72.64833,23.10114],[72.64886,23.10222],[72.6491,23.10296],[72.64927,23.10469],[72.64924,23.10559],[72.64941,23.10643],[72.64925,23.10705],[72.64925,23.10787],[72.64919,23.10854],[72.64914,23.109],[72.64908,23.10982],[72.64898,23.11131],[72.6491,23.11201],[72.64907,23.11236],[72.64924,23.11298],[72.64936,23.11484],[72.64958,23.11529],[72.65003,23.1153],[72.65067,23.11531],[72.65182,23.11532],[72.65209,23.1154],[72.65235,23.1154],[72.65233,23.11548],[72.65466,23.1155],[72.6554,23.11551],[72.65608,23.11552],[72.65628,23.11552],[72.6565,23.1155],[72.65685,23.11545],[72.65728,23.11536],[72.65792,23.11523],[72.65821,23.11517],[72.65845,23.11512],[72.65879,23.11506],[72.66019,23.1148],[72.66146,23.11456],[72.66202,23.11446],[72.66246,23.11438],[72.66314,23.11426],[72.66381,23.11414],[72.66403,23.1141],[72.66426,23.11405],[72.66561,23.11369],[72.66594,23.1136],[72.66629,23.1135],[72.6679,23.11306],[72.66814,23.11299],[72.66835,23.11292],[72.66852,23.11286],[72.6704,23.11217],[72.67109,23.11192],[72.67155,23.11175],[72.67227,23.11149],[72.67263,23.11135],[72.67279,23.11128],[72.6729,23.11122],[72.673,23.11116],[72.6731,23.1111],[72.6731,23.11117],[72.67312,23.11124],[72.67314,23.11129],[72.67317,23.11133],[72.67322,23.11137],[72.67327,23.1114],[72.67332,23.11141],[72.67338,23.11141],[72.67345,23.1114],[72.67352,23.11137],[72.67359,23.11132],[72.67363,23.11127],[72.67366,23.11121],[72.67366,23.11114],[72.67365,23.11107],[72.67363,23.11102],[72.6736,23.11098],[72.67355,23.11094],[72.6735,23.11091],[72.67365,23.1109],[72.67377,23.11089],[72.67392,23.11087],[72.67406,23.11084],[72.67425,23.11078],[72.67512,23.11047],[72.67547,23.11035],[72.67637,23.11004],[72.67752,23.10963],[72.67772,23.10955],[72.67792,23.10947],[72.67817,23.10936],[72.67842,23.10924],[72.67863,23.10913],[72.67876,23.10905],[72.67888,23.10897],[72.67902,23.10887],[72.6798,23.10822],[72.68094,23.10724],[72.68121,23.10702],[72.68149,23.10678],[72.68197,23.10638],[72.68277,23.10571],[72.68292,23.10558],[72.68308,23.10543],[72.68324,23.10526],[72.6835,23.10497],[72.68369,23.10473],[72.68383,23.10454],[72.68398,23.10432],[72.68409,23.10414],[72.68421,23.10393],[72.68434,23.10368],[72.6846,23.10314],[72.68469,23.10295],[72.68488,23.10281],[72.68516,23.10251],[72.68615,23.10156],[72.68766,23.10012],[72.69045,23.10061],[72.69054,23.10063],[72.69212,23.1009],[72.6969,23.10505],[72.70045,23.10812],[72.70287,23.11022],[72.70453,23.11015],[72.70632,23.11008],[72.70921,23.10996],[72.71264,23.10778],[72.71418,23.10681],[72.71523,23.10403],[72.71563,23.10299],[72.71575,23.10289],[72.7157,23.10279],[72.71602,23.10197],[72.71869,23.09791],[72.72167,23.0958],[72.72398,23.09657],[72.72501,23.09692],[72.72519,23.09698],[72.72541,23.09705],[72.72562,23.09712],[72.72941,23.09763],[72.73387,23.09823],[72.73643,23.09857],[72.73736,23.09837],[72.73898,23.09801],[72.74216,23.09731],[72.74309,23.09678],[72.7439,23.09632],[72.74421,23.09615],[72.74645,23.09814],[72.74637,23.09749],[72.74611,23.0968],[72.74575,23.09616],[72.7454,23.09556],[72.74512,23.09484],[72.74494,23.0941],[72.74488,23.09334],[72.74493,23.09257],[72.74505,23.09165],[72.74511,23.09091],[72.74514,23.09017],[72.74514,23.08942],[72.74519,23.08937],[72.74569,23.08885],[72.7464,23.08874],[72.74977,23.08956],[72.75214,23.08963],[72.75369,23.08968],[72.754,23.08979],[72.75441,23.08994],[72.75506,23.09034],[72.7556,23.09084],[72.75627,23.09222],[72.75735,23.09193],[72.75897,23.0939],[72.75981,23.0938],[72.76054,23.09402],[72.76122,23.09433],[72.76191,23.09459],[72.76276,23.09477],[72.76356,23.09484],[72.76437,23.0948],[72.76516,23.09466],[72.76594,23.09451],[72.7666,23.09428],[72.76722,23.09395],[72.76777,23.09354],[72.76825,23.09306],[72.76839,23.09287],[72.76864,23.09251],[72.76911,23.09161],[72.76957,23.09085],[72.77007,23.0901],[72.77061,23.08938],[72.7712,23.08869],[72.77182,23.08803],[72.77247,23.08742],[72.773,23.08698],[72.77354,23.08656],[72.77409,23.08615],[72.77466,23.08576],[72.7752,23.08535],[72.77561,23.08492],[72.77569,23.08483],[72.77615,23.08429],[72.77656,23.08371],[72.77693,23.08311],[72.77726,23.08249],[72.77753,23.08184],[72.77776,23.08118],[72.77806,23.08046],[72.77836,23.07984],[72.77862,23.07921],[72.77884,23.07857],[72.77903,23.07791],[72.77918,23.07725],[72.77929,23.07658],[72.77936,23.07591],[72.77888,23.07548],[72.77827,23.07481],[72.77773,23.07409],[72.77728,23.07332],[72.77689,23.07257],[72.77652,23.07206],[72.77602,23.07158],[72.77582,23.07144],[72.77546,23.07117],[72.77483,23.07084],[72.77409,23.07041],[72.77345,23.06995],[72.77285,23.06945],[72.77228,23.06891],[72.77176,23.06848],[72.77098,23.06651],[72.77018,23.06471],[72.76906,23.06223],[72.76857,23.06113],[72.76733,23.05823],[72.7687,23.05851],[72.76942,23.05849],[72.77011,23.05836],[72.77062,23.0579],[72.77104,23.05744],[72.77168,23.0572],[72.77236,23.05709],[72.77304,23.0571],[72.77381,23.05727],[72.77457,23.05737],[72.77534,23.05737],[72.77609,23.05727],[72.77697,23.05712],[72.77762,23.05704],[72.77828,23.05698],[72.77895,23.05693],[72.77991,23.05679],[72.78066,23.05672],[72.781,23.05673],[72.7814,23.05675],[72.78218,23.05697],[72.78289,23.05722],[72.78362,23.05742],[72.78452,23.05757],[72.78522,23.05764],[72.78592,23.05768],[72.78663,23.05769],[72.78733,23.05766],[72.7882,23.05758],[72.78919,23.05742],[72.78997,23.05728],[72.79067,23.05707],[72.79128,23.05668],[72.79183,23.05621],[72.79246,23.05578],[72.7931,23.05538],[72.79377,23.05502],[72.79447,23.05465],[72.79497,23.05417],[72.79531,23.05358],[72.7955,23.053],[72.79584,23.05243],[72.79631,23.05193],[72.79688,23.05154],[72.79752,23.05126],[72.79775,23.05113],[72.7981,23.05092],[72.7986,23.05041],[72.79893,23.04979],[72.79907,23.04911],[72.799,23.04843],[72.79864,23.04778],[72.79813,23.0472],[72.7975,23.04674],[72.79694,23.0463],[72.79651,23.04585],[72.79612,23.04536],[72.7958,23.04483],[72.79554,23.04428],[72.79533,23.04353],[72.79559,23.04294],[72.79627,23.04255],[72.79699,23.04219],[72.79768,23.04177],[72.79817,23.04132],[72.79874,23.04081],[72.7993,23.04039],[72.79936,23.04035],[72.79974,23.04013],[72.79999,23.03998],[72.80056,23.03969],[72.8012,23.03945],[72.80125,23.03944],[72.80187,23.03929],[72.80255,23.03921],[72.80299,23.03869],[72.8031,23.03827],[72.80316,23.03804],[72.80341,23.03741],[72.80373,23.03681],[72.80454,23.03668],[72.8051,23.03594],[72.80579,23.03552],[72.80659,23.03534],[72.8074,23.03531],[72.8081,23.0354],[72.80873,23.03571],[72.8092,23.0362],[72.8098,23.0366],[72.81045,23.03686],[72.81116,23.03693],[72.81189,23.03694],[72.81262,23.03714],[72.8134,23.03718],[72.81415,23.03702],[72.81496,23.0367],[72.81574,23.03634],[72.81639,23.03593],[72.81634,23.03522],[72.81598,23.03419],[72.81604,23.03349],[72.8162,23.03256],[72.81595,23.03194],[72.81514,23.03148],[72.8144,23.03264],[72.81386,23.03231],[72.81314,23.03192],[72.81288,23.03142],[72.81282,23.03131],[72.81308,23.03064],[72.81323,23.02994],[72.81275,23.02943],[72.81211,23.02891],[72.81139,23.02848],[72.81062,23.02815],[72.80997,23.02792],[72.80936,23.02757],[72.80883,23.02711],[72.80842,23.02656],[72.80815,23.02594],[72.8081,23.02527],[72.80818,23.025],[72.80829,23.02463],[72.80861,23.02404],[72.80879,23.02384],[72.80907,23.02353],[72.8099,23.02292],[72.81095,23.02218],[72.8115,23.02186],[72.81158,23.02182],[72.81166,23.02178],[72.81181,23.02171],[72.81253,23.02139],[72.8133,23.02121],[72.81428,23.02134],[72.81511,23.02152],[72.81594,23.02174],[72.8166,23.02177],[72.81673,23.02177],[72.81721,23.02132],[72.8178,23.01978],[72.81784,23.01968],[72.81841,23.01829],[72.81895,23.01699],[72.81963,23.01569],[72.82059,23.01632],[72.82174,23.01709],[72.82236,23.01743],[72.82303,23.01767],[72.82373,23.01782],[72.82445,23.01786],[72.82505,23.01755],[72.82532,23.01699],[72.82529,23.01634],[72.82528,23.01563],[72.82537,23.01493],[72.82557,23.01417],[72.82565,23.0135],[72.82561,23.01282],[72.82539,23.01194],[72.82509,23.01132],[72.8247,23.0108],[72.82465,23.01073],[72.82424,23.0102],[72.8241,23.00982],[72.82398,23.00951],[72.82441,23.00817],[72.82462,23.00746],[72.82474,23.00704],[72.82482,23.00675],[72.825,23.00604],[72.82517,23.00533],[72.82569,23.00419],[72.82636,23.004],[72.82838,23.00346],[72.83039,23.0029],[72.8313,23.00273],[72.83207,23.00257],[72.83216,23.00255],[72.83283,23.00238],[72.83359,23.00216],[72.83434,23.00192],[72.8352,23.00152],[72.8359,23.00108],[72.83656,23.0006],[72.83719,23.00007],[72.8374,22.99947],[72.83755,22.99878],[72.83759,22.99807],[72.83752,22.99736],[72.83798,22.99685],[72.83899,22.9968],[72.83918,22.99659],[72.84074,22.99488],[72.84085,22.99476],[72.84205,22.99343],[72.84056,22.99255],[72.83684,22.98867],[72.83513,22.9846],[72.83413,22.98222],[72.83653,22.98179],[72.83917,22.98132],[72.83934,22.98129],[72.83951,22.98126],[72.84374,22.9805],[72.84383,22.97874],[72.84385,22.97829],[72.8439,22.9774],[72.84393,22.97673],[72.84443,22.96658],[72.84448,22.96562],[72.84092,22.96187],[72.8406,22.96153],[72.83348,22.95641],[72.83028,22.95412],[72.82837,22.9563],[72.82744,22.95578],[72.8244,22.95406],[72.82175,22.95256],[72.81881,22.94906],[72.81595,22.94563],[72.81491,22.94478],[72.812,22.94241],[72.81096,22.93848],[72.80975,22.93395],[72.80699,22.9329],[72.8049,22.93209],[72.80217,22.93105],[72.80231,22.92688],[72.80242,22.92334],[72.80141,22.92083],[72.80145,22.92069],[72.8015,22.92053],[72.80096,22.91916],[72.80089,22.91902],[72.79975,22.91842],[72.79816,22.91759],[72.79664,22.91679],[72.79602,22.91647],[72.79467,22.91442],[72.79316,22.91213],[72.79306,22.91122],[72.79273,22.9082],[72.79222,22.90814],[72.792,22.90811],[72.79143,22.90803],[72.78947,22.90777],[72.78889,22.9077],[72.7858,22.90729],[72.78262,22.90686],[72.78246,22.90691],[72.77455,22.90941],[72.77228,22.90903],[72.77073,22.90877],[72.76808,22.90832],[72.76799,22.90823],[72.76789,22.90812],[72.76471,22.90487],[72.76092,22.90437],[72.75729,22.9086],[72.75692,22.90903],[72.75612,22.90916],[72.75355,22.90956],[72.75264,22.90924],[72.7518,22.90895],[72.75167,22.90891],[72.75052,22.90851],[72.74773,22.90755],[72.74649,22.90826],[72.74617,22.90844],[72.74577,22.90867],[72.74045,22.9117],[72.73794,22.91251],[72.73408,22.91368],[72.73392,22.91365],[72.73172,22.91327],[72.73154,22.91323],[72.73143,22.91321],[72.72732,22.91249],[72.71937,22.90539],[72.71898,22.90505],[72.71759,22.90349],[72.71577,22.90101],[72.71348,22.89789],[72.71328,22.89762],[72.71018,22.89112],[72.70986,22.89045],[72.70646,22.88619],[72.7055,22.88498],[72.70314,22.88396],[72.70295,22.88388],[72.69855,22.88198],[72.69398,22.88001],[72.69279,22.88011],[72.69203,22.88017],[72.69118,22.88024],[72.68778,22.88052],[72.68647,22.88063],[72.6844,22.8808],[72.68275,22.88093],[72.67883,22.88125],[72.67703,22.88263],[72.67665,22.88291],[72.67627,22.88318],[72.67518,22.884],[72.67482,22.88427],[72.67396,22.88492],[72.67369,22.88512],[72.67342,22.8857],[72.67337,22.88584],[72.6733,22.88618],[72.6729,22.88696],[72.67268,22.88735],[72.6719,22.88933],[72.67118,22.89037],[72.67045,22.8914],[72.6688,22.89374],[72.66849,22.89418],[72.66831,22.89443],[72.66816,22.89462],[72.66802,22.89462],[72.66669,22.89465],[72.66465,22.89471],[72.66033,22.89484],[72.6602,22.89488],[72.65919,22.89519],[72.65153,22.89751],[72.64937,22.89646],[72.64917,22.89636],[72.64773,22.89566],[72.64446,22.89406],[72.64323,22.89346],[72.64162,22.89267],[72.63814,22.88748],[72.6358,22.88507],[72.63545,22.88471],[72.63464,22.88387],[72.63394,22.88316],[72.62918,22.88371],[72.62812,22.88384],[72.62495,22.88421],[72.62385,22.88461],[72.61947,22.8862],[72.6186,22.88652],[72.61799,22.88674],[72.61634,22.88734],[72.61578,22.8872],[72.61331,22.88656],[72.61004,22.88571],[72.60968,22.88562],[72.60927,22.88221],[72.60878,22.87816],[72.6041,22.87084],[72.60199,22.86753],[72.60494,22.86505],[72.60497,22.86503],[72.60634,22.86387],[72.60745,22.86293],[72.60873,22.86186],[72.60923,22.86144],[72.61032,22.86053],[72.61015,22.85855],[72.60984,22.85478],[72.60981,22.85446],[72.60974,22.85359],[72.60819,22.84894],[72.60517,22.83991],[72.60494,22.83921],[72.60567,22.83762],[72.60799,22.83251],[72.6088,22.83077],[72.60968,22.82883],[72.61013,22.82785],[72.6107,22.82661],[72.61081,22.82539],[72.61072,22.82524],[72.61063,22.82508],[72.61059,22.82495],[72.61086,22.82457],[72.61097,22.82385],[72.61102,22.82338],[72.61165,22.81704],[72.61085,22.81502],[72.6043,22.81654],[72.60299,22.81884],[72.60272,22.8193],[72.60262,22.81948],[72.59907,22.82569],[72.59614,22.82525],[72.596,22.82523],[72.59417,22.82496],[72.59015,22.82436],[72.58989,22.82424],[72.58663,22.8228],[72.58426,22.82175],[72.58352,22.82142],[72.58205,22.82192],[72.58179,22.82202],[72.57649,22.82386],[72.57391,22.82476],[72.57343,22.82492],[72.57289,22.82511],[72.5677,22.82223],[72.56712,22.82191],[72.56528,22.82089],[72.56524,22.82087],[72.56249,22.81935],[72.5528,22.81253],[72.55202,22.80915],[72.55153,22.807],[72.54898,22.80675],[72.54615,22.80647],[72.54131,22.80509],[72.54006,22.80474],[72.53962,22.8045],[72.53828,22.80376],[72.53698,22.80305],[72.53223,22.80044],[72.52987,22.79965],[72.52482,22.79797],[72.52475,22.79745],[72.52456,22.79612],[72.52444,22.79527],[72.52351,22.78862],[72.52086,22.78432],[72.52162,22.78073],[72.52666,22.77559],[72.52823,22.77478],[72.52858,22.7746],[72.53189,22.77288],[72.53571,22.7684],[72.53383,22.76754],[72.53299,22.76699],[72.53134,22.76613],[72.5312,22.76606],[72.53111,22.7658],[72.52939,22.76077],[72.52534,22.75714],[72.52561,22.75343],[72.53234,22.75191],[72.53251,22.75136],[72.53376,22.74714],[72.53364,22.74648],[72.53307,22.74337],[72.53266,22.74116],[72.53237,22.73958],[72.53213,22.73925],[72.52949,22.7357],[72.52913,22.72946],[72.53232,22.72487],[72.53542,22.72041],[72.53613,22.71972],[72.53909,22.71684],[72.53997,22.71598],[72.54003,22.71562],[72.54025,22.71443],[72.54088,22.71104],[72.53394,22.71141],[72.5322,22.7115],[72.53207,22.71149],[72.53165,22.71147],[72.53017,22.71136],[72.52511,22.711],[72.52108,22.70584],[72.52012,22.70461],[72.52046,22.70142],[72.52102,22.70102],[72.52553,22.69768],[72.52797,22.697],[72.53466,22.69513],[72.53614,22.69472],[72.53739,22.69437],[72.54027,22.69357],[72.54403,22.68915],[72.5433,22.68853],[72.54018,22.68587],[72.53227,22.68267],[72.53303,22.67721],[72.53479,22.6767],[72.54442,22.67393],[72.54498,22.67377],[72.54609,22.67345],[72.54923,22.67254],[72.54946,22.67247],[72.55094,22.67205],[72.55092,22.66492],[72.54529,22.65508],[72.54427,22.65429],[72.5441,22.65415],[72.54317,22.65343],[72.54308,22.65336],[72.5392,22.65034],[72.53803,22.64949],[72.53773,22.64921],[72.53489,22.64446],[72.53498,22.64337],[72.53512,22.64171],[72.53549,22.63733],[72.53759,22.6308],[72.53813,22.62605],[72.53657,22.62644],[72.53631,22.62651],[72.53493,22.62686],[72.53407,22.62708],[72.52957,22.62824],[72.52331,22.63114],[72.52049,22.6318],[72.51872,22.63221],[72.51842,22.63228],[72.51657,22.63271],[72.51416,22.63173],[72.51103,22.63045],[72.50866,22.62488],[72.50864,22.61973],[72.50956,22.61526],[72.50833,22.61352],[72.50758,22.61246],[72.50648,22.60942],[72.50618,22.60861],[72.50422,22.60752],[72.50163,22.60609],[72.49933,22.60483],[72.49422,22.60201],[72.494,22.60181],[72.49249,22.60051],[72.49202,22.6001],[72.48792,22.59657],[72.48751,22.59616],[72.47336,22.58181],[72.47145,22.57987],[72.46998,22.5791],[72.46626,22.57717],[72.46598,22.57702],[72.46469,22.57635],[72.46151,22.5747],[72.45546,22.57155],[72.45161,22.57018],[72.44851,22.56908],[72.44566,22.56712],[72.44342,22.56559],[72.44222,22.56639],[72.4407,22.5674],[72.44027,22.56769],[72.43089,22.57397],[72.42988,22.57465],[72.42735,22.57226],[72.42595,22.56835],[72.42618,22.56105],[72.42641,22.56058],[72.42716,22.55903],[72.42848,22.55631],[72.42937,22.55447],[72.43103,22.55104],[72.43246,22.54807],[72.43351,22.5459],[72.43367,22.54557],[72.43376,22.54539],[72.43442,22.54423],[72.44034,22.53374],[72.43948,22.52038],[72.43917,22.51548],[72.43922,22.51533],[72.43927,22.51516],[72.43946,22.51456],[72.43986,22.51332],[72.44053,22.51123],[72.44115,22.5093],[72.44126,22.50824],[72.44152,22.50592],[72.44164,22.50484],[72.4412,22.50395],[72.44009,22.50171],[72.43937,22.50025],[72.43785,22.4982],[72.43502,22.49437],[72.43234,22.49143],[72.42399,22.48225],[72.42073,22.47959],[72.41779,22.47719],[72.41726,22.47676],[72.41068,22.47457],[72.40992,22.47654],[72.40976,22.47694],[72.40965,22.47721],[72.40867,22.4797],[72.40786,22.47953],[72.40344,22.4786],[72.4008,22.47805],[72.40022,22.47793],[72.39679,22.47721],[72.39169,22.47531],[72.38566,22.47307],[72.37851,22.47228],[72.37919,22.45826],[72.37681,22.45222],[72.36995,22.4509],[72.36459,22.45337],[72.36169,22.45013],[72.35834,22.44],[72.36309,22.44049],[72.37253,22.44379],[72.37209,22.43943],[72.37201,22.43863],[72.37171,22.43556],[72.37164,22.43491],[72.37099,22.42835],[72.37088,22.42721],[72.37079,22.42633],[72.37069,22.42527],[72.37025,22.42091],[72.36883,22.40664],[72.36638,22.40466],[72.36509,22.40362],[72.3518,22.39291],[72.35089,22.39217],[72.34904,22.39068],[72.34612,22.38833],[72.34508,22.38749],[72.3449,22.38734],[72.34308,22.38587],[72.34596,22.38153],[72.34863,22.37902],[72.35179,22.37789],[72.35411,22.37706],[72.36667,22.37534],[72.36705,22.37529],[72.36809,22.37514],[72.3682,22.37513],[72.36929,22.37509],[72.37731,22.37372],[72.38272,22.37281],[72.38347,22.37268],[72.38975,22.37048],[72.39401,22.3662],[72.39433,22.36572],[72.39628,22.36471],[72.40186,22.3566],[72.40419,22.35303],[72.40561,22.35064],[72.40534,22.34912],[72.40257,22.3463],[72.39611,22.34522],[72.38911,22.34537],[72.38234,22.34515],[72.37533,22.34188],[72.36868,22.33439],[72.35937,22.32174],[72.35457,22.31025],[72.35191,22.30396],[72.35094,22.29655],[72.35159,22.29123],[72.35489,22.28562],[72.35945,22.27656],[72.35603,22.27027],[72.35574,22.26841],[72.35731,22.2667],[72.36117,22.26556],[72.3646,22.26499],[72.36845,22.26328],[72.37131,22.26028],[72.37173,22.25728],[72.37116,22.25],[72.37002,22.24372],[72.36916,22.24086],[72.36559,22.23615],[72.36145,22.23115],[72.36017,22.22815],[72.35946,22.22587],[72.35946,22.22259],[72.35946,22.21973],[72.3596,22.21645],[72.35931,22.21359],[72.3586,22.21059],[72.35803,22.20845],[72.35703,22.20574],[72.3556,22.20445],[72.35003,22.19946],[72.34875,22.19732],[72.34661,22.19475],[72.34504,22.19403],[72.34218,22.19089],[72.34289,22.18704],[72.34232,22.1859],[72.3399,22.18461],[72.33733,22.18361],[72.33518,22.18261],[72.33333,22.18004],[72.33233,22.17761],[72.3309,22.17462],[72.3299,22.17176],[72.32905,22.17019],[72.32719,22.16791],[72.32462,22.16776],[72.32176,22.16919],[72.31747,22.17058],[72.3122,22.16848],[72.31091,22.16591],[72.30991,22.16391],[72.30949,22.16134],[72.30877,22.15891],[72.30849,22.1562],[72.30834,22.15377],[72.30849,22.15477],[72.30849,22.15077],[72.30763,22.14935],[72.30563,22.14692],[72.30406,22.14364],[72.30335,22.13864],[72.30278,22.13493],[72.30092,22.1315],[72.29964,22.1285],[72.29892,22.12522],[72.29864,22.12222],[72.29849,22.11865],[72.29849,22.11694],[72.29849,22.11437],[72.29835,22.11094],[72.29835,22.10737],[72.29835,22.10566],[72.29535,22.09995],[72.29478,22.09638],[72.29364,22.09381],[72.2915,22.09124],[72.28936,22.08867],[72.28807,22.08681],[72.28693,22.08353],[72.28664,22.08182],[72.28479,22.07996],[72.2678,22.07639],[72.26352,22.07397],[72.25823,22.0694],[72.25381,22.0664],[72.2501,22.06397],[72.24624,22.06226],[72.23953,22.0604],[72.23439,22.05583],[72.22997,22.05098],[72.22797,22.04655],[72.22597,22.04327],[72.22483,22.03942],[72.22497,22.03413],[72.22554,22.02956],[72.22668,22.02614],[72.22768,22.02243],[72.22811,22.02043],[72.22854,22.01771],[72.23111,22.01258],[72.23211,22.00786],[72.23154,22.00272],[72.22954,21.99259],[72.22582,21.98274],[72.22326,21.97517],[72.22184,21.95835],[72.22148,21.94656],[72.22145,21.94564],[72.22152,21.94548],[72.20928,21.94841],[72.16588,21.95878]]]]}}]}
