{"type":"FeatureCollection","name":"bengaluru_boundary","features":[{"type":"Feature","properties":{"canonical_city_id":"bengaluru","scope_type":"district","source_districts":["Bangalore"],"source_shape_ids":["76128533B76927648517269"],"source":"geoBoundaries gbOpen India ADM2","source_revision":"9469f09","boundary_year":"2021","license":"ODbL 1.0"},"geometry":{"type":"Polygon","coordinates":[[[77.32755,12.9958],[77.3279,12.99478],[77.32808,12.99417],[77.32829,12.99276],[77.32832,12.99256],[77.3285,12.99203],[77.32883,12.99029],[77.32899,12.98968],[77.3294,12.98827],[77.33018,12.98542],[77.3302,12.98448],[77.33026,12.98267],[77.3303,12.98227],[77.33037,12.98203],[77.33061,12.9807],[77.33091,12.97898],[77.33093,12.97865],[77.33178,12.97002],[77.33189,12.9689],[77.33233,12.96457],[77.33238,12.96436],[77.33252,12.96363],[77.33252,12.96332],[77.3333,12.95549],[77.33359,12.95273],[77.33363,12.9523],[77.33375,12.95079],[77.3338,12.95032],[77.33388,12.94986],[77.33389,12.94946],[77.33408,12.948],[77.3344,12.94783],[77.33524,12.94734],[77.33538,12.94726],[77.33792,12.94582],[77.33796,12.94579],[77.33805,12.94572],[77.33974,12.94275],[77.33813,12.94168],[77.33581,12.94013],[77.3354,12.93985],[77.33532,12.9398],[77.33536,12.93936],[77.33536,12.93901],[77.33531,12.93866],[77.33526,12.93821],[77.33523,12.93787],[77.33523,12.93766],[77.33523,12.93742],[77.33521,12.93717],[77.3352,12.93681],[77.33515,12.93646],[77.33509,12.93599],[77.33499,12.93543],[77.33498,12.93482],[77.33502,12.93433],[77.33509,12.93398],[77.33514,12.93363],[77.3351,12.93317],[77.33509,12.93273],[77.33509,12.93227],[77.33507,12.93176],[77.33509,12.93126],[77.3351,12.93085],[77.33511,12.93048],[77.33512,12.93012],[77.33513,12.92989],[77.33529,12.92942],[77.33543,12.92902],[77.33573,12.92908],[77.33601,12.92921],[77.33606,12.92923],[77.33639,12.92938],[77.33662,12.92949],[77.33689,12.92962],[77.33739,12.92975],[77.33789,12.92989],[77.33866,12.93021],[77.33903,12.93033],[77.33946,12.93041],[77.33959,12.92943],[77.34322,12.9292],[77.34307,12.92394],[77.34307,12.92374],[77.34302,12.92214],[77.34281,12.91475],[77.33998,12.91157],[77.3397,12.91125],[77.33845,12.90987],[77.33866,12.90926],[77.3444,12.89257],[77.34502,12.89077],[77.34623,12.8879],[77.34531,12.88779],[77.3448,12.88789],[77.34447,12.88794],[77.34402,12.88796],[77.34368,12.88776],[77.34311,12.88754],[77.34254,12.88737],[77.34204,12.88731],[77.34171,12.88729],[77.34131,12.8873],[77.34103,12.88734],[77.34078,12.88734],[77.34046,12.88738],[77.34018,12.88748],[77.33956,12.88758],[77.33924,12.88757],[77.33892,12.88755],[77.33863,12.88754],[77.3386,12.88753],[77.33831,12.88748],[77.33794,12.88743],[77.33753,12.88736],[77.33711,12.8873],[77.33672,12.88722],[77.33634,12.88709],[77.33602,12.88699],[77.33563,12.88692],[77.33538,12.8868],[77.33523,12.88666],[77.33512,12.88644],[77.33505,12.88624],[77.33509,12.88596],[77.33539,12.88552],[77.3354,12.88551],[77.33557,12.8852],[77.33574,12.88487],[77.33598,12.88479],[77.33624,12.88478],[77.33663,12.88476],[77.33697,12.88464],[77.33732,12.88452],[77.33761,12.88437],[77.33791,12.88415],[77.33818,12.88385],[77.33847,12.88347],[77.33866,12.88311],[77.33875,12.88271],[77.33894,12.88225],[77.33895,12.88136],[77.33905,12.88107],[77.33924,12.8809],[77.33947,12.88071],[77.33938,12.88049],[77.3394,12.8804],[77.33947,12.88008],[77.3396,12.87985],[77.33986,12.87962],[77.34007,12.8794],[77.34031,12.87915],[77.34062,12.87892],[77.34097,12.8787],[77.34117,12.87857],[77.34139,12.87843],[77.34152,12.87835],[77.34194,12.87813],[77.34239,12.87784],[77.34281,12.87768],[77.34311,12.87756],[77.34351,12.87745],[77.34381,12.87736],[77.34425,12.87722],[77.34469,12.8771],[77.34507,12.87694],[77.34526,12.87686],[77.34564,12.87671],[77.34601,12.87658],[77.34654,12.87647],[77.34675,12.87644],[77.34715,12.87639],[77.34922,12.87614],[77.34946,12.8712],[77.34959,12.86859],[77.35441,12.87029],[77.35566,12.87074],[77.35678,12.87084],[77.36733,12.87186],[77.36757,12.87188],[77.368,12.87042],[77.36893,12.86715],[77.36969,12.86451],[77.37329,12.85988],[77.37373,12.85931],[77.37511,12.85754],[77.37647,12.85579],[77.37724,12.85539],[77.37897,12.85449],[77.38168,12.85537],[77.38353,12.8563],[77.38558,12.85732],[77.39459,12.8625],[77.39522,12.86286],[77.39624,12.86555],[77.39673,12.8668],[77.39777,12.86954],[77.39803,12.87023],[77.39991,12.86843],[77.40295,12.86552],[77.40297,12.8655],[77.40363,12.86486],[77.40542,12.87042],[77.40595,12.87208],[77.40604,12.87235],[77.40828,12.87414],[77.40948,12.8751],[77.41148,12.87592],[77.41367,12.87682],[77.41627,12.87585],[77.4167,12.87569],[77.41678,12.87551],[77.417,12.87501],[77.41715,12.87468],[77.4172,12.87457],[77.41721,12.87454],[77.41733,12.87427],[77.41759,12.87367],[77.41781,12.87318],[77.41799,12.87279],[77.4184,12.87188],[77.42045,12.87156],[77.42162,12.87266],[77.42211,12.87313],[77.42391,12.87347],[77.42423,12.87353],[77.42758,12.87415],[77.42968,12.87623],[77.43027,12.87682],[77.43038,12.87703],[77.43151,12.87805],[77.43174,12.8758],[77.43175,12.8757],[77.43179,12.87529],[77.43181,12.87506],[77.43183,12.87491],[77.43198,12.87339],[77.43204,12.87277],[77.43208,12.87244],[77.43212,12.87201],[77.43097,12.87165],[77.43087,12.87163],[77.43019,12.87146],[77.42964,12.87133],[77.42936,12.87126],[77.42791,12.87091],[77.42775,12.87087],[77.4224,12.86946],[77.42358,12.86594],[77.42597,12.8623],[77.42615,12.86203],[77.4271,12.86058],[77.4282,12.85891],[77.42863,12.85826],[77.42878,12.85804],[77.42882,12.85798],[77.42887,12.8579],[77.42941,12.85707],[77.43023,12.85584],[77.43246,12.85384],[77.43409,12.8524],[77.4388,12.85104],[77.43951,12.85081],[77.43943,12.8462],[77.43917,12.8405],[77.43449,12.83979],[77.433,12.83956],[77.42814,12.83659],[77.42702,12.83591],[77.42355,12.8319],[77.42334,12.83137],[77.42405,12.82758],[77.42418,12.82688],[77.42456,12.82662],[77.42646,12.82532],[77.42816,12.82415],[77.42954,12.82415],[77.42987,12.82415],[77.43084,12.82414],[77.43157,12.82413],[77.43354,12.82411],[77.4349,12.8241],[77.43855,12.82397],[77.43452,12.81742],[77.43489,12.81736],[77.43826,12.81674],[77.43936,12.81276],[77.44027,12.81186],[77.44231,12.80984],[77.44501,12.80869],[77.44583,12.80835],[77.44601,12.80867],[77.44638,12.80923],[77.44719,12.81046],[77.45031,12.81518],[77.45201,12.81686],[77.45328,12.81812],[77.45379,12.81862],[77.45403,12.81886],[77.4543,12.81914],[77.45519,12.81842],[77.45772,12.81634],[77.46079,12.81382],[77.463,12.81201],[77.46373,12.81141],[77.46629,12.81028],[77.46727,12.80988],[77.46755,12.80991],[77.47361,12.80989],[77.47882,12.80925],[77.47953,12.80916],[77.48055,12.80905],[77.48273,12.80877],[77.48094,12.80651],[77.48307,12.80429],[77.48638,12.8024],[77.48628,12.8001],[77.48589,12.79997],[77.48381,12.79928],[77.48113,12.79839],[77.47834,12.79746],[77.47457,12.79616],[77.47384,12.7953],[77.47264,12.79388],[77.47282,12.79037],[77.47303,12.79013],[77.4782,12.78413],[77.47898,12.78321],[77.47913,12.78229],[77.47951,12.77993],[77.47843,12.77477],[77.47817,12.77353],[77.47561,12.76713],[77.47663,12.76448],[77.477,12.76351],[77.47723,12.76291],[77.47826,12.76026],[77.47826,12.76001],[77.47829,12.75503],[77.48,12.75354],[77.48419,12.74988],[77.48486,12.74929],[77.48506,12.74912],[77.48629,12.74804],[77.48712,12.74731],[77.48752,12.74696],[77.48757,12.74692],[77.491,12.74393],[77.49295,12.74305],[77.4955,12.7419],[77.50433,12.73792],[77.50734,12.73656],[77.51438,12.74329],[77.51686,12.74566],[77.52165,12.74478],[77.52164,12.7423],[77.52163,12.73701],[77.52163,12.73559],[77.52205,12.73411],[77.5223,12.7332],[77.52234,12.73306],[77.52276,12.73315],[77.5232,12.73322],[77.52446,12.73353],[77.5247,12.73359],[77.52698,12.73666],[77.52718,12.73746],[77.52829,12.7419],[77.52848,12.74267],[77.53141,12.74599],[77.53256,12.74729],[77.53378,12.74867],[77.53566,12.7508],[77.53835,12.75385],[77.53988,12.75559],[77.54063,12.75521],[77.54327,12.75386],[77.5439,12.75354],[77.54465,12.75316],[77.54601,12.75411],[77.54543,12.76129],[77.54542,12.76142],[77.54533,12.76248],[77.54518,12.76441],[77.5473,12.76709],[77.55047,12.77103],[77.55186,12.77276],[77.55248,12.77354],[77.55319,12.77444],[77.54592,12.77654],[77.54585,12.77656],[77.54528,12.77673],[77.54521,12.77675],[77.54526,12.77683],[77.54597,12.77795],[77.54703,12.7796],[77.54837,12.7817],[77.55004,12.78431],[77.55014,12.78445],[77.55189,12.78721],[77.55096,12.78868],[77.54899,12.7918],[77.5484,12.79273],[77.54676,12.79473],[77.54508,12.79675],[77.54417,12.79785],[77.54274,12.79959],[77.5507,12.80061],[77.55206,12.80036],[77.55895,12.80072],[77.55978,12.80076],[77.55949,12.79984],[77.55939,12.79965],[77.55892,12.7982],[77.55785,12.79526],[77.55589,12.78967],[77.55579,12.7894],[77.55655,12.78936],[77.55685,12.78935],[77.55754,12.78932],[77.55978,12.78922],[77.56085,12.78868],[77.56387,12.78716],[77.56466,12.78669],[77.56283,12.78507],[77.56013,12.7827],[77.55987,12.78247],[77.55973,12.78235],[77.55946,12.78211],[77.55823,12.78103],[77.55914,12.77862],[77.5592,12.77845],[77.55923,12.77836],[77.55932,12.77811],[77.55959,12.7774],[77.55971,12.77709],[77.56013,12.77596],[77.56038,12.77529],[77.56059,12.77472],[77.5644,12.76457],[77.56919,12.76001],[77.56937,12.75984],[77.56978,12.76021],[77.57159,12.76185],[77.5726,12.76277],[77.57353,12.76362],[77.5751,12.76986],[77.57452,12.77791],[77.57441,12.77958],[77.57434,12.78061],[77.5791,12.78417],[77.58022,12.78501],[77.58272,12.78689],[77.58366,12.78759],[77.58495,12.7871],[77.59195,12.78446],[77.59524,12.78322],[77.5954,12.78092],[77.59557,12.77833],[77.59608,12.77724],[77.60072,12.76734],[77.60039,12.76551],[77.59982,12.76239],[77.59926,12.75935],[77.59921,12.75908],[77.59916,12.7588],[77.59892,12.7575],[77.59886,12.75715],[77.59836,12.75671],[77.59636,12.75495],[77.59392,12.7528],[77.59171,12.75151],[77.59005,12.75054],[77.5896,12.75028],[77.58719,12.75172],[77.5859,12.75249],[77.58429,12.75345],[77.58357,12.75388],[77.58212,12.75355],[77.57839,12.7527],[77.57798,12.75184],[77.57685,12.74944],[77.57641,12.74851],[77.5759,12.74742],[77.57582,12.74632],[77.57559,12.74598],[77.57002,12.73764],[77.57004,12.73708],[77.57005,12.73659],[77.57071,12.73456],[77.57047,12.73416],[77.56611,12.7329],[77.56561,12.73277],[77.56562,12.7327],[77.56527,12.73245],[77.5646,12.73241],[77.56436,12.73245],[77.56362,12.73226],[77.56,12.73133],[77.56008,12.72265],[77.5605,12.72053],[77.56044,12.72016],[77.56043,12.71969],[77.56039,12.71914],[77.56045,12.7186],[77.56093,12.71668],[77.56198,12.71355],[77.56294,12.71113],[77.56496,12.70604],[77.56823,12.70273],[77.56844,12.70252],[77.57009,12.70086],[77.57098,12.69996],[77.57113,12.6998],[77.57454,12.70084],[77.57651,12.70257],[77.5792,12.70492],[77.58391,12.70906],[77.58399,12.70909],[77.58528,12.70991],[77.58796,12.7129],[77.58975,12.71451],[77.59187,12.71642],[77.59223,12.7166],[77.59269,12.7166],[77.59275,12.71656],[77.59291,12.71643],[77.59299,12.71649],[77.59381,12.71704],[77.59438,12.71743],[77.59526,12.71804],[77.59543,12.71811],[77.59775,12.7183],[77.59804,12.7185],[77.60132,12.71797],[77.60422,12.71669],[77.60503,12.71607],[77.60519,12.71595],[77.60564,12.71561],[77.60931,12.71282],[77.61663,12.70937],[77.61719,12.7087],[77.61764,12.70817],[77.61864,12.70698],[77.61887,12.7067],[77.61616,12.70163],[77.61523,12.70053],[77.61522,12.70052],[77.61517,12.70047],[77.61141,12.69603],[77.60706,12.6909],[77.6069,12.69067],[77.60683,12.69063],[77.60634,12.69008],[77.60593,12.68754],[77.60565,12.68585],[77.60537,12.68417],[77.60259,12.67634],[77.60243,12.67589],[77.60185,12.67498],[77.59873,12.6701],[77.59735,12.66793],[77.59575,12.66542],[77.59955,12.65818],[77.59965,12.65905],[77.59986,12.66095],[77.60016,12.66362],[77.60027,12.66458],[77.60058,12.66747],[77.60811,12.66896],[77.61973,12.67331],[77.64327,12.68013],[77.64914,12.68015],[77.65845,12.68259],[77.66321,12.68384],[77.66467,12.68422],[77.66792,12.68363],[77.67139,12.683],[77.67733,12.68193],[77.68073,12.68132],[77.68005,12.68025],[77.67904,12.67867],[77.67634,12.67444],[77.67903,12.67254],[77.67954,12.67218],[77.67975,12.67203],[77.67899,12.66841],[77.67819,12.66461],[77.67784,12.66293],[77.6781,12.6616],[77.67827,12.66073],[77.68378,12.66054],[77.68885,12.65913],[77.69189,12.66009],[77.69803,12.66203],[77.70162,12.66174],[77.70274,12.66165],[77.70416,12.66154],[77.70599,12.6614],[77.70944,12.6652],[77.71091,12.66684],[77.71232,12.66841],[77.71239,12.66895],[77.71368,12.67879],[77.71372,12.67912],[77.71376,12.67945],[77.71398,12.68109],[77.71599,12.682],[77.72465,12.68045],[77.72466,12.67858],[77.72467,12.67803],[77.72467,12.67759],[77.72468,12.67623],[77.72468,12.67557],[77.72587,12.67319],[77.72749,12.67265],[77.72792,12.67251],[77.72858,12.67229],[77.72896,12.67217],[77.72981,12.67239],[77.73363,12.67337],[77.73379,12.67341],[77.7394,12.67395],[77.74129,12.67413],[77.74201,12.6742],[77.74207,12.67449],[77.74209,12.67459],[77.74312,12.67915],[77.74372,12.68182],[77.74378,12.6821],[77.74147,12.68816],[77.7379,12.69294],[77.73781,12.69305],[77.73806,12.69339],[77.73874,12.69432],[77.74149,12.69808],[77.7417,12.69836],[77.74191,12.69865],[77.74296,12.70009],[77.74339,12.70068],[77.74411,12.70167],[77.74595,12.70084],[77.74711,12.70032],[77.747,12.70002],[77.74741,12.69987],[77.74796,12.69969],[77.75039,12.69884],[77.75102,12.69863],[77.75117,12.69858],[77.75151,12.69847],[77.75181,12.69841],[77.752,12.69838],[77.75297,12.69812],[77.75364,12.69794],[77.75725,12.69698],[77.75768,12.69686],[77.75914,12.69711],[77.76028,12.6973],[77.76049,12.69733],[77.7608,12.69746],[77.76478,12.70418],[77.765,12.70455],[77.76659,12.70729],[77.76686,12.70866],[77.7675,12.71198],[77.76772,12.71311],[77.76793,12.71422],[77.76867,12.71487],[77.77211,12.71794],[77.77278,12.72092],[77.77306,12.72217],[77.77362,12.72469],[77.7726,12.72484],[77.76764,12.72556],[77.76614,12.72578],[77.76221,12.72861],[77.76349,12.73476],[77.7636,12.73531],[77.76449,12.73602],[77.76684,12.73788],[77.76749,12.7384],[77.7689,12.73952],[77.77261,12.73966],[77.7737,12.7397],[77.77414,12.73972],[77.77599,12.73979],[77.77754,12.73986],[77.77915,12.74044],[77.77977,12.74066],[77.78163,12.74134],[77.78315,12.7419],[77.78825,12.74376],[77.78867,12.74392],[77.78978,12.74511],[77.79275,12.74827],[77.79314,12.74835],[77.79331,12.74874],[77.79404,12.75039],[77.7945,12.75146],[77.79457,12.75164],[77.79465,12.75182],[77.79491,12.75237],[77.79476,12.75248],[77.7948,12.75306],[77.79546,12.75512],[77.7952,12.75515],[77.79501,12.75516],[77.79498,12.75527],[77.79487,12.75532],[77.7942,12.75534],[77.79417,12.7559],[77.79205,12.75671],[77.79164,12.75694],[77.79012,12.75757],[77.78885,12.7581],[77.78878,12.75815],[77.78779,12.75887],[77.78503,12.76086],[77.78439,12.76133],[77.78391,12.76212],[77.7839,12.76213],[77.78368,12.76241],[77.78364,12.76245],[77.78362,12.76247],[77.78359,12.76254],[77.78349,12.76276],[77.78347,12.76279],[77.7835,12.7628],[77.78217,12.76499],[77.78217,12.76575],[77.78216,12.76728],[77.78216,12.76737],[77.78215,12.7685],[77.78215,12.76881],[77.78215,12.76908],[77.78214,12.76966],[77.78214,12.77004],[77.78271,12.77068],[77.78319,12.77123],[77.78355,12.77163],[77.78373,12.77183],[77.78383,12.77195],[77.78411,12.77226],[77.78424,12.77239],[77.78432,12.77248],[77.78439,12.77256],[77.78447,12.77266],[77.7861,12.77426],[77.78769,12.77631],[77.78878,12.77751],[77.78963,12.77851],[77.78983,12.77874],[77.79011,12.77905],[77.7906,12.7796],[77.79191,12.78108],[77.79206,12.78125],[77.79355,12.78633],[77.79395,12.78676],[77.79421,12.78704],[77.79845,12.79154],[77.79963,12.79208],[77.80404,12.7941],[77.80821,12.79321],[77.80844,12.79316],[77.80861,12.79359],[77.80982,12.7966],[77.81002,12.7971],[77.80971,12.79738],[77.80703,12.79985],[77.80304,12.80502],[77.80187,12.80653],[77.80261,12.80885],[77.8049,12.81602],[77.80675,12.81565],[77.80801,12.81539],[77.80906,12.81518],[77.80928,12.81514],[77.8108,12.81571],[77.81096,12.81577],[77.81117,12.81585],[77.81103,12.81628],[77.81091,12.81666],[77.81055,12.81774],[77.81018,12.81888],[77.80992,12.81966],[77.80917,12.82197],[77.8115,12.83101],[77.80944,12.83114],[77.80869,12.83119],[77.8084,12.83121],[77.80277,12.83155],[77.80241,12.83174],[77.80206,12.83193],[77.80162,12.83216],[77.80041,12.83279],[77.80008,12.83296],[77.79971,12.83316],[77.79873,12.83367],[77.79847,12.83381],[77.79796,12.83433],[77.79553,12.83682],[77.79398,12.83841],[77.79456,12.84084],[77.79499,12.84263],[77.7953,12.84397],[77.7964,12.84442],[77.79902,12.84551],[77.79979,12.84893],[77.79988,12.84926],[77.80238,12.84999],[77.80314,12.8498],[77.80848,12.84847],[77.81004,12.84808],[77.81026,12.84802],[77.81035,12.8481],[77.81071,12.84846],[77.81136,12.84908],[77.81158,12.84929],[77.81201,12.8497],[77.81227,12.84995],[77.81275,12.85033],[77.81348,12.85105],[77.81385,12.85142],[77.81539,12.85294],[77.81562,12.85294],[77.8195,12.85293],[77.82026,12.85315],[77.81094,12.86313],[77.80957,12.86478],[77.8095,12.86487],[77.80823,12.86641],[77.80485,12.87051],[77.8039,12.87167],[77.8034,12.87227],[77.80273,12.87308],[77.80092,12.87528],[77.8008,12.87543],[77.80025,12.87609],[77.79913,12.87745],[77.79877,12.87791],[77.79837,12.87841],[77.79785,12.879],[77.79683,12.88024],[77.79378,12.88394],[77.79113,12.88629],[77.78472,12.89197],[77.77836,12.8976],[77.77239,12.90289],[77.7709,12.90422],[77.76541,12.90623],[77.76483,12.90644],[77.7634,12.90697],[77.76191,12.90722],[77.76193,12.90751],[77.76194,12.9076],[77.76192,12.90765],[77.76189,12.90769],[77.76184,12.90772],[77.76155,12.90786],[77.76125,12.90794],[77.76114,12.90798],[77.76095,12.90808],[77.76089,12.9081],[77.76083,12.90809],[77.76078,12.90806],[77.76074,12.90802],[77.76072,12.90799],[77.7607,12.90798],[77.76066,12.90798],[77.75833,12.90883],[77.75831,12.9088],[77.75822,12.90878],[77.7581,12.90884],[77.75799,12.90886],[77.75795,12.90887],[77.7579,12.90891],[77.75786,12.90897],[77.75784,12.90901],[77.75758,12.90911],[77.75694,12.90936],[77.75664,12.90945],[77.75637,12.90955],[77.75545,12.90989],[77.75498,12.91006],[77.75151,12.91134],[77.74595,12.91338],[77.74596,12.91312],[77.73816,12.91578],[77.7379,12.91589],[77.73734,12.91608],[77.7364,12.9164],[77.73553,12.9167],[77.73431,12.91789],[77.73348,12.91862],[77.73121,12.92077],[77.73044,12.9215],[77.73023,12.92169],[77.72966,12.92223],[77.72956,12.92232],[77.72927,12.92259],[77.72154,12.92987],[77.72116,12.93018],[77.71906,12.9322],[77.71902,12.93224],[77.71785,12.93334],[77.71882,12.93463],[77.72249,12.93951],[77.72427,12.9419],[77.72532,12.9433],[77.72721,12.94582],[77.73761,12.94894],[77.73761,12.9511],[77.73761,12.95376],[77.73761,12.95617],[77.73761,12.95697],[77.73761,12.95705],[77.73761,12.95766],[77.73761,12.95835],[77.73761,12.95883],[77.73761,12.95887],[77.73765,12.95947],[77.73781,12.96204],[77.73785,12.96264],[77.73791,12.96355],[77.738,12.96503],[77.73802,12.96546],[77.73811,12.9669],[77.73813,12.96715],[77.73897,12.9689],[77.73917,12.96913],[77.74033,12.9718],[77.74226,12.97577],[77.74313,12.97759],[77.74365,12.97867],[77.74386,12.97911],[77.74384,12.97918],[77.74382,12.97922],[77.74326,12.98101],[77.74305,12.98167],[77.74294,12.98204],[77.74279,12.98248],[77.74273,12.98267],[77.74266,12.98288],[77.74258,12.98312],[77.74243,12.98356],[77.74225,12.98411],[77.74125,12.98728],[77.74124,12.98732],[77.74073,12.98899],[77.7405,12.98918],[77.74039,12.98927],[77.73623,12.99263],[77.7357,12.99306],[77.73147,12.99649],[77.73137,12.99657],[77.73107,12.9968],[77.72981,12.99783],[77.72963,12.99823],[77.72847,13.00076],[77.72802,13.00176],[77.72791,13.00201],[77.72828,13.00194],[77.72831,13.00224],[77.72833,13.00248],[77.72832,13.00254],[77.7283,13.00257],[77.72828,13.00259],[77.72817,13.00261],[77.72788,13.00269],[77.72776,13.00272],[77.72758,13.00275],[77.72744,13.00305],[77.72733,13.00329],[77.72726,13.00345],[77.72728,13.00353],[77.72735,13.0038],[77.72742,13.00383],[77.72749,13.00388],[77.72758,13.00397],[77.72762,13.00406],[77.72764,13.00416],[77.72767,13.00423],[77.72779,13.0043],[77.72786,13.00432],[77.7279,13.00439],[77.72791,13.00446],[77.72793,13.00464],[77.72796,13.00489],[77.72794,13.00497],[77.72788,13.00508],[77.72778,13.00518],[77.72751,13.00534],[77.72741,13.00537],[77.72717,13.00545],[77.72707,13.00549],[77.72681,13.00558],[77.72664,13.00564],[77.72657,13.00567],[77.72618,13.00583],[77.72572,13.00684],[77.72535,13.00765],[77.72519,13.008],[77.72461,13.00927],[77.72465,13.00956],[77.72489,13.01135],[77.72494,13.01169],[77.72499,13.01204],[77.72503,13.01234],[77.72507,13.01263],[77.72513,13.01306],[77.72518,13.01346],[77.72524,13.01386],[77.72526,13.01402],[77.72536,13.01473],[77.72555,13.01614],[77.72559,13.0164],[77.72564,13.01675],[77.72568,13.01706],[77.72572,13.01739],[77.7258,13.01797],[77.72619,13.02081],[77.7274,13.02972],[77.72742,13.02987],[77.72744,13.03],[77.72746,13.03016],[77.72748,13.03027],[77.72751,13.03054],[77.72821,13.03558],[77.72882,13.04011],[77.72915,13.04247],[77.72953,13.04521],[77.72961,13.04581],[77.72963,13.04595],[77.72981,13.04724],[77.7296,13.04745],[77.72425,13.0528],[77.7217,13.05535],[77.7164,13.06065],[77.71578,13.06127],[77.71544,13.06161],[77.71539,13.06166],[77.71484,13.06221],[77.7134,13.06365],[77.71319,13.06386],[77.71317,13.06388],[77.71275,13.06482],[77.71267,13.06499],[77.7125,13.06537],[77.71239,13.0656],[77.71236,13.06566],[77.71234,13.06571],[77.71234,13.0671],[77.71204,13.06772],[77.70997,13.07099],[77.70991,13.07111],[77.70985,13.07127],[77.70963,13.07176],[77.70849,13.07428],[77.70859,13.07509],[77.70928,13.08078],[77.70956,13.08311],[77.7096,13.08343],[77.70977,13.08482],[77.70987,13.08566],[77.7101,13.08758],[77.71037,13.08979],[77.71057,13.09144],[77.71234,13.09663],[77.7126,13.09652],[77.71337,13.09639],[77.71337,13.09596],[77.71324,13.09556],[77.71364,13.09513],[77.71449,13.09457],[77.71491,13.09407],[77.71505,13.0939],[77.71529,13.09311],[77.71557,13.09172],[77.71572,13.09093],[77.71604,13.09073],[77.71617,13.09065],[77.71699,13.09069],[77.71762,13.09072],[77.71821,13.09075],[77.71879,13.09078],[77.72032,13.0912],[77.7208,13.09143],[77.72239,13.09218],[77.72261,13.09232],[77.72284,13.09245],[77.7236,13.09289],[77.72376,13.09364],[77.72381,13.09557],[77.72358,13.09799],[77.72351,13.09879],[77.72343,13.09976],[77.7234,13.10128],[77.72345,13.1029],[77.72361,13.10421],[77.72362,13.10512],[77.72363,13.1065],[77.72363,13.10662],[77.72369,13.1072],[77.72375,13.1078],[77.72429,13.10981],[77.72441,13.11068],[77.72455,13.11131],[77.72494,13.11185],[77.72684,13.11227],[77.72935,13.11305],[77.73149,13.11367],[77.73188,13.11389],[77.73318,13.11448],[77.73372,13.11473],[77.73517,13.11539],[77.74212,13.12293],[77.73972,13.12749],[77.73962,13.1275],[77.73931,13.12756],[77.73925,13.1276],[77.73924,13.12767],[77.73932,13.12794],[77.73931,13.128],[77.73927,13.12805],[77.73876,13.12819],[77.7387,13.12825],[77.73871,13.12832],[77.73887,13.12855],[77.73887,13.12861],[77.73883,13.12865],[77.73838,13.12865],[77.7383,13.12869],[77.73827,13.12884],[77.73829,13.12893],[77.73854,13.12925],[77.73857,13.12937],[77.73812,13.13248],[77.738,13.13312],[77.7393,13.13797],[77.73991,13.14023],[77.73997,13.14046],[77.73861,13.14152],[77.73701,13.14276],[77.73536,13.14404],[77.73531,13.14411],[77.73503,13.14454],[77.73458,13.14522],[77.73251,13.14836],[77.73101,13.15469],[77.73106,13.15498],[77.73116,13.15554],[77.73148,13.15722],[77.73174,13.15864],[77.7316,13.15877],[77.73084,13.15949],[77.72993,13.16037],[77.731,13.16415],[77.73149,13.16588],[77.73189,13.16726],[77.73131,13.16806],[77.73028,13.16951],[77.73021,13.16961],[77.72969,13.17034],[77.72902,13.1713],[77.72857,13.17193],[77.72874,13.17225],[77.72941,13.17353],[77.72947,13.17365],[77.72973,13.17413],[77.73,13.17464],[77.73024,13.1751],[77.73143,13.17737],[77.73152,13.17754],[77.73156,13.17781],[77.7317,13.1789],[77.73185,13.18006],[77.73193,13.18072],[77.73231,13.18368],[77.73214,13.18408],[77.73195,13.18451],[77.73188,13.18463],[77.72988,13.1888],[77.72742,13.18961],[77.72667,13.18985],[77.72659,13.18988],[77.72388,13.19077],[77.72228,13.1913],[77.71645,13.19158],[77.71641,13.19158],[77.71578,13.19161],[77.71556,13.19155],[77.71485,13.19135],[77.71375,13.19104],[77.71333,13.19092],[77.71269,13.19074],[77.712,13.19055],[77.71171,13.19047],[77.71004,13.19],[77.70909,13.18973],[77.70805,13.18944],[77.70762,13.18932],[77.70691,13.18912],[77.70632,13.18895],[77.7053,13.18866],[77.70517,13.18862],[77.70399,13.18829],[77.70235,13.18783],[77.69869,13.18912],[77.69721,13.18964],[77.69687,13.19099],[77.69671,13.19164],[77.69665,13.19188],[77.69642,13.19281],[77.69607,13.19423],[77.69537,13.19705],[77.69327,13.19795],[77.69303,13.19806],[77.69106,13.19808],[77.69103,13.19797],[77.69002,13.19305],[77.68872,13.19267],[77.68668,13.19208],[77.68599,13.19187],[77.68549,13.19173],[77.68498,13.19158],[77.68423,13.1916],[77.68035,13.19171],[77.6776,13.19179],[77.67649,13.19037],[77.67581,13.18951],[77.67568,13.18934],[77.67519,13.18872],[77.67505,13.18854],[77.67482,13.18826],[77.67434,13.18765],[77.67398,13.18752],[77.67291,13.18713],[77.67274,13.18707],[77.67229,13.1869],[77.66938,13.18584],[77.66377,13.18656],[77.66343,13.1866],[77.65977,13.18707],[77.65914,13.18715],[77.65729,13.18802],[77.65562,13.18881],[77.65561,13.18889],[77.65557,13.18929],[77.65548,13.19038],[77.65536,13.1916],[77.65533,13.19197],[77.65494,13.19608],[77.65488,13.1966],[77.65486,13.19678],[77.65485,13.19692],[77.65484,13.19701],[77.65483,13.19714],[77.6548,13.19731],[77.65477,13.19777],[77.65474,13.1981],[77.65461,13.19943],[77.6545,13.20064],[77.65447,13.20098],[77.6544,13.2017],[77.65302,13.20188],[77.65275,13.20191],[77.65242,13.20195],[77.65223,13.20197],[77.65152,13.20206],[77.64874,13.20241],[77.64857,13.20243],[77.64809,13.20249],[77.64805,13.2025],[77.6477,13.20254],[77.64714,13.20261],[77.64702,13.20262],[77.64631,13.20271],[77.64598,13.20275],[77.64597,13.20278],[77.64592,13.20279],[77.64576,13.20281],[77.64555,13.20283],[77.64552,13.20281],[77.64519,13.20285],[77.64449,13.20294],[77.64385,13.20302],[77.64331,13.20308],[77.64283,13.20314],[77.64283,13.20328],[77.64179,13.20327],[77.64088,13.20326],[77.64088,13.20338],[77.63986,13.2035],[77.63799,13.20374],[77.63765,13.20378],[77.63745,13.20383],[77.63678,13.20389],[77.63266,13.2044],[77.63227,13.20445],[77.63183,13.2045],[77.63153,13.20454],[77.62503,13.20535],[77.62248,13.20567],[77.62237,13.20568],[77.62098,13.20585],[77.61759,13.20575],[77.61704,13.20416],[77.61652,13.20265],[77.61524,13.20258],[77.61471,13.20255],[77.61428,13.20253],[77.61426,13.20253],[77.6097,13.20227],[77.60791,13.20217],[77.6078,13.20197],[77.60709,13.20056],[77.60672,13.19983],[77.60664,13.19967],[77.60486,13.19615],[77.60478,13.19599],[77.60311,13.19053],[77.60104,13.19025],[77.60069,13.1902],[77.60018,13.19013],[77.59968,13.19006],[77.59948,13.19003],[77.59923,13.19013],[77.59604,13.19138],[77.5958,13.19147],[77.59533,13.19165],[77.59503,13.19177],[77.59469,13.1919],[77.59261,13.19272],[77.59151,13.19315],[77.58941,13.19398],[77.58893,13.19417],[77.58815,13.19447],[77.58807,13.1945],[77.5863,13.19519],[77.58213,13.19682],[77.58095,13.19729],[77.58007,13.19743],[77.57713,13.1979],[77.57706,13.19791],[77.57622,13.19805],[77.57548,13.19862],[77.57113,13.20197],[77.57081,13.20481],[77.57063,13.20647],[77.57057,13.20704],[77.57029,13.20956],[77.57077,13.21398],[77.55875,13.21521],[77.55801,13.21529],[77.55799,13.21754],[77.55798,13.21807],[77.55797,13.21864],[77.55804,13.2227],[77.55829,13.22395],[77.55868,13.22591],[77.56001,13.23257],[77.55842,13.23255],[77.55797,13.23254],[77.55784,13.23254],[77.55749,13.23254],[77.55696,13.23253],[77.55653,13.23253],[77.55607,13.23252],[77.55581,13.23252],[77.55547,13.23252],[77.55344,13.2325],[77.55244,13.23249],[77.55189,13.23248],[77.55039,13.23245],[77.5482,13.2324],[77.54786,13.23206],[77.54742,13.23163],[77.54567,13.2299],[77.54537,13.2296],[77.54489,13.22912],[77.5444,13.22864],[77.54423,13.22847],[77.54198,13.22625],[77.54169,13.22596],[77.5413,13.22557],[77.54119,13.22541],[77.53987,13.2235],[77.53936,13.22276],[77.53797,13.22075],[77.5373,13.21979],[77.53658,13.21975],[77.53486,13.21965],[77.52907,13.21931],[77.52898,13.2193],[77.52394,13.21231],[77.52383,13.21217],[77.52307,13.21111],[77.52245,13.21025],[77.5222,13.21068],[77.52179,13.21138],[77.52126,13.21261],[77.5204,13.21432],[77.51933,13.21645],[77.5191,13.21692],[77.51824,13.21863],[77.5181,13.2189],[77.51743,13.22024],[77.5171,13.2209],[77.51589,13.22215],[77.51324,13.22487],[77.51307,13.22505],[77.51111,13.22507],[77.50931,13.22511],[77.50854,13.22513],[77.5081,13.22514],[77.50524,13.22519],[77.50511,13.22518],[77.50394,13.22507],[77.49896,13.22458],[77.49891,13.22458],[77.49783,13.22447],[77.49411,13.2241],[77.49071,13.22376],[77.48777,13.22347],[77.48766,13.22345],[77.48445,13.22282],[77.48217,13.22239],[77.48045,13.22206],[77.4794,13.2206],[77.47819,13.21892],[77.47763,13.21814],[77.4755,13.21519],[77.47492,13.21157],[77.47424,13.20733],[77.47552,13.20627],[77.4757,13.20617],[77.47646,13.20548],[77.47748,13.19606],[77.47677,13.1928],[77.47662,13.19214],[77.47659,13.19198],[77.47635,13.19086],[77.47564,13.18763],[77.47452,13.18518],[77.47429,13.18469],[77.47423,13.18457],[77.47396,13.18397],[77.46885,13.17284],[77.46905,13.16347],[77.46597,13.16222],[77.46575,13.16213],[77.46248,13.1608],[77.46219,13.16084],[77.46192,13.16087],[77.46142,13.16095],[77.45981,13.1612],[77.45838,13.16142],[77.45253,13.16232],[77.45037,13.1632],[77.44969,13.16348],[77.44599,13.16499],[77.44227,13.16538],[77.44025,13.16559],[77.43813,13.16537],[77.43377,13.16493],[77.43336,13.16406],[77.43306,13.16268],[77.43272,13.16179],[77.43219,13.16069],[77.43287,13.15921],[77.43292,13.1591],[77.433,13.15889],[77.43303,13.15881],[77.43313,13.15856],[77.43318,13.1584],[77.43332,13.15798],[77.43334,13.1579],[77.43355,13.15729],[77.43376,13.15664],[77.43409,13.15601],[77.43501,13.15542],[77.43481,13.15522],[77.43152,13.15186],[77.43058,13.15028],[77.42984,13.14963],[77.42918,13.14905],[77.42665,13.14584],[77.42611,13.14517],[77.42609,13.14514],[77.4256,13.14451],[77.42458,13.14322],[77.42251,13.1406],[77.42019,13.13765],[77.41983,13.13785],[77.41886,13.13815],[77.41521,13.1393],[77.41363,13.13442],[77.41315,13.13293],[77.41249,13.13088],[77.41208,13.12963],[77.41191,13.12909],[77.41066,13.12906],[77.40982,13.129],[77.40916,13.12896],[77.40859,13.12903],[77.40829,13.12907],[77.40737,13.12897],[77.40728,13.12854],[77.40715,13.12797],[77.40708,13.12766],[77.40676,13.12685],[77.40655,13.12646],[77.40654,13.12644],[77.40641,13.1262],[77.40615,13.12509],[77.40608,13.12391],[77.4059,13.12322],[77.40583,13.12297],[77.40546,13.12177],[77.4054,13.12155],[77.4062,13.12161],[77.40595,13.11872],[77.40566,13.11536],[77.40552,13.11404],[77.40649,13.11358],[77.40775,13.11297],[77.40809,13.11281],[77.40883,13.11245],[77.41271,13.11058],[77.41353,13.11004],[77.41366,13.10996],[77.41409,13.10967],[77.41438,13.10948],[77.41459,13.10934],[77.41472,13.10925],[77.41491,13.10913],[77.41561,13.10866],[77.42029,13.10555],[77.42079,13.10315],[77.42074,13.10296],[77.42088,13.10273],[77.42109,13.10173],[77.4212,13.10119],[77.42126,13.10093],[77.42185,13.09808],[77.42198,13.09745],[77.422,13.09737],[77.42208,13.09699],[77.42208,13.09577],[77.42207,13.09501],[77.42209,13.09493],[77.42209,13.09421],[77.42209,13.09338],[77.42209,13.09335],[77.4221,13.09189],[77.42209,13.09178],[77.42209,13.0917],[77.42209,13.09147],[77.42209,13.09121],[77.42209,13.09091],[77.42209,13.09078],[77.42209,13.09037],[77.42209,13.09007],[77.42209,13.08919],[77.42209,13.08859],[77.42209,13.08808],[77.4221,13.08718],[77.4221,13.08707],[77.42238,13.08708],[77.42258,13.08708],[77.4228,13.08708],[77.42313,13.08709],[77.42343,13.08709],[77.42374,13.08709],[77.42404,13.08709],[77.42473,13.0871],[77.42514,13.08711],[77.42548,13.08711],[77.42575,13.08711],[77.42604,13.08712],[77.4261,13.08712],[77.42635,13.08712],[77.42737,13.08714],[77.42776,13.08518],[77.42782,13.08486],[77.42804,13.08376],[77.42809,13.08349],[77.42835,13.08221],[77.42855,13.08118],[77.42865,13.08065],[77.42883,13.07975],[77.42896,13.0791],[77.4291,13.07844],[77.42913,13.07832],[77.42915,13.07816],[77.42917,13.07804],[77.42958,13.07601],[77.42961,13.07584],[77.42964,13.07569],[77.42973,13.07521],[77.42978,13.07497],[77.4298,13.07485],[77.42983,13.07471],[77.43021,13.07282],[77.43027,13.07252],[77.43046,13.07159],[77.43053,13.07123],[77.43056,13.07108],[77.43059,13.0709],[77.43098,13.06893],[77.4307,13.06894],[77.43022,13.06897],[77.42799,13.06909],[77.42717,13.06913],[77.42687,13.06914],[77.42656,13.06916],[77.42647,13.06916],[77.42624,13.06917],[77.42544,13.06922],[77.4254,13.06922],[77.42495,13.06924],[77.4246,13.06926],[77.42428,13.06927],[77.42396,13.06929],[77.42363,13.06931],[77.4233,13.06932],[77.42272,13.06935],[77.42241,13.06937],[77.42171,13.06941],[77.42058,13.06947],[77.41896,13.06956],[77.41811,13.06961],[77.41706,13.06966],[77.41631,13.06976],[77.41506,13.06993],[77.41443,13.07002],[77.4124,13.07029],[77.41165,13.07039],[77.41068,13.07052],[77.40974,13.07065],[77.40752,13.07095],[77.40412,13.07141],[77.40303,13.07155],[77.40162,13.07108],[77.40065,13.07075],[77.39991,13.0705],[77.39931,13.0703],[77.39921,13.07026],[77.39857,13.07004],[77.39719,13.06958],[77.39534,13.06896],[77.39468,13.06872],[77.39357,13.06836],[77.39082,13.06744],[77.38665,13.06603],[77.38564,13.06569],[77.38561,13.06548],[77.385,13.06092],[77.38477,13.05924],[77.38469,13.05868],[77.3852,13.05771],[77.3859,13.05634],[77.38748,13.05328],[77.38801,13.05225],[77.39035,13.05046],[77.39164,13.05285],[77.39322,13.05578],[77.39329,13.05591],[77.39457,13.05572],[77.39861,13.05512],[77.39931,13.05502],[77.39858,13.05185],[77.39845,13.05128],[77.39841,13.05089],[77.39676,13.04385],[77.39637,13.04217],[77.39596,13.03924],[77.3956,13.03671],[77.39512,13.03329],[77.39457,13.02936],[77.39285,13.02946],[77.38762,13.02975],[77.38314,13.03001],[77.37943,13.03022],[77.37988,13.02582],[77.37995,13.0251],[77.38021,13.02254],[77.38048,13.01981],[77.37809,13.01781],[77.37682,13.01743],[77.37411,13.01662],[77.37448,13.0142],[77.37458,13.01352],[77.37513,13.01111],[77.37641,13.00949],[77.37146,13.00892],[77.36992,13.00875],[77.36966,13.00864],[77.3538,13.00199],[77.34993,12.99978],[77.34288,12.99575],[77.3402,12.99575],[77.34006,12.99575],[77.33677,12.99577],[77.3357,12.99577],[77.32755,12.9958]]]}}]}
