{"type":"FeatureCollection","name":"chennai_boundary","features":[{"type":"Feature","properties":{"canonical_city_id":"chennai","scope_type":"district","source_districts":["Chennai"],"source_shape_ids":["76128533B89024397489955"],"source":"geoBoundaries gbOpen India ADM2","source_revision":"9469f09","boundary_year":"2021","license":"ODbL 1.0"},"geometry":{"type":"Polygon","coordinates":[[[80.19014,13.02641],[80.19048,13.0265],[80.19108,13.02666],[80.19153,13.02678],[80.19189,13.02688],[80.1926,13.0271],[80.19383,13.02743],[80.19406,13.02749],[80.19683,13.02827],[80.19774,13.02853],[80.19791,13.02864],[80.19933,13.02897],[80.1998,13.0291],[80.20022,13.02922],[80.20034,13.02925],[80.20079,13.02938],[80.20107,13.02946],[80.20131,13.02953],[80.20174,13.02964],[80.2019,13.02969],[80.20216,13.02965],[80.20316,13.02952],[80.20342,13.02948],[80.20381,13.02941],[80.20385,13.02942],[80.20449,13.02934],[80.20575,13.02917],[80.20593,13.02915],[80.20721,13.02898],[80.20798,13.02885],[80.20805,13.02887],[80.20813,13.0289],[80.2085,13.02879],[80.20858,13.02877],[80.2087,13.02873],[80.2088,13.02869],[80.20908,13.02851],[80.20969,13.02813],[80.20999,13.02794],[80.21052,13.0276],[80.21097,13.02732],[80.21132,13.0271],[80.21168,13.02687],[80.21154,13.0268],[80.21133,13.02671],[80.21096,13.02654],[80.21067,13.02641],[80.2104,13.02628],[80.21011,13.02615],[80.21002,13.02619],[80.20941,13.02582],[80.20888,13.02558],[80.20854,13.02542],[80.20811,13.02522],[80.20806,13.0252],[80.20714,13.02477],[80.20693,13.02468],[80.20677,13.0246],[80.20629,13.02438],[80.20543,13.02399],[80.20518,13.02387],[80.20465,13.02362],[80.20383,13.02324],[80.20365,13.02316],[80.2035,13.02309],[80.2033,13.023],[80.20249,13.02263],[80.20184,13.02233],[80.20178,13.0223],[80.20171,13.02227],[80.20162,13.02223],[80.20148,13.02216],[80.20143,13.02153],[80.20138,13.02091],[80.20135,13.02059],[80.20132,13.02026],[80.20131,13.02001],[80.20127,13.01986],[80.20124,13.01927],[80.20119,13.01871],[80.20117,13.01842],[80.20108,13.01743],[80.20105,13.01706],[80.20101,13.01653],[80.20106,13.0165],[80.20132,13.01631],[80.20161,13.0161],[80.20281,13.01523],[80.20297,13.01512],[80.2032,13.01497],[80.2033,13.01488],[80.20334,13.01485],[80.20349,13.01476],[80.2036,13.01468],[80.20389,13.01451],[80.20397,13.01446],[80.20399,13.01444],[80.20405,13.0144],[80.2044,13.01424],[80.2045,13.01416],[80.20465,13.01399],[80.20487,13.01375],[80.2055,13.0133],[80.2057,13.01312],[80.20624,13.01276],[80.20707,13.01216],[80.20752,13.01184],[80.2079,13.01155],[80.20795,13.01152],[80.20815,13.01138],[80.20829,13.01128],[80.20878,13.01093],[80.20928,13.01057],[80.20978,13.01021],[80.20996,13.01008],[80.21095,13.00938],[80.21152,13.00894],[80.21161,13.00887],[80.21194,13.00864],[80.21238,13.00832],[80.21252,13.00822],[80.21266,13.00812],[80.21294,13.00792],[80.21306,13.00783],[80.21313,13.00778],[80.21348,13.00753],[80.21511,13.00634],[80.21221,13.00363],[80.21204,13.00354],[80.21201,13.00328],[80.21189,13.00307],[80.21182,13.00293],[80.21173,13.00275],[80.2116,13.00252],[80.21131,13.00199],[80.21123,13.00185],[80.21116,13.00172],[80.21101,13.00145],[80.21097,13.00138],[80.21077,13.00096],[80.21007,12.99945],[80.20987,12.99902],[80.20961,12.99846],[80.20952,12.99827],[80.20931,12.99788],[80.20916,12.9975],[80.20914,12.99746],[80.20907,12.9973],[80.20898,12.9971],[80.20876,12.99664],[80.20865,12.99641],[80.20852,12.99613],[80.20833,12.99572],[80.20808,12.99518],[80.20786,12.99472],[80.20782,12.99463],[80.20771,12.99441],[80.20763,12.99412],[80.20749,12.99366],[80.20735,12.99319],[80.2071,12.99237],[80.20704,12.99217],[80.20686,12.99159],[80.20669,12.991],[80.20643,12.99013],[80.20606,12.98889],[80.20594,12.98847],[80.20593,12.98842],[80.20591,12.98837],[80.2058,12.98799],[80.20573,12.98776],[80.20559,12.98729],[80.20545,12.98681],[80.20527,12.9862],[80.20515,12.98577],[80.20508,12.98558],[80.20503,12.98545],[80.20495,12.98516],[80.20485,12.98477],[80.20482,12.98468],[80.20484,12.98437],[80.20492,12.98429],[80.205,12.98396],[80.20527,12.98285],[80.20538,12.98241],[80.20548,12.98199],[80.20564,12.98133],[80.20587,12.98043],[80.20597,12.98001],[80.2061,12.9795],[80.20725,12.97893],[80.20814,12.97848],[80.20871,12.97819],[80.20899,12.97805],[80.20913,12.97798],[80.20918,12.97796],[80.20935,12.97788],[80.20998,12.97757],[80.21007,12.97752],[80.2105,12.97731],[80.21071,12.9772],[80.21112,12.977],[80.21129,12.97691],[80.21149,12.97681],[80.21171,12.9767],[80.21195,12.97658],[80.21279,12.97616],[80.21301,12.97605],[80.21405,12.97553],[80.21422,12.97545],[80.21425,12.97543],[80.21429,12.97535],[80.21449,12.97497],[80.21463,12.97471],[80.2149,12.97419],[80.21513,12.97376],[80.21516,12.9737],[80.21545,12.97316],[80.21572,12.97265],[80.21597,12.97216],[80.2163,12.97156],[80.21657,12.97104],[80.21684,12.97052],[80.21739,12.96948],[80.21807,12.96921],[80.21817,12.96917],[80.21828,12.96913],[80.21837,12.96909],[80.21929,12.96874],[80.22091,12.96811],[80.22237,12.96755],[80.22245,12.96752],[80.22253,12.96749],[80.22288,12.96736],[80.22306,12.96731],[80.22319,12.96726],[80.22368,12.96704],[80.22629,12.96838],[80.22719,12.9684],[80.2277,12.9686],[80.22799,12.96871],[80.22979,12.97022],[80.23033,12.97067],[80.23066,12.97095],[80.23086,12.97112],[80.23132,12.9715],[80.23208,12.97213],[80.23279,12.97272],[80.23387,12.97306],[80.23415,12.97315],[80.23451,12.97326],[80.23482,12.97336],[80.23523,12.97349],[80.23559,12.9736],[80.23597,12.97372],[80.23634,12.97384],[80.23673,12.97396],[80.23709,12.97407],[80.23786,12.97432],[80.23799,12.97445],[80.23874,12.97525],[80.23964,12.97622],[80.23995,12.97655],[80.24024,12.97686],[80.24104,12.97771],[80.24111,12.97779],[80.24138,12.97804],[80.24211,12.97848],[80.24228,12.97865],[80.24236,12.97913],[80.24271,12.9795],[80.24309,12.97991],[80.24322,12.98003],[80.24328,12.9801],[80.24335,12.98019],[80.24385,12.98072],[80.24401,12.98089],[80.24423,12.98113],[80.24428,12.98122],[80.24438,12.98133],[80.24443,12.98139],[80.24523,12.98218],[80.24532,12.98228],[80.24595,12.98295],[80.24658,12.98362],[80.24674,12.98379],[80.24691,12.984],[80.24703,12.98412],[80.24733,12.98442],[80.24857,12.98452],[80.24885,12.98407],[80.24967,12.98273],[80.24987,12.9824],[80.25114,12.98048],[80.25117,12.98042],[80.25123,12.9803],[80.25149,12.97981],[80.25221,12.97866],[80.25227,12.97856],[80.25233,12.97846],[80.2524,12.97837],[80.25245,12.97828],[80.25316,12.97713],[80.25338,12.97677],[80.25365,12.97634],[80.25378,12.97612],[80.25387,12.97606],[80.25457,12.97563],[80.2549,12.97542],[80.25542,12.97511],[80.25584,12.97485],[80.25621,12.97462],[80.25663,12.97436],[80.25667,12.97433],[80.25739,12.97389],[80.25766,12.97389],[80.25841,12.97389],[80.26004,12.97385],[80.26057,12.97385],[80.26136,12.97384],[80.26212,12.97383],[80.26267,12.97382],[80.26304,12.9737],[80.26358,12.97353],[80.26422,12.97333],[80.26599,12.97279],[80.26667,12.97258],[80.26681,12.97325],[80.26696,12.97396],[80.26769,12.97756],[80.26798,12.9787],[80.26826,12.97979],[80.26911,12.98307],[80.27003,12.98678],[80.27119,12.99127],[80.27148,12.99241],[80.27275,12.99756],[80.27314,12.99919],[80.27455,13.00331],[80.27531,13.00555],[80.27616,13.00825],[80.27681,13.01007],[80.27743,13.01174],[80.2775,13.01212],[80.27761,13.01271],[80.27767,13.01295],[80.27783,13.0136],[80.27796,13.01415],[80.27815,13.01492],[80.27831,13.0163],[80.27788,13.01642],[80.27809,13.01734],[80.27822,13.01787],[80.27836,13.01865],[80.27837,13.01913],[80.27849,13.02002],[80.27868,13.02138],[80.27878,13.02191],[80.27879,13.02214],[80.27885,13.02339],[80.27903,13.02451],[80.27911,13.02497],[80.2792,13.0255],[80.2794,13.02702],[80.27958,13.02796],[80.27961,13.02819],[80.27985,13.02852],[80.28044,13.0328],[80.28077,13.03482],[80.28111,13.0369],[80.28132,13.03836],[80.28148,13.039],[80.28236,13.04344],[80.28265,13.04491],[80.28279,13.04576],[80.28313,13.04687],[80.28442,13.05225],[80.2851,13.0547],[80.28626,13.05846],[80.28793,13.06332],[80.28852,13.0644],[80.28927,13.06565],[80.28988,13.06638],[80.28997,13.06653],[80.28989,13.06668],[80.29062,13.06781],[80.29051,13.06814],[80.29013,13.06851],[80.29132,13.07217],[80.29168,13.07329],[80.293,13.07395],[80.29426,13.07507],[80.29627,13.07798],[80.29702,13.07913],[80.29752,13.07967],[80.2988,13.08102],[80.29944,13.0826],[80.30014,13.08423],[80.30174,13.08558],[80.3033,13.0894],[80.306,13.09583],[80.30607,13.09758],[80.30618,13.09991],[80.30641,13.10061],[80.30673,13.10126],[80.30697,13.10167],[80.30828,13.10373],[80.3101,13.10749],[80.30984,13.10749],[80.30797,13.10368],[80.30743,13.10269],[80.30671,13.10186],[80.30641,13.10159],[80.30577,13.10112],[80.30511,13.10086],[80.30463,13.10079],[80.30462,13.10123],[80.30447,13.10178],[80.30434,13.10183],[80.30428,13.10171],[80.30441,13.10154],[80.30446,13.10124],[80.30445,13.10097],[80.30355,13.09867],[80.30309,13.09905],[80.3026,13.09919],[80.30128,13.09918],[80.30086,13.09937],[80.29859,13.09985],[80.2982,13.10038],[80.2977,13.10119],[80.29758,13.10175],[80.29824,13.10388],[80.29887,13.10547],[80.30004,13.10928],[80.30055,13.11071],[80.30096,13.11187],[80.30108,13.1125],[80.30066,13.11258],[80.30089,13.11346],[80.3016,13.11392],[80.3022,13.11342],[80.30216,13.11322],[80.3027,13.11263],[80.30327,13.112],[80.3041,13.11113],[80.30381,13.10888],[80.30357,13.10717],[80.30341,13.10652],[80.30303,13.10662],[80.30294,13.10666],[80.3029,13.10634],[80.30314,13.10627],[80.30318,13.10633],[80.30342,13.10633],[80.30345,13.1064],[80.30361,13.10633],[80.30361,13.10622],[80.30354,13.10604],[80.30346,13.10584],[80.3034,13.10572],[80.3033,13.10565],[80.30333,13.10554],[80.3034,13.10542],[80.30356,13.10543],[80.30366,13.10566],[80.30405,13.10655],[80.30429,13.10828],[80.30463,13.11018],[80.30487,13.11108],[80.30398,13.11204],[80.3034,13.11266],[80.30276,13.1133],[80.30224,13.11376],[80.3018,13.11417],[80.3017,13.11434],[80.30161,13.11461],[80.30148,13.11516],[80.30162,13.11561],[80.30202,13.11588],[80.30193,13.11658],[80.3018,13.1173],[80.30174,13.11782],[80.30166,13.11809],[80.30145,13.11853],[80.30087,13.1198],[80.30072,13.12033],[80.30064,13.12074],[80.2982,13.12209],[80.2981,13.12371],[80.298,13.12658],[80.29955,13.13285],[80.29994,13.13386],[80.30009,13.1342],[80.30047,13.1351],[80.30086,13.13595],[80.30097,13.13616],[80.30379,13.14234],[80.29954,13.14281],[80.2994,13.14281],[80.2984,13.14287],[80.29758,13.14295],[80.29633,13.14307],[80.29496,13.1432],[80.29485,13.14321],[80.29474,13.14322],[80.29442,13.14325],[80.29405,13.14329],[80.29357,13.14333],[80.2922,13.14347],[80.29131,13.14356],[80.29072,13.14362],[80.28983,13.1437],[80.28919,13.14376],[80.28866,13.14381],[80.28852,13.14382],[80.28828,13.14379],[80.28806,13.14376],[80.28792,13.14374],[80.28779,13.14372],[80.28761,13.1437],[80.28746,13.14368],[80.28627,13.14354],[80.28385,13.14324],[80.28328,13.14318],[80.28295,13.14313],[80.28265,13.14309],[80.28117,13.14291],[80.28092,13.14288],[80.27931,13.142],[80.2791,13.14188],[80.27858,13.1416],[80.27851,13.14156],[80.27801,13.14129],[80.27783,13.14119],[80.2762,13.1403],[80.27604,13.14031],[80.27586,13.14033],[80.27554,13.14036],[80.26819,13.14102],[80.26331,13.14148],[80.26293,13.1416],[80.25969,13.14264],[80.25955,13.14269],[80.2595,13.14452],[80.25946,13.14573],[80.2594,13.14762],[80.25939,13.14818],[80.25937,13.14855],[80.25937,13.14866],[80.25936,13.1489],[80.25821,13.14884],[80.25611,13.14873],[80.25588,13.14872],[80.25496,13.14867],[80.25385,13.14861],[80.25363,13.1486],[80.25263,13.14805],[80.25211,13.14777],[80.25085,13.14709],[80.25019,13.14673],[80.24993,13.14644],[80.24864,13.14503],[80.24851,13.14489],[80.24815,13.14452],[80.24787,13.14419],[80.2476,13.14389],[80.24742,13.14369],[80.24712,13.14337],[80.24695,13.14318],[80.24652,13.1431],[80.24589,13.14298],[80.24551,13.14291],[80.24486,13.14278],[80.24472,13.14275],[80.24423,13.14266],[80.24383,13.14259],[80.24296,13.14243],[80.24292,13.14242],[80.24281,13.1424],[80.24281,13.14228],[80.24282,13.1422],[80.24285,13.14175],[80.24287,13.14135],[80.24291,13.14067],[80.24294,13.14023],[80.24298,13.13967],[80.24299,13.13944],[80.24305,13.13895],[80.24307,13.13806],[80.24315,13.13684],[80.24317,13.13647],[80.24318,13.13626],[80.24326,13.13604],[80.24336,13.13546],[80.24329,13.13506],[80.24326,13.13491],[80.24326,13.13488],[80.2433,13.13421],[80.2433,13.13404],[80.24339,13.13285],[80.2434,13.13269],[80.24341,13.13243],[80.24345,13.13183],[80.24347,13.13147],[80.24353,13.13048],[80.24353,13.13043],[80.24352,13.1304],[80.24357,13.12976],[80.2436,13.12933],[80.24362,13.12901],[80.24366,13.12839],[80.24312,13.12836],[80.24273,13.12839],[80.24256,13.12835],[80.24245,13.12834],[80.24239,13.12833],[80.2423,13.12832],[80.24221,13.12832],[80.24203,13.12831],[80.24145,13.12823],[80.23904,13.12815],[80.2375,13.12807],[80.23746,13.12807],[80.2366,13.12802],[80.23578,13.12797],[80.2352,13.12794],[80.23337,13.12784],[80.23162,13.12774],[80.23104,13.1277],[80.23044,13.12768],[80.23005,13.12767],[80.23,13.12767],[80.22976,13.12764],[80.22967,13.12766],[80.22949,13.12768],[80.22866,13.12759],[80.22779,13.12755],[80.22709,13.12751],[80.22566,13.12741],[80.22543,13.12741],[80.22501,13.12739],[80.22499,13.12812],[80.22499,13.1282],[80.22497,13.12934],[80.22497,13.12937],[80.22497,13.12942],[80.22496,13.12983],[80.22495,13.13025],[80.22493,13.13048],[80.22428,13.13041],[80.22383,13.13036],[80.22337,13.13031],[80.22324,13.1303],[80.22311,13.13029],[80.22282,13.13026],[80.22232,13.13021],[80.22159,13.1301],[80.22135,13.13011],[80.22096,13.13006],[80.2205,13.13001],[80.2201,13.12997],[80.21948,13.12991],[80.21913,13.12987],[80.21857,13.12981],[80.21815,13.12976],[80.21778,13.12972],[80.21745,13.12969],[80.21717,13.12966],[80.21681,13.12962],[80.21648,13.12959],[80.21608,13.12955],[80.21597,13.12954],[80.2155,13.12948],[80.21511,13.12944],[80.21489,13.12943],[80.21472,13.1294],[80.21387,13.12931],[80.21219,13.12907],[80.21058,13.12896],[80.21042,13.12894],[80.21019,13.12888],[80.20956,13.1287],[80.20849,13.12839],[80.20799,13.12825],[80.2076,13.12814],[80.20726,13.12804],[80.20643,13.1278],[80.20635,13.12778],[80.20548,13.12754],[80.20509,13.12743],[80.20459,13.12728],[80.20391,13.12708],[80.20386,13.12707],[80.20347,13.12696],[80.20328,13.12691],[80.20328,13.12689],[80.20327,13.12648],[80.20327,13.12617],[80.20327,13.12598],[80.20327,13.12571],[80.20326,13.1254],[80.20326,13.12511],[80.20328,13.12504],[80.20324,13.12431],[80.2032,13.12407],[80.20321,13.12394],[80.20323,13.12348],[80.20322,13.12322],[80.20321,13.12279],[80.2032,13.12235],[80.2032,13.12194],[80.20319,13.12154],[80.20319,13.12111],[80.20318,13.12058],[80.20318,13.12046],[80.20317,13.11985],[80.20316,13.11954],[80.20316,13.11939],[80.20301,13.11912],[80.20277,13.11873],[80.20252,13.11833],[80.2024,13.11807],[80.20234,13.11795],[80.20226,13.11781],[80.20207,13.11753],[80.20182,13.11713],[80.20175,13.11699],[80.20165,13.11681],[80.20156,13.11666],[80.20154,13.11662],[80.20094,13.11561],[80.20071,13.11521],[80.2001,13.11418],[80.19973,13.11354],[80.19967,13.11344],[80.19953,13.11319],[80.19936,13.11288],[80.1993,13.11277],[80.19895,13.11211],[80.19875,13.11187],[80.19863,13.11166],[80.19767,13.11002],[80.1956,13.10729],[80.19551,13.10725],[80.1954,13.10722],[80.19502,13.10691],[80.19473,13.10657],[80.19377,13.10544],[80.19373,13.10539],[80.19377,13.10533],[80.19412,13.10483],[80.19436,13.10447],[80.19445,13.10434],[80.19455,13.10423],[80.19463,13.10415],[80.19471,13.10408],[80.19486,13.10375],[80.19498,13.10357],[80.19495,13.10252],[80.19491,13.10212],[80.1949,13.10204],[80.1949,13.10191],[80.19488,13.10175],[80.19489,13.10118],[80.19504,13.10086],[80.19531,13.10048],[80.19556,13.10022],[80.19576,13.09997],[80.19608,13.09945],[80.19637,13.09897],[80.19638,13.09891],[80.19639,13.09882],[80.19637,13.09872],[80.19636,13.09865],[80.19634,13.0986],[80.19622,13.09787],[80.19616,13.09757],[80.19606,13.09711],[80.19594,13.09655],[80.19593,13.09649],[80.19586,13.09614],[80.19576,13.09564],[80.19565,13.09512],[80.19554,13.09458],[80.19535,13.09367],[80.19523,13.09311],[80.19464,13.09312],[80.19461,13.09257],[80.19459,13.09212],[80.19457,13.09169],[80.19455,13.09115],[80.19516,13.09113],[80.1958,13.09057],[80.19632,13.09011],[80.19672,13.08976],[80.19685,13.08965],[80.19706,13.08946],[80.19687,13.08912],[80.19682,13.08902],[80.19671,13.08882],[80.19649,13.08842],[80.19624,13.08798],[80.19608,13.08768],[80.19596,13.08745],[80.19591,13.08732],[80.19587,13.08724],[80.19553,13.08667],[80.19536,13.08637],[80.19507,13.08587],[80.19501,13.08576],[80.19479,13.08537],[80.19453,13.08492],[80.19429,13.08447],[80.1941,13.08412],[80.19402,13.08398],[80.19398,13.08394],[80.19374,13.08366],[80.19333,13.08318],[80.19306,13.08287],[80.19295,13.08274],[80.19253,13.08228],[80.19246,13.0822],[80.19208,13.08177],[80.1919,13.08157],[80.19179,13.08144],[80.19165,13.08128],[80.19144,13.08105],[80.19125,13.08083],[80.19108,13.08064],[80.1902,13.07964],[80.19009,13.07952],[80.19001,13.07941],[80.18886,13.07813],[80.1887,13.07794],[80.18786,13.07696],[80.18767,13.07675],[80.18728,13.07631],[80.18716,13.07617],[80.1868,13.07575],[80.18682,13.07569],[80.18698,13.07511],[80.18729,13.07395],[80.1874,13.07352],[80.18744,13.07326],[80.18757,13.07282],[80.18775,13.07221],[80.1878,13.07205],[80.18844,13.06962],[80.18813,13.0671],[80.1881,13.06683],[80.18795,13.06575],[80.18785,13.0649],[80.1878,13.06482],[80.18717,13.06388],[80.18693,13.06352],[80.1869,13.06348],[80.18665,13.06311],[80.18646,13.06282],[80.18643,13.06265],[80.18636,13.06234],[80.1863,13.06206],[80.18625,13.06181],[80.1862,13.06156],[80.18601,13.0607],[80.18596,13.06046],[80.18584,13.05989],[80.18561,13.05886],[80.18551,13.05839],[80.18549,13.05828],[80.18549,13.0582],[80.18536,13.0577],[80.18524,13.05715],[80.18516,13.05677],[80.1851,13.05649],[80.18503,13.05621],[80.18498,13.05597],[80.18495,13.05585],[80.18476,13.05502],[80.18461,13.05436],[80.18453,13.054],[80.1844,13.05343],[80.18434,13.05316],[80.18425,13.05272],[80.18422,13.0526],[80.18405,13.05185],[80.18397,13.05148],[80.18388,13.05104],[80.18377,13.05051],[80.18366,13.04998],[80.18361,13.04975],[80.18339,13.04866],[80.18349,13.0482],[80.18355,13.0479],[80.18367,13.04736],[80.18377,13.04688],[80.18396,13.046],[80.18433,13.04425],[80.1844,13.04412],[80.18538,13.04245],[80.18561,13.04205],[80.18577,13.04186],[80.1859,13.04165],[80.18599,13.04149],[80.18644,13.04074],[80.18659,13.04051],[80.1867,13.04031],[80.1867,13.03912],[80.1867,13.0377],[80.1867,13.03635],[80.18669,13.03594],[80.18669,13.0358],[80.18669,13.03554],[80.18669,13.03519],[80.18668,13.03389],[80.18668,13.03371],[80.18673,13.03357],[80.18679,13.03339],[80.1869,13.03305],[80.187,13.03274],[80.18707,13.03252],[80.18725,13.03199],[80.18735,13.03163],[80.18753,13.03118],[80.18766,13.0308],[80.18776,13.0305],[80.1878,13.03037],[80.18797,13.02988],[80.18805,13.02965],[80.18821,13.02915],[80.18831,13.0289],[80.18846,13.02869],[80.18868,13.02839],[80.189,13.02796],[80.18932,13.02752],[80.18937,13.02745],[80.18965,13.02707],[80.18999,13.02661],[80.19014,13.02641]]]}}]}
