{"type":"FeatureCollection","name":"hyderabad_boundary","features":[{"type":"Feature","properties":{"canonical_city_id":"hyderabad","scope_type":"district","source_districts":["Hydrabad"],"source_shape_ids":["76128533B84676164211579"],"source":"geoBoundaries gbOpen India ADM2","source_revision":"9469f09","boundary_year":"2021","license":"ODbL 1.0"},"geometry":{"type":"Polygon","coordinates":[[[78.55131,17.36619],[78.55131,17.36681],[78.55131,17.36706],[78.55131,17.36788],[78.55131,17.36834],[78.55122,17.36854],[78.55097,17.36908],[78.55073,17.36961],[78.5505,17.37013],[78.55026,17.37065],[78.55007,17.37107],[78.55002,17.37118],[78.55002,17.37205],[78.55002,17.37233],[78.55002,17.37254],[78.55002,17.37288],[78.55002,17.37344],[78.55001,17.37385],[78.55002,17.3746],[78.55001,17.37477],[78.55002,17.37494],[78.55009,17.37545],[78.55015,17.37587],[78.55021,17.3763],[78.55032,17.3771],[78.5504,17.37769],[78.55047,17.37825],[78.55057,17.37897],[78.55054,17.37942],[78.55052,17.3797],[78.55052,17.37983],[78.55049,17.38046],[78.55039,17.38154],[78.54795,17.38685],[78.54736,17.38814],[78.54679,17.38954],[78.5463,17.39073],[78.54544,17.39282],[78.54547,17.39297],[78.54555,17.39344],[78.54564,17.39398],[78.54576,17.3947],[78.54581,17.39502],[78.54645,17.39591],[78.54681,17.39639],[78.54682,17.39639],[78.54791,17.39657],[78.54831,17.39664],[78.54852,17.39668],[78.54901,17.39676],[78.54943,17.39715],[78.55011,17.39777],[78.55018,17.39837],[78.5502,17.39855],[78.55021,17.39868],[78.55018,17.39871],[78.54938,17.39951],[78.54678,17.40077],[78.54654,17.40088],[78.54644,17.40131],[78.54657,17.40131],[78.54684,17.40132],[78.5471,17.40132],[78.54761,17.40131],[78.54892,17.40126],[78.54916,17.40125],[78.54964,17.40212],[78.55042,17.40371],[78.55118,17.40501],[78.55165,17.40582],[78.55212,17.40653],[78.55236,17.40691],[78.55255,17.40728],[78.55281,17.40771],[78.55316,17.4083],[78.55323,17.40842],[78.55308,17.40858],[78.55254,17.40914],[78.5504,17.41103],[78.54989,17.41149],[78.5496,17.41175],[78.54896,17.41231],[78.54905,17.41244],[78.55059,17.41606],[78.5517,17.41867],[78.55213,17.41968],[78.55235,17.42027],[78.55341,17.42307],[78.55327,17.42333],[78.55304,17.42375],[78.55296,17.42389],[78.55281,17.42387],[78.55249,17.42383],[78.55158,17.42371],[78.55151,17.42368],[78.5513,17.42358],[78.55073,17.4233],[78.55029,17.42309],[78.55015,17.42302],[78.55004,17.42297],[78.54975,17.42283],[78.54947,17.4227],[78.5493,17.42273],[78.54921,17.42275],[78.54872,17.42285],[78.54833,17.42293],[78.54823,17.42295],[78.54765,17.42307],[78.54764,17.42307],[78.54764,17.42358],[78.54764,17.42375],[78.5476,17.42443],[78.54759,17.42454],[78.54759,17.42465],[78.54764,17.42483],[78.54764,17.42501],[78.54764,17.42513],[78.54755,17.42548],[78.54751,17.42562],[78.54743,17.42592],[78.54731,17.42639],[78.54701,17.42752],[78.54691,17.42788],[78.54689,17.42798],[78.5468,17.42841],[78.54671,17.42886],[78.54663,17.42925],[78.54656,17.42963],[78.54654,17.42972],[78.54666,17.42995],[78.54678,17.43023],[78.54684,17.43028],[78.54688,17.43036],[78.5472,17.43097],[78.54728,17.43112],[78.54749,17.43151],[78.54778,17.43206],[78.54793,17.43233],[78.54819,17.43283],[78.54856,17.43299],[78.54883,17.4331],[78.55044,17.43376],[78.55077,17.4339],[78.55122,17.43408],[78.55184,17.43433],[78.55222,17.43448],[78.55249,17.43456],[78.55329,17.43476],[78.55378,17.43489],[78.55425,17.43501],[78.55461,17.43514],[78.55471,17.43516],[78.55604,17.43548],[78.55613,17.4355],[78.5569,17.4357],[78.55717,17.43577],[78.55805,17.43606],[78.55831,17.43615],[78.55871,17.43628],[78.55957,17.43657],[78.55973,17.43662],[78.55992,17.43668],[78.56051,17.43683],[78.56105,17.43696],[78.56235,17.43729],[78.56286,17.43742],[78.56291,17.43776],[78.563,17.4384],[78.56304,17.4387],[78.56291,17.44031],[78.56286,17.44108],[78.56268,17.44116],[78.56176,17.44155],[78.56116,17.44181],[78.56091,17.44191],[78.56029,17.44218],[78.55813,17.44311],[78.55772,17.44328],[78.55655,17.44328],[78.55646,17.44328],[78.55497,17.44328],[78.55347,17.4431],[78.55336,17.44309],[78.55302,17.44305],[78.55282,17.44303],[78.55272,17.44302],[78.55186,17.44292],[78.55154,17.44308],[78.55137,17.44316],[78.55117,17.44326],[78.55039,17.44365],[78.55039,17.44383],[78.55039,17.4447],[78.55039,17.44477],[78.55039,17.44504],[78.55039,17.44517],[78.55039,17.44619],[78.55039,17.44622],[78.55039,17.44702],[78.55038,17.44731],[78.55039,17.44752],[78.55039,17.44823],[78.55039,17.4489],[78.55039,17.45053],[78.55039,17.45071],[78.55039,17.45153],[78.55062,17.45213],[78.5513,17.45389],[78.55167,17.45484],[78.5523,17.45517],[78.55295,17.45551],[78.55313,17.4556],[78.55481,17.45648],[78.55589,17.45704],[78.55619,17.45697],[78.55956,17.45612],[78.56019,17.45532],[78.56024,17.45525],[78.56036,17.45509],[78.56055,17.45485],[78.56092,17.45438],[78.56122,17.45399],[78.56144,17.45368],[78.56202,17.45295],[78.56212,17.45282],[78.56242,17.4528],[78.56272,17.45277],[78.563,17.45275],[78.56451,17.45263],[78.56459,17.45266],[78.56485,17.45269],[78.56554,17.45282],[78.56584,17.45288],[78.56636,17.45297],[78.56652,17.453],[78.56654,17.45304],[78.56687,17.45382],[78.56702,17.45419],[78.56718,17.45457],[78.5672,17.45463],[78.5675,17.45533],[78.56761,17.4556],[78.56783,17.4561],[78.56796,17.45641],[78.56799,17.45649],[78.56816,17.45676],[78.56851,17.45729],[78.56873,17.45763],[78.56881,17.45775],[78.56912,17.45822],[78.5694,17.45865],[78.56946,17.45875],[78.56974,17.45917],[78.56987,17.45938],[78.56989,17.45941],[78.56993,17.45946],[78.57009,17.4597],[78.57024,17.45993],[78.57038,17.46015],[78.57045,17.46024],[78.57064,17.46048],[78.57068,17.46052],[78.57086,17.46076],[78.57099,17.46092],[78.57115,17.46111],[78.57155,17.46164],[78.57199,17.4622],[78.57218,17.46243],[78.57316,17.46367],[78.57334,17.46389],[78.57419,17.46496],[78.57459,17.46547],[78.57487,17.46581],[78.57496,17.46595],[78.57509,17.46609],[78.57604,17.46727],[78.57612,17.46737],[78.57624,17.46751],[78.57697,17.46842],[78.57747,17.46906],[78.57826,17.47005],[78.57829,17.47008],[78.57936,17.47097],[78.57936,17.47113],[78.57936,17.47204],[78.57936,17.47216],[78.57936,17.47286],[78.57936,17.47317],[78.57932,17.47362],[78.57924,17.47396],[78.57915,17.47419],[78.57904,17.47434],[78.5787,17.47442],[78.57857,17.47451],[78.57853,17.47464],[78.57853,17.47486],[78.57859,17.47581],[78.5786,17.47599],[78.57856,17.47614],[78.57845,17.47636],[78.57831,17.47651],[78.57788,17.47693],[78.57769,17.47695],[78.57716,17.47702],[78.57692,17.47704],[78.57556,17.47718],[78.57533,17.4772],[78.57527,17.47748],[78.57524,17.47763],[78.57496,17.4789],[78.57478,17.47968],[78.57472,17.47974],[78.57469,17.47978],[78.57455,17.47985],[78.57435,17.47993],[78.57418,17.47999],[78.57395,17.48008],[78.57378,17.48014],[78.57354,17.48023],[78.57341,17.48028],[78.57331,17.48032],[78.57325,17.48029],[78.57303,17.48017],[78.57275,17.48003],[78.57264,17.47997],[78.57223,17.47976],[78.57209,17.47969],[78.57123,17.47924],[78.57074,17.47898],[78.57047,17.47884],[78.56987,17.47853],[78.56925,17.47821],[78.56812,17.47799],[78.56744,17.47786],[78.56738,17.47785],[78.56633,17.47764],[78.56597,17.47757],[78.56587,17.47734],[78.56565,17.47686],[78.56563,17.47678],[78.56538,17.4762],[78.56509,17.47552],[78.56492,17.47513],[78.56457,17.4743],[78.56439,17.47388],[78.56432,17.47372],[78.5643,17.47369],[78.56378,17.47283],[78.5635,17.47237],[78.56322,17.47189],[78.56311,17.47185],[78.56289,17.47178],[78.5623,17.47159],[78.56174,17.47142],[78.56157,17.47135],[78.56068,17.47106],[78.56026,17.47092],[78.5598,17.47077],[78.55886,17.47046],[78.55873,17.47042],[78.5586,17.47038],[78.55842,17.47032],[78.55822,17.47025],[78.55802,17.47019],[78.55296,17.46852],[78.55272,17.46844],[78.55236,17.46833],[78.55204,17.46822],[78.55134,17.46849],[78.55078,17.4687],[78.55016,17.46894],[78.54989,17.46904],[78.54947,17.46922],[78.5492,17.46925],[78.54897,17.46918],[78.54894,17.4695],[78.54893,17.46957],[78.54836,17.46945],[78.54834,17.4696],[78.54784,17.46982],[78.54749,17.46996],[78.54714,17.47009],[78.54677,17.47023],[78.54586,17.47058],[78.54581,17.4706],[78.54566,17.47062],[78.54525,17.47067],[78.54482,17.47072],[78.5443,17.47078],[78.54341,17.47089],[78.54299,17.47094],[78.54269,17.47097],[78.54257,17.47103],[78.54164,17.47153],[78.54121,17.47176],[78.54088,17.47194],[78.54031,17.47225],[78.54031,17.47285],[78.54031,17.47345],[78.54031,17.47372],[78.54038,17.47452],[78.54041,17.47476],[78.54048,17.4756],[78.54049,17.47574],[78.54062,17.47603],[78.54087,17.47657],[78.54109,17.47707],[78.5413,17.47751],[78.54141,17.47775],[78.54193,17.47861],[78.54206,17.47883],[78.54229,17.47921],[78.54247,17.47951],[78.54261,17.47976],[78.54265,17.47983],[78.54283,17.48013],[78.54298,17.48038],[78.54306,17.48051],[78.5432,17.48079],[78.54377,17.48194],[78.5439,17.48219],[78.54406,17.48251],[78.54432,17.48334],[78.54434,17.48342],[78.5444,17.48364],[78.54429,17.48429],[78.54407,17.48507],[78.544,17.48534],[78.54397,17.48546],[78.5438,17.48558],[78.5429,17.48622],[78.54286,17.48625],[78.54269,17.48637],[78.5426,17.48667],[78.5424,17.48732],[78.54233,17.48754],[78.54217,17.48809],[78.54214,17.4882],[78.54254,17.48949],[78.5428,17.49033],[78.54293,17.49075],[78.54326,17.4918],[78.54342,17.49233],[78.54353,17.49269],[78.54367,17.49314],[78.54379,17.49352],[78.54378,17.49354],[78.54354,17.49401],[78.54331,17.49447],[78.54318,17.49474],[78.54302,17.49505],[78.54287,17.49536],[78.54205,17.49559],[78.54159,17.49572],[78.54148,17.49615],[78.5414,17.49648],[78.54126,17.49702],[78.54123,17.49713],[78.54122,17.49719],[78.54142,17.49853],[78.54143,17.49862],[78.54151,17.49918],[78.54157,17.49958],[78.54163,17.5],[78.5417,17.5005],[78.54183,17.50128],[78.54187,17.50164],[78.54194,17.50206],[78.54207,17.50293],[78.54214,17.50342],[78.54213,17.50353],[78.54206,17.50413],[78.54204,17.50431],[78.54196,17.50501],[78.54195,17.50514],[78.54188,17.50573],[78.54183,17.50621],[78.5417,17.50739],[78.54165,17.5078],[78.5416,17.50825],[78.54127,17.51119],[78.54109,17.51283],[78.54105,17.51319],[78.54104,17.5133],[78.54086,17.51498],[78.5401,17.51562],[78.53954,17.51605],[78.53898,17.51651],[78.53843,17.51697],[78.53814,17.51721],[78.53774,17.51754],[78.53604,17.51807],[78.53571,17.51817],[78.53546,17.51825],[78.53535,17.51828],[78.53468,17.51828],[78.53433,17.51828],[78.5326,17.51828],[78.52998,17.51842],[78.52912,17.51846],[78.52877,17.5185],[78.52721,17.51871],[78.52665,17.51876],[78.526,17.51883],[78.52294,17.51705],[78.52279,17.51694],[78.52162,17.51633],[78.52158,17.51627],[78.52155,17.51626],[78.52127,17.51609],[78.52121,17.51606],[78.52115,17.51602],[78.52032,17.51553],[78.51971,17.51514],[78.51936,17.51493],[78.51871,17.51465],[78.51826,17.5144],[78.51772,17.5141],[78.51698,17.51369],[78.51678,17.51358],[78.51665,17.51351],[78.51617,17.51293],[78.51575,17.51244],[78.5154,17.51202],[78.51496,17.5115],[78.51464,17.51112],[78.51434,17.51048],[78.51368,17.50905],[78.51354,17.50874],[78.5137,17.50853],[78.51446,17.50756],[78.51482,17.50709],[78.51562,17.50643],[78.51568,17.50637],[78.51577,17.50635],[78.51598,17.5061],[78.51614,17.506],[78.51642,17.50576],[78.51671,17.50552],[78.51702,17.50526],[78.51863,17.50316],[78.51905,17.50261],[78.5194,17.50214],[78.51943,17.50185],[78.51944,17.50176],[78.51949,17.50149],[78.51955,17.50093],[78.51977,17.49902],[78.51867,17.49682],[78.51861,17.49682],[78.51826,17.4968],[78.51809,17.49679],[78.51769,17.49678],[78.51741,17.49677],[78.51714,17.49676],[78.51662,17.49674],[78.51636,17.49673],[78.51631,17.49673],[78.51562,17.4967],[78.5153,17.49669],[78.5151,17.49673],[78.51484,17.49671],[78.51416,17.49665],[78.5139,17.49664],[78.51357,17.49691],[78.51322,17.49718],[78.51183,17.4983],[78.51153,17.49853],[78.51121,17.49879],[78.51115,17.49884],[78.51099,17.49914],[78.51072,17.49968],[78.51068,17.49974],[78.51043,17.50015],[78.51024,17.50049],[78.51016,17.50053],[78.50961,17.50068],[78.50923,17.5008],[78.50885,17.50091],[78.5084,17.50104],[78.50826,17.50102],[78.50761,17.50094],[78.50717,17.50088],[78.50669,17.50082],[78.50649,17.50079],[78.50611,17.50074],[78.50533,17.50064],[78.50477,17.50057],[78.50454,17.50054],[78.50418,17.50049],[78.50251,17.50056],[78.50205,17.50058],[78.50126,17.50062],[78.50091,17.50064],[78.50025,17.50067],[78.50015,17.50067],[78.49996,17.50076],[78.49915,17.50114],[78.49855,17.50143],[78.4984,17.5015],[78.4983,17.50154],[78.49786,17.50175],[78.49715,17.50208],[78.49707,17.50212],[78.49703,17.50214],[78.49641,17.50276],[78.49607,17.5031],[78.49578,17.50339],[78.49545,17.50372],[78.49492,17.50423],[78.49454,17.50463],[78.49428,17.50489],[78.49418,17.50494],[78.49381,17.50513],[78.49298,17.50554],[78.49186,17.5061],[78.49172,17.50621],[78.49135,17.50636],[78.49049,17.50653],[78.49012,17.5066],[78.48969,17.50669],[78.4894,17.50675],[78.48921,17.50679],[78.48768,17.50709],[78.48726,17.50712],[78.48715,17.50713],[78.48426,17.50735],[78.48401,17.50737],[78.48347,17.50741],[78.48291,17.50737],[78.4817,17.50728],[78.48122,17.50724],[78.48108,17.50723],[78.48076,17.50699],[78.47995,17.50638],[78.47962,17.50613],[78.4796,17.50598],[78.47956,17.50562],[78.47951,17.50516],[78.47947,17.50475],[78.47942,17.5043],[78.47931,17.50321],[78.47925,17.50264],[78.47913,17.50234],[78.47889,17.50175],[78.47863,17.50112],[78.47819,17.50003],[78.47812,17.49987],[78.4779,17.49934],[78.47767,17.49877],[78.47764,17.49869],[78.47708,17.49733],[78.47678,17.49659],[78.47615,17.49504],[78.47522,17.49274],[78.47488,17.49053],[78.47475,17.48973],[78.47436,17.4876],[78.47437,17.48734],[78.4743,17.48688],[78.47438,17.48663],[78.47483,17.48528],[78.47522,17.48413],[78.47568,17.48359],[78.47618,17.48301],[78.47632,17.48284],[78.47658,17.48218],[78.47663,17.48206],[78.47689,17.48142],[78.47705,17.48101],[78.47698,17.48081],[78.47691,17.48058],[78.47679,17.48018],[78.47675,17.48006],[78.47648,17.47916],[78.4764,17.4789],[78.47633,17.47867],[78.47623,17.47834],[78.47602,17.47765],[78.47591,17.47731],[78.47583,17.47704],[78.47569,17.47672],[78.47538,17.47557],[78.47521,17.47502],[78.47485,17.47387],[78.47467,17.47328],[78.47463,17.47315],[78.47427,17.47192],[78.47402,17.47203],[78.47388,17.47148],[78.47376,17.47093],[78.47367,17.47081],[78.47385,17.47073],[78.47371,17.47027],[78.4733,17.46913],[78.47329,17.46909],[78.47299,17.46823],[78.47264,17.46737],[78.4726,17.46726],[78.47192,17.4672],[78.47026,17.46707],[78.46979,17.46734],[78.46908,17.46775],[78.46898,17.46781],[78.46806,17.46891],[78.46595,17.46988],[78.46568,17.47001],[78.46486,17.47001],[78.4633,17.47001],[78.46294,17.46965],[78.46267,17.46938],[78.46237,17.46908],[78.4621,17.46881],[78.46183,17.46854],[78.46153,17.46828],[78.4613,17.46808],[78.46055,17.46744],[78.46052,17.46766],[78.46036,17.46871],[78.46047,17.46994],[78.46051,17.47043],[78.46055,17.47089],[78.46058,17.47125],[78.46073,17.47294],[78.46084,17.47537],[78.46087,17.47611],[78.46088,17.47632],[78.46091,17.47688],[78.46098,17.47835],[78.46102,17.4792],[78.46106,17.47968],[78.46104,17.47975],[78.46108,17.48042],[78.46112,17.48118],[78.46116,17.48195],[78.46119,17.48268],[78.46122,17.48385],[78.46125,17.48416],[78.46127,17.48428],[78.46128,17.48455],[78.46128,17.48468],[78.46128,17.48481],[78.46128,17.48508],[78.46128,17.48536],[78.46128,17.48562],[78.46128,17.48589],[78.46128,17.48617],[78.46128,17.48642],[78.46128,17.4867],[78.46128,17.48748],[78.46128,17.48779],[78.46087,17.48807],[78.46041,17.48837],[78.46018,17.48853],[78.45996,17.48866],[78.45944,17.48897],[78.45926,17.48908],[78.45911,17.48964],[78.45884,17.49045],[78.45862,17.49118],[78.4586,17.49124],[78.45853,17.49146],[78.45814,17.49156],[78.4578,17.49164],[78.45778,17.49163],[78.45763,17.49157],[78.45707,17.49132],[78.45691,17.49125],[78.45659,17.49111],[78.45639,17.49102],[78.45625,17.49096],[78.45588,17.4908],[78.45547,17.49062],[78.4553,17.49056],[78.45514,17.49048],[78.45486,17.49036],[78.45449,17.49038],[78.45415,17.4904],[78.45392,17.49042],[78.4537,17.49043],[78.45344,17.49045],[78.4529,17.49048],[78.45263,17.4905],[78.45223,17.49052],[78.45193,17.49054],[78.4519,17.49056],[78.45112,17.49093],[78.45083,17.49109],[78.4508,17.49109],[78.45043,17.49113],[78.44969,17.4912],[78.44881,17.49128],[78.44848,17.49128],[78.44814,17.49128],[78.44629,17.49128],[78.44577,17.49128],[78.4447,17.49127],[78.44459,17.49128],[78.44404,17.49128],[78.44399,17.49128],[78.44346,17.49128],[78.44303,17.49128],[78.4425,17.49128],[78.44111,17.49128],[78.44061,17.49103],[78.44018,17.49083],[78.43966,17.49058],[78.43919,17.49035],[78.43898,17.49025],[78.43886,17.49019],[78.43673,17.48917],[78.43616,17.48889],[78.43433,17.48578],[78.43323,17.48523],[78.43176,17.48523],[78.43125,17.48512],[78.42993,17.48486],[78.42987,17.48455],[78.42976,17.48403],[78.42959,17.48324],[78.42951,17.48288],[78.42949,17.48278],[78.42938,17.48229],[78.42932,17.48204],[78.42919,17.48144],[78.42917,17.48133],[78.42875,17.47949],[78.4287,17.47929],[78.42864,17.47901],[78.42864,17.47899],[78.42851,17.47897],[78.42817,17.47891],[78.42763,17.47882],[78.42692,17.4787],[78.42596,17.47854],[78.42581,17.47852],[78.42557,17.47848],[78.42534,17.47844],[78.42507,17.47838],[78.42451,17.47825],[78.42435,17.47821],[78.42398,17.47812],[78.42354,17.47802],[78.42323,17.47795],[78.42293,17.47788],[78.42251,17.47778],[78.42162,17.47757],[78.42112,17.47747],[78.42093,17.47735],[78.41841,17.47683],[78.41746,17.47661],[78.41595,17.47616],[78.41479,17.47581],[78.41434,17.47568],[78.4137,17.47549],[78.41325,17.47536],[78.41318,17.47535],[78.41069,17.47459],[78.41054,17.47454],[78.40834,17.47389],[78.40756,17.47366],[78.40609,17.47322],[78.4051,17.47219],[78.40381,17.47084],[78.4036,17.47062],[78.40265,17.46963],[78.4023,17.46927],[78.4021,17.46905],[78.40135,17.46827],[78.40068,17.46717],[78.40065,17.46643],[78.40062,17.46583],[78.4006,17.46544],[78.40059,17.46524],[78.40074,17.46472],[78.40105,17.46368],[78.4016,17.46286],[78.40169,17.46212],[78.40111,17.46129],[78.40105,17.46121],[78.40045,17.46111],[78.40005,17.46105],[78.39986,17.46102],[78.39962,17.46089],[78.39924,17.46068],[78.39886,17.46047],[78.39876,17.46044],[78.39833,17.46018],[78.39821,17.46011],[78.39821,17.45986],[78.39821,17.45947],[78.39821,17.45924],[78.39821,17.45905],[78.39821,17.45869],[78.39821,17.45855],[78.39811,17.45833],[78.39803,17.45814],[78.3979,17.45784],[78.39781,17.45764],[78.39778,17.45757],[78.39756,17.45708],[78.39715,17.45708],[78.3965,17.45708],[78.39576,17.45712],[78.39543,17.45719],[78.3944,17.45748],[78.39417,17.45754],[78.39316,17.4572],[78.39311,17.45715],[78.39287,17.45636],[78.39283,17.45621],[78.39256,17.45504],[78.39234,17.45419],[78.39195,17.45308],[78.39179,17.45261],[78.39168,17.45227],[78.39158,17.45201],[78.39152,17.45202],[78.39142,17.45193],[78.39121,17.45093],[78.391,17.45031],[78.39086,17.4499],[78.39051,17.44888],[78.39044,17.44882],[78.39007,17.44852],[78.38984,17.44833],[78.38953,17.44806],[78.38868,17.44737],[78.38829,17.447],[78.38788,17.44671],[78.38745,17.44636],[78.38739,17.44631],[78.38717,17.44625],[78.38701,17.44621],[78.38605,17.44596],[78.38595,17.44593],[78.3856,17.44584],[78.38546,17.4458],[78.38444,17.44553],[78.38433,17.4455],[78.38391,17.44539],[78.38362,17.44515],[78.38318,17.44479],[78.38272,17.44442],[78.38252,17.44425],[78.38189,17.44374],[78.38219,17.44335],[78.38227,17.44324],[78.38255,17.44277],[78.38288,17.44221],[78.3839,17.44201],[78.38457,17.44181],[78.38555,17.44154],[78.38682,17.44148],[78.38702,17.44146],[78.38859,17.44132],[78.38875,17.4414],[78.38896,17.44144],[78.389,17.44143],[78.38909,17.44142],[78.38909,17.44138],[78.38912,17.44126],[78.38974,17.44043],[78.39001,17.44008],[78.39019,17.43984],[78.39052,17.43939],[78.3908,17.43902],[78.39122,17.43844],[78.3917,17.43727],[78.39209,17.43629],[78.39226,17.43586],[78.39247,17.43534],[78.39269,17.43479],[78.39278,17.43457],[78.39284,17.43443],[78.39298,17.43407],[78.39312,17.43373],[78.39417,17.43109],[78.39418,17.43091],[78.39421,17.43056],[78.39443,17.42793],[78.39449,17.42697],[78.39447,17.42675],[78.39443,17.42644],[78.3943,17.4261],[78.394,17.42535],[78.39344,17.42394],[78.39194,17.42379],[78.39161,17.42376],[78.38941,17.42357],[78.38851,17.42161],[78.38643,17.41975],[78.38635,17.41968],[78.38618,17.41955],[78.38574,17.41917],[78.38448,17.41646],[78.38446,17.41642],[78.38446,17.41637],[78.38447,17.41624],[78.38448,17.41601],[78.38464,17.41268],[78.38464,17.41257],[78.38482,17.41203],[78.38515,17.41102],[78.38522,17.41082],[78.38535,17.41044],[78.38555,17.40982],[78.38559,17.4098],[78.38601,17.40961],[78.38645,17.40941],[78.38794,17.40872],[78.3887,17.40765],[78.38901,17.40721],[78.38904,17.40718],[78.38975,17.40619],[78.38977,17.40616],[78.38998,17.40578],[78.39028,17.40523],[78.39067,17.40449],[78.39078,17.40428],[78.39099,17.4036],[78.39105,17.40345],[78.39092,17.40289],[78.39086,17.40259],[78.39077,17.40217],[78.39072,17.40193],[78.39069,17.40178],[78.39068,17.40177],[78.39037,17.40153],[78.38985,17.40113],[78.38941,17.40079],[78.38936,17.40071],[78.3889,17.39989],[78.38884,17.39979],[78.38882,17.39975],[78.38865,17.39945],[78.38858,17.39933],[78.38857,17.39918],[78.38849,17.39826],[78.38843,17.39766],[78.3884,17.39731],[78.3884,17.39607],[78.3884,17.39462],[78.3884,17.39412],[78.3884,17.39401],[78.38865,17.39325],[78.38876,17.39292],[78.38879,17.39283],[78.38895,17.39236],[78.38946,17.39194],[78.39035,17.39122],[78.39041,17.39117],[78.39069,17.39061],[78.39106,17.38988],[78.39106,17.38983],[78.39106,17.38912],[78.39106,17.38878],[78.39089,17.38868],[78.38996,17.38814],[78.3891,17.3881],[78.38789,17.38804],[78.38713,17.38801],[78.38632,17.38797],[78.38601,17.38796],[78.38504,17.38798],[78.38484,17.38799],[78.38456,17.38799],[78.38433,17.38799],[78.38389,17.388],[78.38358,17.38801],[78.38293,17.38803],[78.38278,17.38804],[78.38237,17.38805],[78.38226,17.38805],[78.382,17.38818],[78.37969,17.38933],[78.37964,17.38939],[78.37956,17.38958],[78.37948,17.38967],[78.37945,17.38977],[78.37893,17.39056],[78.37843,17.39077],[78.37836,17.39083],[78.37834,17.39091],[78.37824,17.39103],[78.3781,17.39119],[78.37758,17.39181],[78.37672,17.39334],[78.37668,17.3934],[78.37659,17.39355],[78.37639,17.39392],[78.37606,17.39438],[78.3758,17.39475],[78.3754,17.39529],[78.37529,17.39545],[78.37488,17.39602],[78.37474,17.39621],[78.37467,17.39623],[78.37423,17.39635],[78.37373,17.39649],[78.37325,17.39663],[78.37309,17.39667],[78.37208,17.39643],[78.37189,17.39639],[78.3714,17.39606],[78.37133,17.39601],[78.37079,17.39564],[78.3696,17.39483],[78.36957,17.3948],[78.36906,17.39433],[78.36861,17.39391],[78.36847,17.39378],[78.36798,17.39332],[78.36737,17.39276],[78.36678,17.39221],[78.36653,17.39197],[78.3662,17.39167],[78.36575,17.39126],[78.36535,17.39117],[78.36319,17.39065],[78.36264,17.39052],[78.36229,17.39051],[78.35998,17.39043],[78.35972,17.39024],[78.35931,17.38995],[78.35925,17.3899],[78.35911,17.38979],[78.35834,17.38923],[78.35824,17.38915],[78.35803,17.38817],[78.35792,17.38767],[78.35792,17.38764],[78.35781,17.38709],[78.3578,17.38703],[78.35771,17.3866],[78.35764,17.38625],[78.35759,17.38603],[78.35767,17.38569],[78.35783,17.38505],[78.35784,17.38497],[78.35794,17.38454],[78.35799,17.38435],[78.35804,17.38414],[78.35824,17.38328],[78.35989,17.38154],[78.36096,17.3813],[78.36117,17.3812],[78.3614,17.38114],[78.36153,17.38108],[78.36163,17.38103],[78.36187,17.381],[78.36236,17.38081],[78.36566,17.38071],[78.36658,17.38078],[78.36718,17.38082],[78.36738,17.38077],[78.36745,17.38082],[78.3696,17.38099],[78.37079,17.38079],[78.37122,17.38072],[78.37155,17.38067],[78.37219,17.38056],[78.37345,17.38035],[78.37886,17.38017],[78.38022,17.38014],[78.38112,17.38012],[78.38128,17.38011],[78.38157,17.38011],[78.38172,17.3801],[78.38187,17.3801],[78.38299,17.38007],[78.38338,17.38009],[78.38698,17.38007],[78.38721,17.38007],[78.38774,17.38007],[78.38906,17.38007],[78.39112,17.38007],[78.3915,17.38007],[78.39311,17.38007],[78.39326,17.38007],[78.39343,17.38011],[78.39438,17.38034],[78.39457,17.38039],[78.39507,17.38051],[78.39645,17.38084],[78.39666,17.38089],[78.39729,17.38104],[78.39747,17.38108],[78.39876,17.38139],[78.4004,17.38178],[78.40206,17.38218],[78.4032,17.3822],[78.40407,17.38218],[78.40462,17.38218],[78.40469,17.38217],[78.40552,17.38204],[78.40603,17.38196],[78.40636,17.38191],[78.40707,17.38185],[78.40716,17.38183],[78.40724,17.38181],[78.4076,17.38171],[78.40784,17.38164],[78.40791,17.38163],[78.40804,17.38161],[78.40811,17.38163],[78.40888,17.38217],[78.4096,17.38267],[78.40987,17.38286],[78.41022,17.3831],[78.41036,17.38317],[78.41057,17.38326],[78.41078,17.38335],[78.41106,17.38347],[78.41137,17.38361],[78.41149,17.38366],[78.41187,17.38383],[78.4119,17.38382],[78.41211,17.38379],[78.41231,17.38376],[78.41285,17.38367],[78.41297,17.38365],[78.41344,17.38336],[78.41365,17.38323],[78.41421,17.3829],[78.41428,17.38286],[78.41467,17.38263],[78.41517,17.38233],[78.41526,17.38227],[78.4155,17.38226],[78.41593,17.38224],[78.41623,17.38222],[78.41644,17.38221],[78.4168,17.38219],[78.41721,17.38217],[78.41847,17.38209],[78.41856,17.38209],[78.41948,17.38209],[78.42177,17.38209],[78.42206,17.38207],[78.42216,17.38205],[78.42236,17.38201],[78.42397,17.38182],[78.42407,17.38157],[78.42466,17.38009],[78.42507,17.37906],[78.42508,17.37793],[78.42507,17.37754],[78.42507,17.37743],[78.42507,17.37722],[78.42507,17.37537],[78.42507,17.37494],[78.42507,17.37458],[78.42507,17.37439],[78.42516,17.37427],[78.42519,17.37422],[78.42561,17.37365],[78.42566,17.37357],[78.4263,17.37268],[78.42653,17.37237],[78.42727,17.3718],[78.42756,17.37163],[78.4288,17.37074],[78.42883,17.37072],[78.42914,17.37069],[78.4292,17.37069],[78.42927,17.3707],[78.42935,17.3707],[78.42942,17.3707],[78.42953,17.3707],[78.43121,17.37063],[78.43224,17.37066],[78.43451,17.37072],[78.43498,17.37056],[78.43548,17.37039],[78.43689,17.3699],[78.43753,17.36917],[78.43761,17.36908],[78.43809,17.36852],[78.43866,17.36828],[78.44093,17.36733],[78.4423,17.36632],[78.4426,17.3658],[78.44269,17.36564],[78.44306,17.36501],[78.44326,17.36466],[78.44331,17.36458],[78.44335,17.36452],[78.44375,17.36387],[78.44434,17.36294],[78.44437,17.36288],[78.4446,17.36252],[78.44479,17.36222],[78.44502,17.36186],[78.44531,17.3614],[78.44571,17.36077],[78.44576,17.36069],[78.44579,17.36064],[78.44575,17.36035],[78.44571,17.36007],[78.44561,17.35943],[78.44554,17.35893],[78.44551,17.35871],[78.44547,17.35868],[78.44542,17.35865],[78.44536,17.35861],[78.4452,17.3585],[78.44477,17.3582],[78.44441,17.35795],[78.44405,17.3577],[78.44398,17.3577],[78.44286,17.35777],[78.44274,17.35778],[78.4423,17.3578],[78.44212,17.35782],[78.44133,17.3578],[78.4408,17.3578],[78.44019,17.3578],[78.4401,17.35782],[78.43841,17.35814],[78.43818,17.35818],[78.43799,17.35822],[78.43781,17.35825],[78.43764,17.35822],[78.43741,17.35814],[78.43726,17.35809],[78.43701,17.35802],[78.43662,17.35791],[78.43627,17.35781],[78.43559,17.35762],[78.43469,17.35737],[78.4346,17.35734],[78.43416,17.35659],[78.43395,17.35622],[78.43364,17.35573],[78.43343,17.35539],[78.43341,17.35532],[78.43307,17.35479],[78.43295,17.35459],[78.4327,17.35425],[78.43262,17.35414],[78.43237,17.35381],[78.43168,17.35288],[78.43097,17.35194],[78.43059,17.35144],[78.43027,17.35101],[78.42964,17.35017],[78.42938,17.34982],[78.42834,17.34944],[78.42829,17.34942],[78.42804,17.34933],[78.42758,17.34916],[78.42744,17.34911],[78.42664,17.34881],[78.42617,17.34863],[78.42607,17.34846],[78.4258,17.34798],[78.42576,17.3479],[78.4256,17.34762],[78.4254,17.34726],[78.42537,17.34722],[78.42534,17.34716],[78.42536,17.34714],[78.42555,17.34692],[78.42569,17.34675],[78.42573,17.3467],[78.42593,17.34646],[78.426,17.34638],[78.4262,17.34615],[78.42635,17.34597],[78.42646,17.34596],[78.42694,17.34592],[78.42731,17.34589],[78.42754,17.34588],[78.42866,17.34588],[78.42875,17.34588],[78.4292,17.34588],[78.42998,17.34588],[78.43033,17.34588],[78.43067,17.34588],[78.43084,17.34588],[78.4318,17.34526],[78.43187,17.34522],[78.43313,17.34441],[78.43321,17.34431],[78.43334,17.34416],[78.4334,17.34409],[78.43396,17.34345],[78.43428,17.34308],[78.43475,17.34256],[78.43497,17.34228],[78.43501,17.34224],[78.43506,17.34221],[78.43544,17.34216],[78.43664,17.34199],[78.43742,17.34188],[78.43815,17.34178],[78.43836,17.34175],[78.43839,17.34175],[78.43884,17.34175],[78.43905,17.34175],[78.43929,17.34175],[78.43942,17.34175],[78.43977,17.34175],[78.44023,17.34175],[78.44033,17.34175],[78.44139,17.34175],[78.44441,17.34129],[78.44551,17.33935],[78.44545,17.33869],[78.44543,17.33851],[78.44536,17.33775],[78.44531,17.33721],[78.44528,17.33694],[78.44524,17.33644],[78.44433,17.33491],[78.44417,17.33463],[78.44402,17.33438],[78.44377,17.33395],[78.44358,17.33364],[78.44341,17.33335],[78.44328,17.33314],[78.44316,17.33284],[78.44284,17.33241],[78.44258,17.33197],[78.44231,17.33153],[78.44222,17.33138],[78.44212,17.33121],[78.44212,17.33115],[78.44209,17.33049],[78.44206,17.3298],[78.44203,17.32913],[78.44199,17.32845],[78.44197,17.32803],[78.44194,17.32737],[78.44191,17.32674],[78.44188,17.32618],[78.44185,17.3256],[78.44184,17.32543],[78.44195,17.32511],[78.44215,17.32453],[78.44236,17.32391],[78.44239,17.32381],[78.4426,17.3232],[78.44271,17.32289],[78.44288,17.32238],[78.44322,17.3214],[78.44322,17.32137],[78.44318,17.32029],[78.44316,17.31971],[78.44315,17.31952],[78.44314,17.31912],[78.44313,17.31874],[78.44306,17.31866],[78.44297,17.31857],[78.44265,17.31821],[78.4425,17.31804],[78.44191,17.31741],[78.44139,17.31682],[78.44135,17.31612],[78.44134,17.31599],[78.44133,17.31585],[78.44132,17.31562],[78.44132,17.31554],[78.44129,17.31489],[78.44159,17.31479],[78.4434,17.31416],[78.44376,17.3142],[78.44402,17.31419],[78.44478,17.31423],[78.44515,17.31425],[78.44631,17.31425],[78.44646,17.31425],[78.44697,17.31425],[78.44759,17.31425],[78.44862,17.31425],[78.44872,17.31425],[78.44915,17.31423],[78.44944,17.31421],[78.45028,17.31415],[78.45112,17.31409],[78.45141,17.31408],[78.45168,17.31406],[78.45189,17.31404],[78.45214,17.31403],[78.45332,17.31395],[78.45366,17.31393],[78.45402,17.3139],[78.45426,17.31388],[78.45646,17.31374],[78.45654,17.31374],[78.45706,17.3137],[78.4571,17.31369],[78.45744,17.31363],[78.45751,17.31362],[78.45771,17.31358],[78.45807,17.31352],[78.45838,17.31347],[78.45888,17.31338],[78.46052,17.3131],[78.46092,17.31303],[78.46128,17.31297],[78.4614,17.31297],[78.46168,17.31298],[78.46265,17.313],[78.46324,17.31301],[78.4636,17.31302],[78.46371,17.31302],[78.4646,17.31304],[78.46497,17.31305],[78.46529,17.31306],[78.4654,17.31306],[78.46597,17.31303],[78.46605,17.31303],[78.46651,17.31301],[78.46722,17.31298],[78.46806,17.31294],[78.46946,17.31287],[78.46953,17.31287],[78.46987,17.31271],[78.47001,17.31264],[78.47089,17.31222],[78.47096,17.31218],[78.47201,17.31168],[78.47226,17.31153],[78.47387,17.31065],[78.47448,17.31032],[78.47469,17.31007],[78.47476,17.31003],[78.47559,17.31008],[78.47635,17.31016],[78.47796,17.31022],[78.47872,17.31092],[78.47894,17.31112],[78.47974,17.31185],[78.48008,17.31216],[78.48016,17.31223],[78.48053,17.31338],[78.48073,17.31398],[78.48101,17.31485],[78.48108,17.31507],[78.48116,17.31511],[78.48136,17.31522],[78.48159,17.31535],[78.48181,17.31548],[78.48228,17.31574],[78.48258,17.31586],[78.48267,17.3159],[78.48301,17.31608],[78.4833,17.31643],[78.48353,17.3167],[78.48361,17.3168],[78.48389,17.31714],[78.48421,17.31752],[78.48442,17.31778],[78.48468,17.31809],[78.48479,17.31822],[78.48484,17.31828],[78.48491,17.31843],[78.48532,17.31987],[78.48548,17.32039],[78.48561,17.32081],[78.48567,17.32103],[78.48577,17.32108],[78.48605,17.32119],[78.48641,17.32131],[78.48683,17.32151],[78.48731,17.32165],[78.48754,17.32174],[78.48787,17.32186],[78.48955,17.32197],[78.48966,17.32198],[78.49076,17.32205],[78.49091,17.32206],[78.49176,17.32212],[78.49187,17.32213],[78.4919,17.32213],[78.49207,17.32217],[78.49229,17.32222],[78.4925,17.32227],[78.49272,17.32232],[78.49293,17.32237],[78.49315,17.32242],[78.49336,17.32247],[78.49358,17.32252],[78.49379,17.32257],[78.49399,17.32262],[78.49421,17.32267],[78.49463,17.32277],[78.49525,17.32292],[78.49607,17.32311],[78.49633,17.32317],[78.49665,17.32325],[78.49734,17.32341],[78.49741,17.32343],[78.49764,17.32348],[78.49885,17.32377],[78.49887,17.32378],[78.49966,17.32446],[78.49986,17.32463],[78.50082,17.32545],[78.50096,17.32557],[78.50198,17.32644],[78.50226,17.32667],[78.50263,17.32699],[78.50529,17.328],[78.50795,17.32807],[78.50895,17.32809],[78.50911,17.32794],[78.51005,17.32689],[78.51019,17.32674],[78.51045,17.32645],[78.51097,17.32589],[78.512,17.32582],[78.51299,17.32575],[78.51326,17.32573],[78.51345,17.32572],[78.51361,17.32573],[78.51477,17.3265],[78.51508,17.32671],[78.51509,17.32672],[78.51536,17.32767],[78.51547,17.32804],[78.51563,17.3286],[78.51565,17.32868],[78.51569,17.32877],[78.51582,17.32925],[78.51583,17.32928],[78.51576,17.3295],[78.51562,17.32993],[78.51546,17.3304],[78.51543,17.33045],[78.51521,17.33118],[78.515,17.33184],[78.51484,17.33234],[78.51476,17.33257],[78.51464,17.33295],[78.51428,17.33371],[78.51363,17.33506],[78.51365,17.33541],[78.51369,17.33598],[78.51382,17.33804],[78.51388,17.33897],[78.51391,17.33944],[78.51393,17.3398],[78.51398,17.34034],[78.51402,17.34079],[78.51445,17.34193],[78.51465,17.34241],[78.51468,17.3425],[78.5147,17.34257],[78.51503,17.34348],[78.51535,17.34433],[78.51542,17.34453],[78.5156,17.34502],[78.51571,17.3453],[78.51582,17.3456],[78.51584,17.34564],[78.51584,17.34574],[78.51603,17.34615],[78.51613,17.34641],[78.51629,17.34683],[78.5167,17.3481],[78.5167,17.34829],[78.51692,17.34897],[78.51732,17.34956],[78.51744,17.34987],[78.51758,17.35023],[78.51772,17.3506],[78.51784,17.35092],[78.51785,17.35103],[78.51786,17.35127],[78.51793,17.35224],[78.51795,17.35247],[78.51799,17.35309],[78.51801,17.35346],[78.51802,17.35356],[78.51806,17.35417],[78.5181,17.35485],[78.51813,17.35528],[78.51816,17.35572],[78.5183,17.35778],[78.51833,17.35825],[78.51833,17.35831],[78.51836,17.35887],[78.51839,17.35917],[78.51853,17.35944],[78.51901,17.36037],[78.5191,17.36054],[78.51965,17.3616],[78.51977,17.36183],[78.51978,17.36185],[78.52023,17.36244],[78.52065,17.36297],[78.52071,17.36304],[78.52091,17.36331],[78.52124,17.36373],[78.52128,17.36379],[78.52163,17.36428],[78.52166,17.36435],[78.52342,17.36467],[78.52436,17.36487],[78.52462,17.36493],[78.52509,17.36503],[78.52552,17.36512],[78.52578,17.36517],[78.52614,17.36525],[78.52675,17.36538],[78.5269,17.36541],[78.52766,17.36557],[78.52774,17.36559],[78.52806,17.36561],[78.52827,17.36563],[78.52906,17.36569],[78.52981,17.36575],[78.53013,17.36577],[78.53031,17.36573],[78.53078,17.36564],[78.53187,17.36541],[78.53205,17.36489],[78.53218,17.36459],[78.53242,17.36385],[78.53242,17.36354],[78.53242,17.3631],[78.53242,17.3626],[78.53242,17.36215],[78.53242,17.3621],[78.53242,17.3618],[78.53242,17.36148],[78.53242,17.36104],[78.53242,17.36073],[78.53247,17.36064],[78.5327,17.36021],[78.53308,17.35952],[78.53316,17.35935],[78.53341,17.35891],[78.53352,17.35871],[78.53408,17.35861],[78.53447,17.35854],[78.5348,17.35848],[78.53545,17.35835],[78.53634,17.35833],[78.53681,17.35835],[78.53693,17.35835],[78.53731,17.35835],[78.53788,17.35835],[78.53801,17.35835],[78.53844,17.35836],[78.53908,17.35838],[78.53966,17.3584],[78.54008,17.35841],[78.54038,17.35842],[78.54073,17.35843],[78.54086,17.35844],[78.54121,17.35854],[78.54165,17.35867],[78.54208,17.3588],[78.54251,17.35893],[78.54295,17.35906],[78.54361,17.35926],[78.5439,17.35971],[78.54413,17.3601],[78.54424,17.36028],[78.54437,17.36043],[78.54447,17.36064],[78.54484,17.3612],[78.54489,17.36128],[78.54501,17.36208],[78.54512,17.3628],[78.54523,17.36348],[78.54526,17.36366],[78.54537,17.3637],[78.54573,17.36384],[78.54599,17.36394],[78.54632,17.36385],[78.54662,17.36376],[78.54751,17.36352],[78.54764,17.36348],[78.54796,17.3633],[78.54864,17.3629],[78.54872,17.36285],[78.54938,17.36247],[78.54972,17.36235],[78.54996,17.36226],[78.55026,17.36215],[78.55039,17.3621],[78.55066,17.36238],[78.55123,17.36294],[78.55131,17.36302],[78.55131,17.36325],[78.55131,17.36364],[78.55131,17.364],[78.55131,17.36445],[78.55131,17.36498],[78.55131,17.36544],[78.55131,17.3655],[78.55131,17.36619]]]}}]}
