{"type":"FeatureCollection","name":"mumbai_boundary","features":[{"type":"Feature","properties":{"canonical_city_id":"mumbai","scope_type":"district_union","source_districts":["Mumbai","Mumbai Suburban"],"source_shape_ids":["76128533B16442413169750","76128533B67326016655833"],"source":"geoBoundaries gbOpen India ADM2","source_revision":"9469f09","boundary_year":"2021","license":"ODbL 1.0"},"geometry":{"type":"MultiPolygon","coordinates":[[[[72.82799,18.90191],[72.82794,18.90194],[72.82787,18.90204],[72.82783,18.90219],[72.8278,18.90249],[72.82784,18.90275],[72.82794,18.90297],[72.82809,18.90314],[72.82821,18.90325],[72.82833,18.90329],[72.82844,18.9033],[72.82859,18.90331],[72.8287,18.90332],[72.82886,18.90336],[72.82893,18.90335],[72.82897,18.90332],[72.82898,18.90324],[72.82896,18.9031],[72.82882,18.90268],[72.82878,18.90248],[72.82874,18.90236],[72.82866,18.90226],[72.82849,18.90212],[72.82831,18.90199],[72.82819,18.90192],[72.82809,18.9019],[72.82799,18.90191]]],[[[72.83647,18.91408],[72.83637,18.91417],[72.83627,18.91435],[72.83619,18.91453],[72.83618,18.91461],[72.83617,18.91472],[72.83619,18.91482],[72.83621,18.91487],[72.83625,18.91492],[72.83633,18.915],[72.83642,18.91507],[72.83652,18.91517],[72.83666,18.91525],[72.83679,18.91527],[72.83691,18.91527],[72.83702,18.91524],[72.83715,18.91517],[72.83723,18.91504],[72.83727,18.91492],[72.83727,18.9148],[72.83723,18.91461],[72.83718,18.91433],[72.83713,18.91422],[72.83706,18.91415],[72.83698,18.91409],[72.83683,18.91406],[72.83671,18.91404],[72.83656,18.91405],[72.83647,18.91408]]],[[[72.84735,18.91842],[72.84724,18.91857],[72.84724,18.9187],[72.8473,18.91885],[72.84739,18.91904],[72.84759,18.91914],[72.84781,18.91912],[72.848,18.91907],[72.84825,18.91885],[72.84839,18.91866],[72.84837,18.91853],[72.84825,18.91842],[72.848,18.91834],[72.84782,18.91831],[72.84765,18.91831],[72.84746,18.91834],[72.84735,18.91842]]],[[[72.85139,18.94752],[72.8513,18.94768],[72.85122,18.94787],[72.85122,18.94808],[72.85125,18.94824],[72.85133,18.94843],[72.85143,18.94856],[72.85156,18.94863],[72.85169,18.94865],[72.85189,18.94864],[72.85204,18.9485],[72.85217,18.94824],[72.85219,18.94803],[72.85215,18.94779],[72.85204,18.94759],[72.85196,18.94746],[72.85184,18.94741],[72.85174,18.9474],[72.85161,18.9474],[72.8515,18.94743],[72.85139,18.94752]]],[[[72.88179,19.00623],[72.87981,19.00645],[72.87479,19.00593],[72.87144,19.0054],[72.86754,19.00356],[72.86644,19.00264],[72.86503,19.00145],[72.86419,18.99908],[72.86363,18.99565],[72.86028,18.99117],[72.86083,18.9888],[72.86195,18.9859],[72.86158,18.98173],[72.86169,18.98141],[72.86111,18.97932],[72.85832,18.97747],[72.85664,18.97431],[72.85092,18.95831],[72.85053,18.9572],[72.85039,18.95682],[72.85018,18.95625],[72.85,18.95575],[72.84938,18.95402],[72.84462,18.93663],[72.84399,18.93534],[72.8438,18.9337],[72.84437,18.93068],[72.84456,18.92892],[72.84268,18.9285],[72.84226,18.92965],[72.84207,18.9305],[72.84207,18.93116],[72.84213,18.93213],[72.84175,18.93261],[72.84111,18.93261],[72.84105,18.93219],[72.84105,18.93158],[72.84098,18.9311],[72.8406,18.93044],[72.84034,18.92977],[72.8383,18.92856],[72.83817,18.92795],[72.83817,18.92759],[72.83868,18.92741],[72.83958,18.92783],[72.84028,18.92783],[72.84092,18.92741],[72.84079,18.92668],[72.8399,18.92632],[72.83932,18.92584],[72.83907,18.92559],[72.83907,18.92493],[72.8397,18.92493],[72.8399,18.92535],[72.84124,18.92547],[72.84124,18.92499],[72.84015,18.92396],[72.83951,18.92384],[72.8397,18.92287],[72.84034,18.9219],[72.84066,18.92208],[72.84303,18.92481],[72.84361,18.92535],[72.84418,18.9262],[72.84456,18.92638],[72.84514,18.92613],[72.84505,18.92417],[72.84467,18.92465],[72.84404,18.92442],[72.84084,18.92104],[72.84036,18.9204],[72.83951,18.92015],[72.83893,18.9201],[72.83806,18.92033],[72.83777,18.92054],[72.83668,18.9217],[72.83585,18.92263],[72.83554,18.92288],[72.83545,18.92281],[72.83524,18.92264],[72.83509,18.92252],[72.83512,18.92244],[72.83517,18.9223],[72.83511,18.92204],[72.83513,18.92188],[72.83487,18.92172],[72.8344,18.92154],[72.8339,18.92152],[72.83366,18.92129],[72.83259,18.91889],[72.83242,18.91834],[72.83279,18.91832],[72.83303,18.9182],[72.833,18.9179],[72.83225,18.91788],[72.83218,18.91731],[72.83191,18.91717],[72.83155,18.91701],[72.83119,18.91662],[72.83022,18.91603],[72.83037,18.91585],[72.83054,18.91559],[72.8308,18.91546],[72.83124,18.91543],[72.83143,18.91521],[72.83155,18.91502],[72.83138,18.91475],[72.83114,18.91454],[72.83095,18.91429],[72.83088,18.91409],[72.83049,18.91349],[72.82967,18.91278],[72.82867,18.91207],[72.82795,18.9115],[72.82768,18.91127],[72.82737,18.91095],[72.82727,18.91065],[72.82727,18.91027],[72.82688,18.90956],[72.82567,18.90761],[72.82536,18.9075],[72.82495,18.90759],[72.82412,18.90825],[72.82291,18.90967],[72.82245,18.91017],[72.82216,18.91031],[72.82197,18.91026],[72.82182,18.91015],[72.82151,18.90987],[72.82091,18.90951],[72.82064,18.9093],[72.82054,18.9091],[72.82054,18.90889],[72.82071,18.90871],[72.82081,18.90839],[72.82081,18.90814],[72.8204,18.90768],[72.81984,18.90713],[72.81953,18.90718],[72.81919,18.90736],[72.81914,18.90731],[72.81907,18.90715],[72.81897,18.90697],[72.8189,18.90676],[72.81887,18.90651],[72.8189,18.90605],[72.8187,18.90569],[72.81868,18.90539],[72.81867,18.90529],[72.81867,18.90521],[72.81863,18.90441],[72.81846,18.90423],[72.81829,18.90354],[72.81822,18.90317],[72.8182,18.90279],[72.8182,18.90242],[72.81849,18.90242],[72.81867,18.90243],[72.81867,18.90234],[72.81867,18.90227],[72.81867,18.90218],[72.81867,18.90208],[72.81856,18.90203],[72.81812,18.90203],[72.81778,18.90189],[72.81774,18.90167],[72.81778,18.90116],[72.81781,18.90082],[72.81759,18.90045],[72.81711,18.89988],[72.81686,18.89947],[72.81679,18.89924],[72.81701,18.89913],[72.81725,18.89906],[72.81734,18.89901],[72.81731,18.89893],[72.81725,18.8988],[72.81722,18.89874],[72.81689,18.89874],[72.81667,18.89878],[72.81636,18.89881],[72.81573,18.89819],[72.81534,18.89775],[72.81505,18.89714],[72.8143,18.89611],[72.81398,18.8957],[72.81391,18.89519],[72.81394,18.89471],[72.81391,18.89419],[72.81355,18.89394],[72.8129,18.89387],[72.81268,18.89364],[72.81239,18.89341],[72.81229,18.89311],[72.81207,18.89272],[72.81161,18.89206],[72.81081,18.8914],[72.81026,18.89085],[72.80975,18.89078],[72.8098,18.89108],[72.81004,18.89158],[72.81035,18.89204],[72.81035,18.89236],[72.81028,18.89243],[72.80994,18.89211],[72.8096,18.89165],[72.80941,18.89131],[72.80912,18.89096],[72.80883,18.89076],[72.80844,18.8908],[72.80808,18.89069],[72.80789,18.89053],[72.80743,18.89012],[72.80629,18.88842],[72.80581,18.88783],[72.80506,18.88719],[72.80472,18.88684],[72.80455,18.88694],[72.8046,18.88716],[72.80474,18.88742],[72.80491,18.88774],[72.80542,18.88835],[72.80576,18.88943],[72.80583,18.88995],[72.80607,18.89027],[72.80614,18.89075],[72.8067,18.89124],[72.80711,18.89162],[72.80719,18.89185],[72.80716,18.89222],[72.80733,18.89268],[72.80822,18.89325],[72.80844,18.89366],[72.80847,18.89389],[72.80815,18.89387],[72.80784,18.89375],[72.80748,18.89384],[72.80767,18.89414],[72.80716,18.89441],[72.80704,18.89553],[72.80593,18.89688],[72.80477,18.89873],[72.80372,18.90159],[72.80359,18.90267],[72.80297,18.90407],[72.79381,18.93602],[72.79287,18.93931],[72.79217,18.94039],[72.79294,18.94204],[72.79319,18.94267],[72.79319,18.94362],[72.79205,18.94565],[72.79167,18.94667],[72.79167,18.94876],[72.79211,18.95022],[72.79344,18.95263],[72.7949,18.95454],[72.79704,18.95698],[72.79763,18.95765],[72.7989,18.95847],[72.79934,18.95923],[72.79947,18.96031],[72.79947,18.96126],[72.80004,18.96203],[72.80099,18.96361],[72.80151,18.9648],[72.8022,18.96558],[72.80283,18.96628],[72.80277,18.96748],[72.8022,18.96843],[72.80169,18.96894],[72.8015,18.96983],[72.80201,18.9711],[72.80258,18.97224],[72.80316,18.97211],[72.80511,18.9753],[72.80554,18.97559],[72.80611,18.97573],[72.80635,18.97621],[72.8062,18.97687],[72.80597,18.97721],[72.80583,18.97768],[72.80578,18.97782],[72.81087,18.98839],[72.81091,18.98847],[72.81158,18.98953],[72.81215,18.99025],[72.81251,18.99184],[72.81225,18.99477],[72.81196,18.99634],[72.81153,18.9971],[72.81106,18.99834],[72.81087,18.99967],[72.81134,19.00205],[72.81225,19.00376],[72.81306,19.00528],[72.81363,19.00724],[72.81163,19.01435],[72.8117,19.01657],[72.8125,19.01949],[72.81368,19.02431],[72.81395,19.02538],[72.81374,19.02631],[72.81341,19.02788],[72.81365,19.02879],[72.81582,19.03545],[72.81725,19.03934],[72.81708,19.04143],[72.81758,19.04369],[72.81839,19.04545],[72.82039,19.04911],[72.8211,19.05054],[72.82148,19.0524],[72.82215,19.05402],[72.82319,19.05463],[72.82381,19.05511],[72.824,19.05573],[72.82353,19.05668],[72.82267,19.05758],[72.8221,19.05791],[72.82162,19.0582],[72.82068,19.05899],[72.8212,19.06015],[72.82181,19.06158],[72.82227,19.06268],[72.82267,19.06396],[72.82302,19.06478],[72.82301,19.06483],[72.82299,19.06584],[72.82267,19.06691],[72.82243,19.06772],[72.82235,19.06853],[72.82234,19.06858],[72.82253,19.06929],[72.82234,19.07048],[72.822,19.07105],[72.82167,19.07229],[72.82167,19.07338],[72.82177,19.07443],[72.82186,19.07514],[72.82148,19.07667],[72.82157,19.07686],[72.82177,19.07729],[72.82253,19.07838],[72.82405,19.07952],[72.82444,19.08018],[72.82463,19.08054],[72.825,19.08186],[72.8251,19.08328],[72.82524,19.08438],[72.82562,19.08533],[72.82625,19.08812],[72.82672,19.09309],[72.82605,19.09732],[72.82519,19.09956],[72.82415,19.10422],[72.8226,19.11092],[72.82129,19.11485],[72.81986,19.11859],[72.81894,19.12055],[72.81821,19.12211],[72.81786,19.12283],[72.8159,19.12581],[72.81533,19.12668],[72.81381,19.12899],[72.81193,19.13179],[72.81096,19.1332],[72.80882,19.13568],[72.80733,19.13704],[72.80674,19.13757],[72.80582,19.13839],[72.80498,19.13918],[72.80412,19.14009],[72.80363,19.14044],[72.80297,19.1412],[72.80283,19.14206],[72.80302,19.14282],[72.80306,19.14348],[72.80249,19.14424],[72.80181,19.14441],[72.79959,19.14315],[72.7965,19.14167],[72.79613,19.14127],[72.79535,19.14106],[72.79469,19.14115],[72.79431,19.14087],[72.79445,19.14048],[72.79502,19.13977],[72.79569,19.1392],[72.79593,19.13844],[72.79593,19.13763],[72.79583,19.13687],[72.79616,19.13606],[72.7964,19.13525],[72.7964,19.13454],[72.7964,19.13373],[72.79607,19.13311],[72.79545,19.13273],[72.79521,19.13225],[72.79497,19.13154],[72.79459,19.13101],[72.7935,19.13063],[72.79312,19.1304],[72.79221,19.13006],[72.79155,19.1304],[72.79131,19.13092],[72.79036,19.13116],[72.7895,19.13106],[72.78917,19.13016],[72.7886,19.12954],[72.78822,19.12963],[72.78764,19.12963],[72.78741,19.1293],[72.78707,19.12897],[72.78674,19.1293],[72.78679,19.12973],[72.78703,19.13044],[72.78731,19.13059],[72.78784,19.13063],[72.78836,19.13087],[72.7885,19.13121],[72.78836,19.13173],[72.78822,19.13201],[72.78774,19.13239],[72.78698,19.13235],[72.78665,19.13244],[72.78684,19.13282],[72.78731,19.13301],[72.78769,19.1333],[72.78798,19.13363],[72.78798,19.13444],[72.78812,19.13501],[72.78826,19.13549],[72.78836,19.13606],[72.78836,19.13658],[72.78836,19.1373],[72.78836,19.13825],[72.78845,19.1392],[72.78793,19.14006],[72.78793,19.14048],[72.78793,19.14134],[72.78792,19.14141],[72.78788,19.14201],[72.78769,19.14248],[72.78769,19.14315],[72.78817,19.14367],[72.78855,19.14439],[72.78868,19.14472],[72.78912,19.14586],[72.78903,19.14824],[72.7885,19.15015],[72.78693,19.15248],[72.78579,19.15381],[72.78469,19.15433],[72.78422,19.15476],[72.78427,19.15576],[72.78417,19.1569],[72.78384,19.15752],[72.78308,19.15809],[72.78251,19.15805],[72.78222,19.15776],[72.78151,19.1579],[72.78155,19.15843],[72.78193,19.159],[72.78227,19.15928],[72.78312,19.15962],[72.78408,19.16028],[72.78393,19.16114],[72.7835,19.16219],[72.78274,19.16314],[72.78193,19.16371],[72.78103,19.16423],[72.78074,19.16476],[72.78084,19.16566],[72.78122,19.16661],[72.78155,19.16747],[72.78227,19.16771],[72.78336,19.16766],[72.7845,19.16694],[72.78493,19.16647],[72.78607,19.16647],[72.78674,19.16718],[72.78788,19.16832],[72.78888,19.16942],[72.79002,19.17004],[72.79107,19.17099],[72.79169,19.17147],[72.79255,19.17156],[72.79421,19.17151],[72.79422,19.17182],[72.79426,19.17299],[72.79597,19.18103],[72.79613,19.18533],[72.79621,19.18707],[72.79578,19.18855],[72.79564,19.19017],[72.79559,19.19193],[72.79621,19.19359],[72.79635,19.19516],[72.79659,19.1964],[72.79605,19.19648],[72.79619,19.19743],[72.79645,19.19776],[72.79688,19.1983],[72.79628,19.19796],[72.79366,19.19695],[72.79357,19.1968],[72.79309,19.19645],[72.79293,19.19597],[72.79226,19.19493],[72.79188,19.19421],[72.7914,19.19359],[72.79045,19.19317],[72.78969,19.19307],[72.78903,19.19336],[72.78845,19.19364],[72.78755,19.19417],[72.78674,19.19398],[72.78631,19.19355],[72.78588,19.19321],[72.78493,19.19326],[72.78436,19.19302],[72.7837,19.19317],[72.78327,19.19393],[72.7827,19.1934],[72.78203,19.19359],[72.78193,19.19431],[72.78155,19.19526],[72.78198,19.19621],[72.78227,19.19702],[72.78236,19.19764],[72.78222,19.19864],[72.78255,19.19959],[72.78293,19.20035],[72.78341,19.20069],[72.78427,19.20049],[72.7856,19.20102],[72.78584,19.20207],[72.78588,19.20302],[72.78579,19.20387],[72.78531,19.20468],[72.78484,19.2054],[72.78441,19.20582],[72.78355,19.2063],[72.78255,19.20654],[72.78208,19.20682],[72.78127,19.20668],[72.78093,19.20649],[72.78017,19.20621],[72.77998,19.20668],[72.77998,19.20744],[72.78022,19.20897],[72.78079,19.21073],[72.78141,19.21211],[72.7816,19.21411],[72.78151,19.21553],[72.78098,19.21701],[72.78013,19.21786],[72.77951,19.21834],[72.77903,19.2191],[72.77875,19.21958],[72.77827,19.2201],[72.77765,19.22067],[72.77751,19.2211],[72.77684,19.22158],[72.77641,19.22224],[72.77622,19.22305],[72.77589,19.22391],[72.77599,19.22453],[72.77618,19.22548],[72.7766,19.22619],[72.77737,19.22662],[72.77813,19.22729],[72.77903,19.22814],[72.7794,19.22917],[72.77958,19.22953],[72.77991,19.22986],[72.78051,19.23067],[72.7807,19.23119],[72.78055,19.23186],[72.78019,19.23327],[72.78003,19.23466],[72.7797,19.23557],[72.77946,19.23642],[72.77894,19.23671],[72.77894,19.23742],[72.77936,19.23809],[72.77953,19.23826],[72.77998,19.23871],[72.78041,19.23933],[72.78093,19.24037],[72.78079,19.24133],[72.7807,19.24185],[72.78065,19.2428],[72.78108,19.24409],[72.78203,19.24756],[72.7827,19.25061],[72.78265,19.25275],[72.78236,19.25537],[72.78184,19.25694],[72.78146,19.25774],[72.78155,19.25841],[72.78146,19.25903],[72.78127,19.25941],[72.78117,19.25974],[72.78165,19.25998],[72.78208,19.25998],[72.78241,19.26008],[72.78303,19.26031],[72.78384,19.26155],[72.78425,19.26233],[72.78465,19.26307],[72.78457,19.26328],[72.78479,19.2632],[72.78575,19.26287],[72.78602,19.26277],[72.79071,19.26113],[72.79079,19.2611],[72.79131,19.26092],[72.7918,19.26075],[72.79348,19.26063],[72.79653,19.2604],[72.79706,19.26036],[72.79954,19.26107],[72.79984,19.26116],[72.79996,19.26119],[72.80153,19.26163],[72.80173,19.26146],[72.80205,19.26117],[72.80287,19.26047],[72.80314,19.26024],[72.80384,19.25963],[72.80679,19.25707],[72.80779,19.25622],[72.81067,19.25371],[72.81502,19.24994],[72.81592,19.24915],[72.81596,19.24912],[72.8194,19.24615],[72.82009,19.24607],[72.82098,19.24598],[72.82108,19.24597],[72.82311,19.24571],[72.82325,19.24569],[72.82598,19.24535],[72.82771,19.24565],[72.82804,19.24571],[72.83028,19.24611],[72.83297,19.24766],[72.8331,19.24775],[72.83324,19.24784],[72.83645,19.24996],[72.8382,19.25352],[72.83843,19.25611],[72.83844,19.25623],[72.83865,19.25816],[72.83883,19.26],[72.83928,19.26453],[72.84195,19.26592],[72.84295,19.26652],[72.84428,19.26681],[72.84502,19.26712],[72.84598,19.2674],[72.8467,19.26738],[72.84676,19.26738],[72.84778,19.26748],[72.84857,19.2677],[72.84945,19.26801],[72.85057,19.26834],[72.85113,19.26845],[72.85145,19.2685],[72.85148,19.2685],[72.85233,19.26866],[72.85464,19.269],[72.85655,19.26927],[72.85725,19.26932],[72.85822,19.26918],[72.86003,19.26842],[72.86229,19.26771],[72.8644,19.26727],[72.86633,19.26654],[72.86661,19.26629],[72.86721,19.26607],[72.86751,19.26593],[72.86762,19.26589],[72.86796,19.26568],[72.86831,19.26556],[72.86864,19.26531],[72.86869,19.26521],[72.86882,19.26517],[72.86901,19.26515],[72.86938,19.26496],[72.86953,19.26467],[72.86963,19.26454],[72.86994,19.26434],[72.87039,19.26395],[72.87098,19.26349],[72.87125,19.26331],[72.87312,19.26182],[72.87325,19.26174],[72.87334,19.26165],[72.87342,19.26159],[72.87507,19.26056],[72.87558,19.26003],[72.87568,19.25989],[72.87596,19.25977],[72.87638,19.25956],[72.87686,19.25904],[72.87769,19.2588],[72.87892,19.25871],[72.88056,19.25811],[72.88223,19.25728],[72.88337,19.25658],[72.88405,19.25604],[72.88539,19.2549],[72.88689,19.25371],[72.88915,19.25212],[72.88968,19.25183],[72.9088,19.24743],[72.90795,19.24255],[72.91197,19.23592],[72.91261,19.23487],[72.91329,19.23404],[72.92011,19.22569],[72.92151,19.22397],[72.92301,19.22213],[72.92865,19.21392],[72.93688,19.20702],[72.93844,19.20572],[72.93849,19.19585],[72.93851,19.1904],[72.94062,19.1898],[72.94183,19.18946],[72.94284,19.18917],[72.94402,19.18884],[72.94458,19.18868],[72.94592,19.1883],[72.94876,19.1875],[72.94952,19.18729],[72.95213,19.18615],[72.95311,19.18573],[72.9532,19.18569],[72.95508,19.18491],[72.95521,19.18484],[72.95599,19.18449],[72.95707,19.18402],[72.95801,19.18379],[72.95837,19.1837],[72.96127,19.18298],[72.96243,19.18268],[72.96292,19.18256],[72.96341,19.18244],[72.96437,19.1822],[72.96448,19.18217],[72.9647,19.18212],[72.96498,19.18195],[72.96506,19.1819],[72.96565,19.18154],[72.96604,19.18124],[72.96611,19.18122],[72.96617,19.18118],[72.96623,19.18114],[72.96629,19.1811],[72.9666,19.18093],[72.96669,19.18088],[72.96746,19.18042],[72.96788,19.18017],[72.96859,19.17973],[72.96933,19.17927],[72.96952,19.17915],[72.96982,19.17897],[72.97,19.17886],[72.97105,19.17821],[72.97159,19.17788],[72.97199,19.17763],[72.97231,19.17743],[72.9726,19.17691],[72.97295,19.1763],[72.97331,19.17567],[72.97353,19.17528],[72.97392,19.1746],[72.97417,19.17416],[72.97449,19.1736],[72.9748,19.17305],[72.97522,19.17231],[72.97571,19.17145],[72.97578,19.17133],[72.97612,19.17072],[72.97671,19.16967],[72.97688,19.16936],[72.97994,19.16396],[72.97997,19.16366],[72.98008,19.16271],[72.98211,19.15911],[72.98213,19.15907],[72.98221,19.15906],[72.98275,19.15899],[72.983,19.15855],[72.9836,19.15749],[72.98404,19.1567],[72.98415,19.15567],[72.98453,19.152],[72.98428,19.15015],[72.98426,19.15003],[72.98423,19.14974],[72.98414,19.14904],[72.984,19.14798],[72.98374,19.14605],[72.98368,19.14556],[72.98234,19.14041],[72.98163,19.1377],[72.98113,19.13577],[72.98078,19.13443],[72.98062,19.13409],[72.97532,19.12281],[72.97431,19.1207],[72.97148,19.11243],[72.96938,19.09734],[72.96894,19.09424],[72.97057,19.08212],[72.9699,19.07541],[72.97148,19.0675],[72.97265,19.06251],[72.97269,19.06231],[72.97272,19.06218],[72.97275,19.06208],[72.97299,19.06104],[72.97316,19.06032],[72.97347,19.0597],[72.97277,19.05954],[72.9687,19.05841],[72.96202,19.05572],[72.96242,19.05257],[72.96219,19.04743],[72.96173,19.0435],[72.96077,19.03842],[72.95931,19.03417],[72.95604,19.02916],[72.95201,19.02461],[72.9489,19.02191],[72.94097,19.01639],[72.93316,19.01088],[72.9255,19.00529],[72.9236,19.00346],[72.92222,19.00152],[72.92236,19.0012],[72.92259,19.0006],[72.92277,19.00009],[72.92294,18.99965],[72.92303,18.99932],[72.92308,18.99898],[72.9231,18.99875],[72.92305,18.99869],[72.92294,18.99867],[72.9227,18.99861],[72.92256,18.99855],[72.9224,18.99847],[72.92231,18.99846],[72.92222,18.9985],[72.92216,18.99861],[72.92209,18.99878],[72.92192,18.99909],[72.9218,18.9993],[72.92171,18.99961],[72.92158,18.99993],[72.92155,19.00001],[72.9214,19.00038],[72.92106,19.00063],[72.91959,19.00022],[72.91851,18.99965],[72.91673,18.99914],[72.91417,18.99576],[72.91353,18.99537],[72.91316,18.99472],[72.91129,18.99142],[72.91046,18.99063],[72.90906,18.99063],[72.90572,18.99063],[72.90599,18.98947],[72.90596,18.98929],[72.90579,18.98921],[72.90552,18.98917],[72.90542,18.98922],[72.90487,18.99037],[72.90453,18.99114],[72.90377,18.99195],[72.90237,18.99326],[72.89931,18.99432],[72.89597,18.99538],[72.89234,18.9959],[72.88955,18.99617],[72.88732,18.99696],[72.8851,18.99881],[72.88426,19.00118],[72.88416,19.00173],[72.88371,19.00408],[72.88204,19.00619],[72.88179,19.00623]]],[[[72.78113,19.13297],[72.78086,19.13316],[72.78044,19.13346],[72.78014,19.13374],[72.77986,19.13403],[72.77975,19.13417],[72.77962,19.13438],[72.77956,19.13453],[72.77954,19.13469],[72.77955,19.13482],[72.77964,19.13498],[72.77996,19.13532],[72.78004,19.13545],[72.7801,19.1356],[72.78016,19.13586],[72.78028,19.13604],[72.78045,19.13619],[72.78075,19.13629],[72.78099,19.13634],[72.78119,19.13632],[72.78135,19.13627],[72.78163,19.13599],[72.78214,19.1354],[72.78231,19.13514],[72.78241,19.13482],[72.78247,19.13437],[72.78245,19.13416],[72.78239,19.13395],[72.78232,19.13381],[72.78218,19.13365],[72.78199,19.13349],[72.7819,19.13337],[72.78178,19.1331],[72.78168,19.13298],[72.78153,19.13292],[72.78138,19.13289],[72.78125,19.1329],[72.78113,19.13297]]]]}}]}
