{"type":"FeatureCollection","name":"pune_boundary","features":[{"type":"Feature","properties":{"canonical_city_id":"pune","scope_type":"district","source_districts":["Pune"],"source_shape_ids":["76128533B71380851181380"],"source":"geoBoundaries gbOpen India ADM2","source_revision":"9469f09","boundary_year":"2021","license":"ODbL 1.0"},"geometry":{"type":"Polygon","coordinates":[[[73.78273,19.38664],[73.7832,19.3855],[73.78449,19.38238],[73.7858,19.3792],[73.78626,19.3781],[73.78674,19.37695],[73.79012,19.36879],[73.79034,19.36825],[73.79157,19.36528],[73.79186,19.36438],[73.79308,19.36051],[73.79345,19.35935],[73.79409,19.35733],[73.79526,19.35361],[73.79669,19.3491],[73.79816,19.34163],[73.79823,19.34128],[73.79825,19.34117],[73.79836,19.34063],[73.79843,19.34026],[73.7985,19.3399],[73.79855,19.33966],[73.79863,19.33925],[73.79871,19.33886],[73.79896,19.33758],[73.79911,19.33682],[73.79859,19.33414],[73.79805,19.33137],[73.79545,19.33092],[73.79377,19.33436],[73.79274,19.33494],[73.7912,19.3358],[73.79016,19.33638],[73.78889,19.33629],[73.78859,19.33627],[73.78665,19.3349],[73.78505,19.3357],[73.78395,19.33625],[73.78276,19.33685],[73.77938,19.33853],[73.77592,19.34026],[73.77589,19.33956],[73.77586,19.33892],[73.77561,19.33273],[73.77559,19.33202],[73.77555,19.33116],[73.77557,19.33062],[73.77362,19.33037],[73.77331,19.33033],[73.77173,19.33013],[73.77093,19.33003],[73.7636,19.32908],[73.7635,19.32907],[73.76118,19.32877],[73.76003,19.32862],[73.7546,19.32792],[73.75355,19.32794],[73.75172,19.32799],[73.74946,19.32805],[73.75117,19.33172],[73.75157,19.33218],[73.75179,19.33243],[73.75385,19.33481],[73.74757,19.33351],[73.74478,19.33293],[73.74074,19.33209],[73.73464,19.33083],[73.73257,19.3304],[73.73142,19.33016],[73.73091,19.33005],[73.73016,19.3299],[73.72854,19.32956],[73.72693,19.32923],[73.72095,19.32799],[73.71714,19.3272],[73.71572,19.32661],[73.70951,19.32406],[73.70856,19.32312],[73.70218,19.31685],[73.69222,19.31308],[73.68832,19.3116],[73.68734,19.31023],[73.68644,19.30897],[73.684,19.30558],[73.68302,19.30533],[73.68223,19.30513],[73.68106,19.30484],[73.68015,19.30461],[73.67693,19.3038],[73.675,19.30331],[73.67311,19.30113],[73.67159,19.29712],[73.67121,19.29328],[73.67276,19.28886],[73.67644,19.28486],[73.67709,19.28415],[73.68049,19.28046],[73.68148,19.27938],[73.68437,19.27531],[73.68478,19.27473],[73.69183,19.2703],[73.69532,19.26093],[73.6963,19.2583],[73.69721,19.25744],[73.69681,19.25637],[73.69421,19.24936],[73.69333,19.24791],[73.69154,19.24495],[73.68797,19.24249],[73.68119,19.23998],[73.67515,19.23959],[73.67102,19.24013],[73.67019,19.24024],[73.66943,19.24034],[73.66661,19.24071],[73.66629,19.24076],[73.66616,19.24071],[73.66362,19.23978],[73.65652,19.23114],[73.65468,19.22775],[73.65453,19.22748],[73.65409,19.22667],[73.65121,19.22236],[73.65006,19.22064],[73.64972,19.22013],[73.6484,19.2191],[73.64731,19.21824],[73.64602,19.21723],[73.64554,19.21686],[73.64339,19.21519],[73.64313,19.21498],[73.64225,19.2143],[73.63742,19.21052],[73.63698,19.20946],[73.63517,19.20508],[73.63425,19.20284],[73.63236,19.20258],[73.63129,19.20244],[73.62788,19.21054],[73.62444,19.20955],[73.61532,19.20694],[73.61405,19.20282],[73.61283,19.19886],[73.61124,19.19369],[73.61098,19.19283],[73.61012,19.19003],[73.60763,19.1905],[73.60717,19.19059],[73.6057,19.19086],[73.60494,19.19101],[73.60482,19.19109],[73.60458,19.19108],[73.60422,19.19114],[73.60337,19.1913],[73.6023,19.1915],[73.60075,19.1918],[73.59848,19.19222],[73.59763,19.18811],[73.59762,19.18805],[73.59736,19.18807],[73.59546,19.18821],[73.59135,19.18851],[73.58602,19.18891],[73.5825,19.18917],[73.57958,19.18939],[73.5783,19.18949],[73.5748,19.18974],[73.57473,19.18975],[73.57174,19.18997],[73.56889,19.18882],[73.56804,19.18415],[73.56779,19.18274],[73.5675,19.1829],[73.56681,19.18326],[73.56665,19.18335],[73.56506,19.1842],[73.56442,19.18455],[73.56393,19.18481],[73.56151,19.1842],[73.56055,19.18395],[73.55957,19.1837],[73.55892,19.18353],[73.55629,19.18291],[73.55547,19.18265],[73.55434,19.18319],[73.54926,19.18563],[73.54557,19.18363],[73.54562,19.18167],[73.54563,19.18116],[73.54568,19.17947],[73.54578,19.17526],[73.54325,19.17532],[73.54117,19.1768],[73.54098,19.17693],[73.54042,19.17733],[73.54043,19.17723],[73.54053,19.17625],[73.54072,19.17435],[73.53969,19.17498],[73.54166,19.1689],[73.54169,19.16621],[73.54176,19.16053],[73.5385,19.16064],[73.53826,19.16056],[73.53511,19.15939],[73.53413,19.15623],[73.5343,19.15107],[73.536,19.14838],[73.53814,19.14499],[73.5398,19.14424],[73.54043,19.14395],[73.54376,19.14515],[73.54531,19.14393],[73.54616,19.14326],[73.54676,19.13976],[73.54436,19.13265],[73.54398,19.13154],[73.54255,19.12731],[73.54223,19.12354],[73.54198,19.12337],[73.54072,19.1225],[73.53556,19.12853],[73.5326,19.13025],[73.52849,19.12986],[73.52952,19.12762],[73.52876,19.12636],[73.52834,19.12567],[73.52762,19.12447],[73.52551,19.12097],[73.52662,19.11863],[73.52767,19.11644],[73.52509,19.11404],[73.52428,19.11328],[73.52125,19.1122],[73.51999,19.10899],[73.5228,19.10497],[73.52277,19.10455],[73.52255,19.10193],[73.52137,19.1013],[73.52081,19.101],[73.51572,19.09827],[73.51354,19.09472],[73.5139,19.0915],[73.51839,19.08501],[73.52515,19.08484],[73.53047,19.08621],[73.52875,19.08274],[73.52821,19.08165],[73.52814,19.08152],[73.52793,19.08109],[73.52646,19.07813],[73.5251,19.07084],[73.52511,19.07007],[73.52515,19.06654],[73.52553,19.06556],[73.52646,19.06321],[73.52776,19.0599],[73.52783,19.05973],[73.52892,19.05696],[73.52555,19.05909],[73.52501,19.05911],[73.52261,19.05919],[73.52036,19.05927],[73.5208,19.05626],[73.52107,19.05439],[73.51924,19.04974],[73.52113,19.04966],[73.52337,19.04957],[73.52797,19.04939],[73.52834,19.04938],[73.53239,19.04921],[73.53302,19.04933],[73.53599,19.04988],[73.53816,19.05028],[73.53911,19.05046],[73.54156,19.05091],[73.54343,19.05126],[73.54397,19.0488],[73.53894,19.04146],[73.53693,19.03286],[73.54057,19.03323],[73.54138,19.03331],[73.54716,19.02734],[73.54635,19.02486],[73.54545,19.02212],[73.54791,19.01869],[73.5487,19.01853],[73.54901,19.01847],[73.55284,19.01773],[73.55745,19.01683],[73.55827,19.01667],[73.55519,19.01214],[73.54777,19.00614],[73.54743,19.00574],[73.54659,19.00476],[73.54646,19.00461],[73.54591,19.00397],[73.54369,19.00137],[73.54328,19.00053],[73.54242,18.99878],[73.54147,18.99684],[73.5388,18.9971],[73.53689,18.99729],[73.53615,18.99444],[73.53548,18.99188],[73.5334,18.98904],[73.52954,18.98717],[73.52788,18.98637],[73.52557,18.98427],[73.52447,18.98326],[73.52369,18.98255],[73.5235,18.97955],[73.52343,18.97843],[73.52233,18.97694],[73.52116,18.97786],[73.51963,18.97907],[73.51832,18.97787],[73.51809,18.97766],[73.51627,18.976],[73.51327,18.97326],[73.513,18.97302],[73.51458,18.97019],[73.51468,18.97001],[73.5129,18.96838],[73.51146,18.96857],[73.51013,18.96875],[73.50171,18.96987],[73.49685,18.9731],[73.4925,18.976],[73.49115,18.9769],[73.48901,18.97833],[73.48117,18.97961],[73.4797,18.97985],[73.47965,18.97845],[73.4795,18.9745],[73.47983,18.97155],[73.48043,18.96616],[73.47638,18.96716],[73.47332,18.96792],[73.46861,18.96908],[73.46704,18.96833],[73.46565,18.96767],[73.46336,18.96658],[73.46237,18.96473],[73.4625,18.96339],[73.46264,18.96197],[73.46265,18.9618],[73.46267,18.96164],[73.46244,18.96055],[73.46192,18.95801],[73.46163,18.95658],[73.461,18.95354],[73.45805,18.94719],[73.45941,18.94009],[73.45984,18.93788],[73.45955,18.93019],[73.4585,18.92872],[73.45702,18.92665],[73.45254,18.92503],[73.45121,18.92509],[73.44879,18.9252],[73.44223,18.92801],[73.43995,18.92414],[73.43982,18.9215],[73.43808,18.91852],[73.43776,18.91797],[73.43685,18.91753],[73.43497,18.91662],[73.43338,18.91586],[73.43173,18.91506],[73.43421,18.91128],[73.43524,18.9097],[73.43794,18.90559],[73.44058,18.8995],[73.43664,18.89888],[73.43571,18.89873],[73.43776,18.89521],[73.43854,18.89098],[73.43881,18.88956],[73.43889,18.8891],[73.43877,18.88268],[73.43866,18.88241],[73.43502,18.87356],[73.43128,18.86745],[73.42983,18.86508],[73.42875,18.86332],[73.42726,18.86302],[73.42289,18.86216],[73.42152,18.86189],[73.41607,18.86081],[73.4143,18.85929],[73.41396,18.85875],[73.40716,18.84799],[73.40409,18.84313],[73.39358,18.85132],[73.39325,18.85241],[73.38988,18.85275],[73.38816,18.84745],[73.38792,18.84495],[73.38669,18.83193],[73.38559,18.82035],[73.38131,18.81872],[73.37944,18.81801],[73.37888,18.8178],[73.37847,18.81764],[73.37787,18.81741],[73.37901,18.81361],[73.37906,18.81345],[73.37928,18.81273],[73.37936,18.81247],[73.37974,18.81119],[73.37984,18.81087],[73.38024,18.80953],[73.38074,18.80785],[73.38131,18.80596],[73.38217,18.8031],[73.38159,18.80099],[73.37968,18.79406],[73.37687,18.78937],[73.37515,18.78791],[73.37471,18.7884],[73.37276,18.79054],[73.37113,18.79232],[73.3705,18.79302],[73.37045,18.79307],[73.37014,18.79274],[73.3692,18.79174],[73.36826,18.78914],[73.36817,18.78884],[73.36779,18.78785],[73.36756,18.78721],[73.36732,18.78655],[73.3673,18.78621],[73.36733,18.78617],[73.36692,18.78041],[73.36687,18.77954],[73.36671,18.77708],[73.36613,18.77462],[73.36589,18.7736],[73.36537,18.77138],[73.3653,18.77109],[73.36513,18.77036],[73.36459,18.76808],[73.36456,18.76796],[73.36443,18.76739],[73.36437,18.76715],[73.36431,18.7669],[73.36348,18.76338],[73.36331,18.76264],[73.35953,18.75902],[73.35546,18.75345],[73.35699,18.75309],[73.35922,18.75254],[73.35842,18.74691],[73.35499,18.74112],[73.35396,18.73783],[73.35317,18.73169],[73.3534,18.7294],[73.35344,18.72899],[73.35384,18.72505],[73.3532,18.72384],[73.35116,18.72279],[73.34604,18.72016],[73.34553,18.71872],[73.34542,18.71841],[73.34522,18.71784],[73.34514,18.71764],[73.34488,18.7169],[73.34487,18.71688],[73.34486,18.71684],[73.34401,18.71448],[73.34272,18.71088],[73.33811,18.70598],[73.33647,18.70424],[73.3359,18.70394],[73.33533,18.70364],[73.33453,18.70322],[73.33283,18.70234],[73.33332,18.70094],[73.33359,18.70016],[73.3343,18.69812],[73.33491,18.69738],[73.3356,18.69655],[73.3362,18.69634],[73.33735,18.69594],[73.3377,18.69604],[73.33967,18.69664],[73.34033,18.69685],[73.34154,18.69722],[73.34391,18.69634],[73.34683,18.69789],[73.35009,18.69771],[73.35336,18.7036],[73.35393,18.70459],[73.35498,18.70651],[73.35681,18.70751],[73.35921,18.70882],[73.35963,18.70905],[73.36161,18.70919],[73.36275,18.70578],[73.36247,18.70428],[73.36198,18.70171],[73.36194,18.70152],[73.36532,18.70117],[73.3706,18.70341],[73.37153,18.70381],[73.37256,18.70485],[73.37482,18.70714],[73.37637,18.7087],[73.37691,18.70786],[73.37837,18.70556],[73.38482,18.69542],[73.386,18.69357],[73.38611,18.69261],[73.38622,18.69163],[73.38635,18.69056],[73.38639,18.69023],[73.38664,18.68807],[73.38527,18.68439],[73.38541,18.68395],[73.3856,18.68341],[73.38663,18.68042],[73.38731,18.67846],[73.38731,18.67841],[73.38737,18.67573],[73.38746,18.67212],[73.38746,18.67192],[73.38749,18.67065],[73.38751,18.66987],[73.38752,18.66946],[73.38844,18.66598],[73.38875,18.66483],[73.389,18.66387],[73.38941,18.66233],[73.38962,18.65985],[73.39003,18.655],[73.38875,18.65488],[73.38721,18.65473],[73.38561,18.65408],[73.38376,18.65333],[73.38279,18.65293],[73.38027,18.65191],[73.37899,18.64758],[73.37841,18.64563],[73.37792,18.64556],[73.37673,18.6454],[73.37389,18.64499],[73.37293,18.64485],[73.37114,18.6446],[73.36792,18.64176],[73.36233,18.63683],[73.35958,18.63323],[73.35751,18.6305],[73.35716,18.62812],[73.35703,18.62723],[73.35699,18.62697],[73.35667,18.62473],[73.35644,18.62314],[73.35261,18.61534],[73.34685,18.61267],[73.34402,18.61135],[73.34402,18.61131],[73.34444,18.60494],[73.34283,18.60415],[73.34081,18.60316],[73.33674,18.60844],[73.33667,18.60853],[73.33549,18.60742],[73.33563,18.60672],[73.33649,18.60256],[73.33611,18.60021],[73.33336,18.5973],[73.33323,18.59716],[73.33203,18.59589],[73.33219,18.59543],[73.33306,18.59287],[73.33325,18.59231],[73.33341,18.58676],[73.33283,18.5841],[73.33275,18.58371],[73.32949,18.57998],[73.32663,18.57672],[73.32414,18.57261],[73.32336,18.57133],[73.32359,18.56605],[73.32369,18.56383],[73.32461,18.56047],[73.32472,18.56007],[73.32793,18.55453],[73.32875,18.55312],[73.32883,18.55298],[73.33372,18.54876],[73.33607,18.55055],[73.33787,18.55193],[73.3441,18.55322],[73.34666,18.55375],[73.34686,18.55379],[73.3492,18.55427],[73.35082,18.55461],[73.35852,18.55796],[73.35868,18.55764],[73.35945,18.55614],[73.35399,18.55272],[73.35166,18.55175],[73.34956,18.55087],[73.34783,18.55015],[73.34619,18.54878],[73.34571,18.54838],[73.34591,18.54814],[73.34853,18.545],[73.34525,18.54346],[73.34183,18.53996],[73.34219,18.53911],[73.34434,18.534],[73.34466,18.53325],[73.34746,18.53325],[73.35717,18.53324],[73.35803,18.53324],[73.35936,18.53128],[73.3608,18.52917],[73.3651,18.52446],[73.37003,18.51905],[73.37161,18.51731],[73.37789,18.51177],[73.38192,18.50821],[73.38277,18.50746],[73.38503,18.50547],[73.38569,18.50489],[73.3883,18.50315],[73.39253,18.50421],[73.39399,18.50457],[73.39533,18.50379],[73.39417,18.50159],[73.39261,18.50077],[73.38921,18.49899],[73.38912,18.49894],[73.38673,18.49768],[73.38572,18.4966],[73.38484,18.49565],[73.3843,18.49506],[73.38352,18.49493],[73.38281,18.49481],[73.38209,18.49422],[73.37931,18.49194],[73.37952,18.49065],[73.37977,18.48914],[73.38033,18.48577],[73.37902,18.48446],[73.3786,18.48404],[73.37632,18.48175],[73.37574,18.48173],[73.37225,18.48163],[73.37162,18.48161],[73.3697,18.48507],[73.36793,18.48619],[73.36529,18.48574],[73.36322,18.48434],[73.36274,18.48363],[73.36193,18.48242],[73.36199,18.4822],[73.36257,18.48004],[73.36511,18.47063],[73.36549,18.46924],[73.37124,18.46727],[73.37334,18.46754],[73.37462,18.4677],[73.37742,18.46806],[73.37828,18.47009],[73.3777,18.4748],[73.37764,18.47529],[73.37757,18.47584],[73.37753,18.47615],[73.37729,18.47809],[73.37882,18.47949],[73.37892,18.4794],[73.3798,18.4786],[73.38018,18.47825],[73.38311,18.47556],[73.38376,18.47622],[73.3838,18.47626],[73.38493,18.47742],[73.3834,18.47926],[73.38254,18.4803],[73.38245,18.48141],[73.38223,18.48414],[73.38442,18.48549],[73.39087,18.48446],[73.39251,18.4842],[73.39293,18.48552],[73.39418,18.48946],[73.39489,18.49169],[73.39519,18.49168],[73.39892,18.49159],[73.40077,18.49299],[73.40431,18.49947],[73.40704,18.50146],[73.40957,18.50117],[73.41067,18.49977],[73.4108,18.4996],[73.4113,18.49896],[73.41119,18.49875],[73.41086,18.49811],[73.40892,18.49433],[73.40892,18.49424],[73.40881,18.48803],[73.40874,18.48458],[73.40856,18.48353],[73.40832,18.48218],[73.40822,18.48163],[73.40792,18.47993],[73.40778,18.47962],[73.40771,18.47947],[73.40731,18.47865],[73.40683,18.47766],[73.40672,18.47743],[73.40651,18.47697],[73.40584,18.47559],[73.40785,18.468],[73.40556,18.46505],[73.40544,18.46489],[73.40346,18.46233],[73.40114,18.45933],[73.40069,18.45875],[73.39752,18.45466],[73.3974,18.45103],[73.39736,18.44995],[73.39755,18.44894],[73.3983,18.4449],[73.39833,18.44474],[73.39917,18.44018],[73.39892,18.43416],[73.39888,18.43324],[73.39907,18.43268],[73.4006,18.42806],[73.39997,18.41928],[73.40193,18.41495],[73.40172,18.41005],[73.40171,18.40985],[73.40187,18.4086],[73.40204,18.4073],[73.40259,18.40312],[73.40291,18.40064],[73.41043,18.40037],[73.41228,18.4012],[73.41385,18.40348],[73.41568,18.40613],[73.4214,18.40519],[73.42299,18.40339],[73.4244,18.3946],[73.42449,18.39396],[73.42795,18.38886],[73.42846,18.38397],[73.42883,18.3805],[73.42824,18.37683],[73.42897,18.37345],[73.43721,18.36649],[73.44549,18.36078],[73.44425,18.35887],[73.43845,18.35424],[73.43201,18.34525],[73.42895,18.33826],[73.43004,18.33467],[73.42625,18.33135],[73.42315,18.32676],[73.42418,18.3218],[73.425,18.32109],[73.42684,18.31949],[73.42634,18.31707],[73.42252,18.30962],[73.42285,18.3075],[73.42301,18.30741],[73.42516,18.30611],[73.4259,18.3063],[73.4277,18.30677],[73.42796,18.30684],[73.4298,18.30732],[73.43712,18.30923],[73.43944,18.30925],[73.44751,18.30935],[73.4496,18.30667],[73.44969,18.30655],[73.45209,18.30347],[73.45296,18.30236],[73.45337,18.30184],[73.45358,18.30158],[73.45613,18.29831],[73.4592,18.29915],[73.46011,18.2994],[73.46258,18.30008],[73.46613,18.30063],[73.46621,18.30064],[73.46795,18.30091],[73.46864,18.30102],[73.473,18.30169],[73.4742,18.30188],[73.47577,18.30151],[73.47716,18.30118],[73.47786,18.29898],[73.4781,18.29825],[73.47813,18.29815],[73.47834,18.2975],[73.47932,18.29445],[73.47961,18.29129],[73.47976,18.28964],[73.47978,18.28947],[73.4795,18.28616],[73.47949,18.28604],[73.47945,18.28553],[73.47923,18.28293],[73.48139,18.28051],[73.48134,18.27822],[73.4813,18.27572],[73.48123,18.27208],[73.48484,18.27425],[73.48619,18.27507],[73.4884,18.2764],[73.49276,18.27902],[73.49639,18.28033],[73.49653,18.28038],[73.49746,18.28072],[73.50194,18.28233],[73.51045,18.28711],[73.51056,18.28459],[73.50727,18.28192],[73.50669,18.28145],[73.50589,18.28079],[73.50572,18.27937],[73.50546,18.27718],[73.50568,18.27663],[73.50607,18.27565],[73.50667,18.27415],[73.50907,18.27464],[73.51007,18.27484],[73.51252,18.27413],[73.51587,18.27315],[73.51732,18.27272],[73.5134,18.27054],[73.51199,18.26858],[73.50637,18.26074],[73.50629,18.25868],[73.50629,18.2585],[73.50899,18.25763],[73.51034,18.25718],[73.51047,18.25714],[73.51104,18.25695],[73.51366,18.2561],[73.5187,18.25303],[73.51957,18.25008],[73.52049,18.24693],[73.52418,18.24778],[73.52719,18.24847],[73.52833,18.24841],[73.53091,18.24829],[73.53356,18.24817],[73.53787,18.24531],[73.53758,18.24193],[73.53119,18.2358],[73.53108,18.23569],[73.52587,18.23475],[73.52569,18.23427],[73.52518,18.23287],[73.52467,18.23149],[73.52443,18.23086],[73.52438,18.23071],[73.52511,18.23069],[73.52519,18.23069],[73.5307,18.23055],[73.53249,18.2305],[73.53595,18.22849],[73.53617,18.2262],[73.53595,18.22591],[73.53444,18.22392],[73.53317,18.22226],[73.53106,18.21948],[73.53013,18.21826],[73.52457,18.21363],[73.52451,18.21358],[73.52451,18.21351],[73.52454,18.21209],[73.52648,18.21196],[73.52718,18.21191],[73.52908,18.21231],[73.53337,18.21322],[73.53364,18.21327],[73.53479,18.21237],[73.5348,18.21223],[73.53495,18.20997],[73.53483,18.20957],[73.53374,18.20575],[73.53354,18.20507],[73.52909,18.19996],[73.52875,18.19957],[73.52576,18.19613],[73.52443,18.19461],[73.52378,18.19244],[73.5225,18.18816],[73.52445,18.18647],[73.53647,18.18902],[73.5368,18.18905],[73.53711,18.18912],[73.53715,18.18913],[73.53791,18.18932],[73.53969,18.19085],[73.54119,18.1943],[73.54132,18.1984],[73.54139,18.20046],[73.54146,18.20264],[73.5415,18.20371],[73.54187,18.20456],[73.54277,18.20659],[73.54458,18.20554],[73.54835,18.20333],[73.54907,18.20291],[73.55111,18.20113],[73.55128,18.20098],[73.55615,18.19673],[73.5565,18.19764],[73.55681,18.19845],[73.55822,18.20218],[73.5584,18.20266],[73.55908,18.20445],[73.55998,18.20835],[73.56065,18.21119],[73.56114,18.21139],[73.56243,18.2119],[73.56321,18.20788],[73.56388,18.20447],[73.56428,18.20383],[73.56543,18.20203],[73.56577,18.19894],[73.56637,18.19349],[73.56644,18.19287],[73.56645,18.19274],[73.56664,18.19099],[73.56875,18.18869],[73.57135,18.18585],[73.57223,18.18565],[73.57973,18.18398],[73.58269,18.17996],[73.58732,18.17851],[73.59161,18.17717],[73.59533,18.17746],[73.59599,18.17906],[73.5972,18.182],[73.59783,18.18354],[73.59887,18.1861],[73.59906,18.18655],[73.5996,18.18785],[73.59994,18.18869],[73.60035,18.18968],[73.60052,18.1901],[73.60112,18.18969],[73.60379,18.18785],[73.60605,18.18715],[73.60839,18.18643],[73.6111,18.18411],[73.61186,18.18345],[73.61564,18.18243],[73.61747,18.18193],[73.62499,18.17709],[73.62505,18.17705],[73.62926,18.17613],[73.63401,18.17638],[73.63661,18.17603],[73.63675,18.176],[73.63888,18.17571],[73.64269,18.17388],[73.64823,18.17316],[73.65471,18.17326],[73.6584,18.17183],[73.66335,18.16635],[73.66329,18.16319],[73.66808,18.15685],[73.6669,18.15545],[73.66399,18.15614],[73.65817,18.1575],[73.65132,18.15762],[73.65063,18.15566],[73.65186,18.15351],[73.65007,18.15158],[73.64795,18.14929],[73.64567,18.14683],[73.64502,18.14613],[73.64482,18.14591],[73.64472,18.14581],[73.64291,18.14385],[73.64087,18.14302],[73.64018,18.14501],[73.63797,18.14761],[73.63627,18.14684],[73.63593,18.14552],[73.63592,18.14543],[73.63569,18.14364],[73.63458,18.1428],[73.63442,18.14273],[73.63397,18.14151],[73.63342,18.14004],[73.63056,18.13862],[73.63013,18.13716],[73.63038,18.13663],[73.63054,18.13554],[73.62969,18.13565],[73.62941,18.13469],[73.62909,18.13361],[73.62439,18.1299],[73.62139,18.12753],[73.62147,18.12697],[73.62159,18.1261],[73.62788,18.12525],[73.62918,18.12507],[73.62916,18.12473],[73.62908,18.12335],[73.62527,18.12134],[73.62273,18.12159],[73.62118,18.12174],[73.61994,18.12229],[73.61971,18.1224],[73.61562,18.12423],[73.61329,18.12362],[73.61171,18.1225],[73.60841,18.12016],[73.60659,18.11887],[73.60773,18.12191],[73.60821,18.12318],[73.61029,18.12872],[73.61155,18.13207],[73.61325,18.13657],[73.61246,18.14034],[73.60727,18.13882],[73.60929,18.13278],[73.60737,18.12882],[73.60632,18.12665],[73.60578,18.12554],[73.60545,18.12486],[73.60502,18.12398],[73.60306,18.11993],[73.60225,18.11826],[73.60221,18.11822],[73.60215,18.11816],[73.60212,18.11808],[73.6021,18.118],[73.60211,18.11796],[73.59816,18.10981],[73.59802,18.10716],[73.61031,18.09745],[73.60964,18.09528],[73.60945,18.09469],[73.60849,18.09158],[73.60343,18.0856],[73.60945,18.0833],[73.60971,18.0832],[73.61798,18.08004],[73.61834,18.07991],[73.62101,18.07889],[73.61813,18.07195],[73.61685,18.06885],[73.61406,18.05887],[73.61402,18.05873],[73.61954,18.05567],[73.62454,18.05199],[73.62527,18.05146],[73.6263,18.0507],[73.62727,18.04999],[73.62845,18.04807],[73.62962,18.04619],[73.63501,18.04685],[73.63575,18.04679],[73.63794,18.04661],[73.64144,18.04631],[73.64152,18.04627],[73.64368,18.04526],[73.64879,18.04286],[73.65087,18.04188],[73.65099,18.03776],[73.6566,18.03601],[73.65937,18.03281],[73.66008,18.03199],[73.65982,18.02999],[73.65971,18.02918],[73.66561,18.0276],[73.6692,18.02967],[73.67201,18.03128],[73.68506,18.03879],[73.70143,18.04646],[73.70499,18.04812],[73.70669,18.04891],[73.70946,18.04736],[73.71171,18.0461],[73.71456,18.0445],[73.71656,18.04463],[73.72262,18.04501],[73.72602,18.04524],[73.72638,18.04525],[73.73268,18.04178],[73.73407,18.04102],[73.73992,18.04062],[73.74081,18.04056],[73.74205,18.04047],[73.74265,18.04043],[73.74324,18.04039],[73.74352,18.04037],[73.74397,18.04034],[73.74413,18.04033],[73.74908,18.04],[73.75073,18.03988],[73.75131,18.03984],[73.75207,18.0397],[73.75652,18.03887],[73.75792,18.03861],[73.7607,18.03809],[73.7605,18.03664],[73.76048,18.03648],[73.75998,18.03583],[73.75963,18.03537],[73.75919,18.0348],[73.7593,18.0341],[73.75959,18.03217],[73.7599,18.03172],[73.76017,18.03134],[73.76097,18.03019],[73.76202,18.02868],[73.7631,18.02713],[73.76603,18.02618],[73.76768,18.02565],[73.76986,18.02612],[73.77274,18.02673],[73.77636,18.0275],[73.77748,18.02774],[73.77798,18.02761],[73.77876,18.0274],[73.77926,18.02727],[73.7891,18.02467],[73.78918,18.02465],[73.7912,18.02364],[73.79274,18.02287],[73.79337,18.02306],[73.7949,18.02351],[73.79501,18.02354],[73.79746,18.02425],[73.80197,18.02696],[73.80226,18.02718],[73.80235,18.02722],[73.80252,18.02739],[73.80367,18.02829],[73.80442,18.02891],[73.80476,18.02915],[73.80484,18.02921],[73.80505,18.02938],[73.80514,18.02945],[73.80568,18.02987],[73.80606,18.03017],[73.80626,18.03033],[73.80911,18.03257],[73.81171,18.03461],[73.81211,18.03492],[73.81263,18.03534],[73.81274,18.03543],[73.81429,18.03664],[73.81968,18.03621],[73.82079,18.03612],[73.82107,18.0361],[73.82274,18.03543],[73.82909,18.03289],[73.83006,18.0325],[73.834,18.03236],[73.8343,18.03223],[73.83512,18.03213],[73.83553,18.0323],[73.83647,18.03227],[73.84067,18.03211],[73.8414,18.03255],[73.84488,18.03461],[73.84607,18.03532],[73.84681,18.03768],[73.84762,18.04028],[73.84778,18.0408],[73.84806,18.04169],[73.84858,18.04123],[73.85139,18.03874],[73.85195,18.03825],[73.85451,18.03486],[73.85454,18.03484],[73.85464,18.0347],[73.85482,18.03448],[73.85484,18.03443],[73.85487,18.03438],[73.85504,18.03404],[73.85509,18.03391],[73.8551,18.03388],[73.85518,18.0337],[73.85519,18.03367],[73.85525,18.03359],[73.8553,18.03353],[73.85537,18.03348],[73.85541,18.03347],[73.85544,18.03346],[73.8555,18.03345],[73.85556,18.03346],[73.85561,18.03349],[73.85563,18.03351],[73.85565,18.03354],[73.85568,18.03359],[73.85593,18.03349],[73.85718,18.03298],[73.85876,18.03233],[73.85996,18.03314],[73.86178,18.03436],[73.86211,18.03546],[73.86241,18.03651],[73.86262,18.03723],[73.86443,18.03877],[73.8648,18.03909],[73.86587,18.04001],[73.86753,18.0425],[73.8678,18.0429],[73.8672,18.04503],[73.86709,18.0454],[73.86806,18.04873],[73.87255,18.04942],[73.87441,18.05329],[73.87369,18.05817],[73.87337,18.06036],[73.87297,18.06307],[73.87271,18.06482],[73.87258,18.06569],[73.87255,18.06591],[73.8725,18.06627],[73.87189,18.07034],[73.87209,18.07403],[73.87328,18.07586],[73.8744,18.07756],[73.8747,18.07802],[73.8748,18.07818],[73.87527,18.0789],[73.8754,18.07909],[73.87714,18.08175],[73.88046,18.08446],[73.88153,18.08533],[73.88088,18.08946],[73.87785,18.09466],[73.87292,18.10315],[73.87256,18.10377],[73.87247,18.10393],[73.87233,18.10417],[73.86722,18.11089],[73.86711,18.11103],[73.86666,18.11163],[73.86571,18.11289],[73.86431,18.11473],[73.86368,18.1182],[73.86325,18.12056],[73.86435,18.12032],[73.86463,18.12026],[73.86493,18.12019],[73.86521,18.12013],[73.86543,18.12008],[73.86736,18.11965],[73.86742,18.11961],[73.86757,18.11952],[73.86771,18.11947],[73.86781,18.11944],[73.86793,18.11944],[73.86815,18.11945],[73.86824,18.11944],[73.86833,18.11943],[73.86837,18.11943],[73.86881,18.11934],[73.86965,18.11915],[73.86975,18.11913],[73.87061,18.11894],[73.87244,18.11854],[73.87538,18.11789],[73.87867,18.11717],[73.88036,18.11709],[73.88901,18.11668],[73.89171,18.11655],[73.8936,18.11816],[73.89431,18.11877],[73.89551,18.12274],[73.89611,18.12362],[73.89733,18.1254],[73.90011,18.12711],[73.90096,18.12756],[73.90155,18.12872],[73.9016,18.1288],[73.90214,18.12988],[73.90235,18.13028],[73.90381,18.13317],[73.90472,18.13684],[73.90351,18.13742],[73.90212,18.13808],[73.89819,18.13996],[73.89436,18.14839],[73.89433,18.14846],[73.89416,18.14883],[73.89297,18.15146],[73.89252,18.15182],[73.891,18.15304],[73.8898,18.15401],[73.88789,18.15554],[73.88583,18.15697],[73.88538,18.15747],[73.88525,18.15763],[73.88489,18.15826],[73.88477,18.15843],[73.8844,18.1588],[73.88421,18.15897],[73.88386,18.1592],[73.88363,18.15943],[73.88325,18.15999],[73.88348,18.15964],[73.88305,18.16028],[73.88295,18.16042],[73.8828,18.16064],[73.88255,18.161],[73.88245,18.16115],[73.88229,18.16139],[73.88206,18.16173],[73.88176,18.16215],[73.88144,18.16263],[73.88118,18.16301],[73.88095,18.16334],[73.88024,18.16396],[73.87798,18.16595],[73.87748,18.16639],[73.87711,18.16701],[73.87603,18.1688],[73.8752,18.17019],[73.87508,18.1715],[73.87508,18.17161],[73.8749,18.17368],[73.87497,18.17378],[73.87539,18.17442],[73.8757,18.17488],[73.87594,18.17527],[73.87613,18.17552],[73.87661,18.17623],[73.87863,18.177],[73.88025,18.17643],[73.88114,18.17612],[73.88228,18.17573],[73.8829,18.17552],[73.88354,18.1753],[73.88419,18.17507],[73.88446,18.1752],[73.88476,18.17538],[73.88519,18.17557],[73.88663,18.17629],[73.88768,18.17682],[73.8881,18.17703],[73.88842,18.17719],[73.88856,18.17726],[73.88863,18.17732],[73.89016,18.17873],[73.89067,18.17939],[73.89237,18.18073],[73.8936,18.18231],[73.89376,18.18252],[73.89397,18.18279],[73.89491,18.18399],[73.89853,18.18318],[73.89908,18.17749],[73.89961,18.17195],[73.89967,18.17182],[73.90014,18.17086],[73.90114,18.1682],[73.90123,18.16781],[73.90228,18.16586],[73.90282,18.16383],[73.90333,18.16192],[73.9035,18.16129],[73.90443,18.16102],[73.90529,18.16077],[73.90561,18.16068],[73.90778,18.16246],[73.9097,18.16403],[73.91224,18.1661],[73.91523,18.1676],[73.92136,18.17067],[73.92258,18.171],[73.92268,18.17102],[73.92463,18.17155],[73.92476,18.17158],[73.9265,18.17205],[73.9266,18.17208],[73.92898,18.17272],[73.9315,18.1734],[73.93397,18.17407],[73.93629,18.17386],[73.93877,18.17364],[73.94015,18.17513],[73.94017,18.17515],[73.94325,18.17848],[73.94485,18.18021],[73.94575,18.18068],[73.9465,18.18107],[73.94687,18.18127],[73.9511,18.178],[73.95198,18.17732],[73.95314,18.17642],[73.95326,18.1761],[73.9537,18.17577],[73.95407,18.1757],[73.95433,18.1755],[73.95487,18.17496],[73.95495,18.17487],[73.95503,18.17479],[73.95795,18.17177],[73.95814,18.17167],[73.95927,18.17111],[73.96072,18.17018],[73.96152,18.16973],[73.96189,18.1693],[73.96434,18.16779],[73.96573,18.16694],[73.96806,18.1655],[73.96832,18.16546],[73.96939,18.16472],[73.96951,18.16461],[73.97017,18.16404],[73.97076,18.16349],[73.97141,18.16267],[73.97218,18.16171],[73.97346,18.1601],[73.9741,18.1593],[73.97854,18.15615],[73.97896,18.15586],[73.97947,18.1555],[73.98053,18.15501],[73.98724,18.15192],[73.9903,18.1505],[73.99106,18.15015],[73.99209,18.15025],[73.99605,18.15061],[73.99787,18.15218],[73.99811,18.15249],[73.99848,18.15302],[73.99893,18.15315],[73.99902,18.15317],[73.99994,18.15396],[74.00108,18.15495],[74.00116,18.15505],[74.00268,18.15703],[74.00472,18.15722],[74.00494,18.15697],[74.00525,18.15655],[74.0062,18.15527],[74.00741,18.15369],[74.01057,18.14672],[74.01394,18.14472],[74.01505,18.14406],[74.0161,18.14343],[74.02018,18.141],[74.02277,18.13947],[74.02503,18.1381],[74.02804,18.13516],[74.02887,18.13435],[74.03279,18.13245],[74.03692,18.13176],[74.04457,18.13347],[74.04496,18.13356],[74.04575,18.13409],[74.04608,18.1343],[74.04661,18.13465],[74.04676,18.13476],[74.04717,18.13502],[74.04792,18.13552],[74.04847,18.13588],[74.04862,18.13598],[74.05073,18.13738],[74.05084,18.13746],[74.05145,18.13786],[74.05298,18.13888],[74.06183,18.13804],[74.06252,18.13797],[74.06284,18.1378],[74.06703,18.13561],[74.06941,18.13258],[74.07132,18.12801],[74.07418,18.12502],[74.07484,18.12432],[74.07847,18.12207],[74.08473,18.12081],[74.08782,18.12091],[74.09659,18.12119],[74.09724,18.12121],[74.09865,18.12126],[74.10033,18.12184],[74.10132,18.12218],[74.10171,18.12237],[74.10242,18.12272],[74.10272,18.12287],[74.10334,18.12309],[74.10383,18.12328],[74.10572,18.12471],[74.108,18.12643],[74.11006,18.12798],[74.11045,18.12812],[74.11053,18.12815],[74.11874,18.13107],[74.12126,18.1305],[74.12132,18.1305],[74.12229,18.13029],[74.12497,18.1297],[74.12557,18.12922],[74.12646,18.12835],[74.12616,18.12791],[74.12656,18.12747],[74.12665,18.12715],[74.12765,18.12622],[74.12861,18.12533],[74.12923,18.12476],[74.12949,18.12446],[74.12957,18.12433],[74.12956,18.12401],[74.1296,18.1239],[74.1297,18.1238],[74.13016,18.12356],[74.13053,18.12328],[74.13101,18.12282],[74.1314,18.12236],[74.13179,18.12183],[74.13213,18.12138],[74.13263,18.12059],[74.13282,18.12034],[74.13324,18.11984],[74.13411,18.1188],[74.13531,18.1177],[74.13551,18.11773],[74.13924,18.11819],[74.14002,18.11829],[74.14038,18.11834],[74.14056,18.11837],[74.14074,18.11839],[74.14868,18.11939],[74.14997,18.11877],[74.15002,18.11875],[74.15225,18.1177],[74.15364,18.11609],[74.15528,18.11418],[74.15669,18.11256],[74.157,18.1122],[74.15701,18.11219],[74.15755,18.11156],[74.15824,18.11076],[74.15844,18.11056],[74.15924,18.11002],[74.16027,18.10944],[74.16248,18.10802],[74.16384,18.10721],[74.16415,18.10724],[74.16914,18.10776],[74.17228,18.10809],[74.17576,18.10914],[74.17718,18.10957],[74.17759,18.1097],[74.1778,18.10976],[74.17873,18.11004],[74.18,18.11042],[74.18041,18.11055],[74.18056,18.11063],[74.18098,18.11097],[74.18113,18.11103],[74.18128,18.11103],[74.18141,18.11108],[74.18191,18.11138],[74.18218,18.11155],[74.18238,18.11164],[74.18289,18.11178],[74.18312,18.11182],[74.18335,18.11178],[74.18352,18.11178],[74.18393,18.11185],[74.1841,18.11187],[74.18447,18.11184],[74.18541,18.11179],[74.1856,18.11176],[74.1859,18.1116],[74.18601,18.11158],[74.18614,18.11165],[74.18629,18.11166],[74.18647,18.11161],[74.18826,18.11158],[74.19013,18.11154],[74.19024,18.11142],[74.19024,18.11114],[74.19026,18.11105],[74.19034,18.11104],[74.19045,18.11122],[74.19054,18.11123],[74.19088,18.11107],[74.19125,18.11077],[74.1916,18.11044],[74.19163,18.11036],[74.19164,18.11018],[74.19169,18.11012],[74.19177,18.11009],[74.19184,18.1101],[74.19193,18.11004],[74.19232,18.10956],[74.19268,18.10923],[74.19287,18.10901],[74.19332,18.10831],[74.19349,18.10795],[74.19359,18.10779],[74.19383,18.1074],[74.19407,18.10715],[74.1941,18.10708],[74.19405,18.10687],[74.19407,18.10679],[74.19415,18.10677],[74.19433,18.10679],[74.19443,18.10675],[74.19479,18.1064],[74.19496,18.10621],[74.1951,18.10613],[74.19556,18.1059],[74.19567,18.10579],[74.19946,18.10438],[74.19989,18.10396],[74.20041,18.10375],[74.20078,18.10379],[74.20093,18.10377],[74.20174,18.10362],[74.20231,18.10351],[74.20264,18.10342],[74.20281,18.10332],[74.203,18.10325],[74.2035,18.10317],[74.20366,18.10311],[74.20401,18.10289],[74.2042,18.10273],[74.2047,18.10226],[74.20628,18.10152],[74.20641,18.10124],[74.20653,18.10109],[74.20682,18.10075],[74.20701,18.10045],[74.20722,18.10007],[74.20759,18.09917],[74.20789,18.09863],[74.2081,18.09837],[74.20827,18.09821],[74.20864,18.09795],[74.20878,18.09789],[74.20891,18.09788],[74.20911,18.09793],[74.20926,18.09793],[74.20946,18.09786],[74.20955,18.09786],[74.20981,18.09794],[74.21029,18.09795],[74.2105,18.09789],[74.21085,18.09763],[74.211,18.09759],[74.21149,18.09764],[74.2117,18.09762],[74.21231,18.09747],[74.2125,18.09746],[74.2133,18.09746],[74.21339,18.09749],[74.21352,18.09758],[74.21385,18.09774],[74.21398,18.09776],[74.2144,18.09764],[74.21447,18.09757],[74.21441,18.0975],[74.21406,18.09736],[74.21404,18.09729],[74.21411,18.09726],[74.21457,18.09731],[74.21636,18.09734],[74.21657,18.09732],[74.21697,18.09717],[74.21726,18.09716],[74.21808,18.09715],[74.21851,18.09722],[74.21862,18.0972],[74.21876,18.09714],[74.21895,18.09701],[74.21916,18.09687],[74.21931,18.09686],[74.21964,18.09697],[74.22012,18.09707],[74.22033,18.09713],[74.22075,18.09737],[74.22103,18.09736],[74.22184,18.09757],[74.22211,18.09763],[74.22285,18.0978],[74.22339,18.09799],[74.22424,18.09828],[74.22455,18.09832],[74.22495,18.09836],[74.22532,18.09835],[74.22576,18.09845],[74.22668,18.0987],[74.22828,18.09915],[74.22867,18.09929],[74.2292,18.09945],[74.23001,18.09965],[74.23178,18.09981],[74.2338,18.10028],[74.23456,18.10024],[74.23738,18.0995],[74.23753,18.09949],[74.23908,18.09944],[74.23996,18.09898],[74.24045,18.0987],[74.24065,18.09854],[74.24098,18.09828],[74.24158,18.09787],[74.24199,18.09762],[74.24271,18.09738],[74.24289,18.09729],[74.24306,18.09708],[74.24323,18.097],[74.24352,18.09688],[74.24378,18.09672],[74.24432,18.09636],[74.24439,18.09627],[74.24451,18.09625],[74.24468,18.09621],[74.24495,18.09604],[74.24522,18.09575],[74.24558,18.0954],[74.24594,18.09487],[74.24631,18.09417],[74.24718,18.09338],[74.25026,18.09053],[74.2507,18.09023],[74.25217,18.08923],[74.25605,18.08645],[74.25665,18.08613],[74.25725,18.08582],[74.25767,18.0856],[74.25807,18.08533],[74.2584,18.08508],[74.25904,18.08458],[74.26119,18.08367],[74.26302,18.08282],[74.26424,18.08225],[74.26516,18.08182],[74.26623,18.08133],[74.27173,18.07909],[74.27779,18.07663],[74.28097,18.07534],[74.28143,18.07528],[74.28224,18.07518],[74.28252,18.07515],[74.28357,18.07503],[74.28443,18.07492],[74.28568,18.07474],[74.2865,18.0745],[74.28782,18.07416],[74.28825,18.07408],[74.29013,18.07384],[74.29155,18.07379],[74.29329,18.07378],[74.29372,18.07375],[74.29407,18.07367],[74.29454,18.07346],[74.2948,18.07324],[74.29759,18.07113],[74.29831,18.07059],[74.29878,18.07024],[74.29911,18.07018],[74.29924,18.07016],[74.30042,18.06996],[74.30193,18.06971],[74.30206,18.06969],[74.30212,18.06968],[74.30289,18.06955],[74.30296,18.06954],[74.30366,18.06942],[74.30401,18.06936],[74.30417,18.06946],[74.3072,18.07136],[74.30794,18.07182],[74.30998,18.07228],[74.31035,18.07243],[74.31109,18.07268],[74.31154,18.07277],[74.31172,18.07279],[74.31197,18.07279],[74.31217,18.07282],[74.31245,18.07291],[74.31266,18.07293],[74.31311,18.07289],[74.31328,18.07291],[74.31351,18.07301],[74.31837,18.07411],[74.31881,18.07455],[74.3198,18.07553],[74.32134,18.07706],[74.322,18.07816],[74.32241,18.0786],[74.32296,18.07964],[74.32311,18.08003],[74.32313,18.08016],[74.32313,18.08059],[74.32318,18.08073],[74.32326,18.08082],[74.32347,18.08091],[74.32361,18.08101],[74.32369,18.08115],[74.32379,18.08179],[74.32386,18.08203],[74.3242,18.08304],[74.32436,18.0837],[74.32443,18.08383],[74.3247,18.08413],[74.32586,18.08504],[74.32677,18.08579],[74.32733,18.08623],[74.32792,18.08662],[74.33026,18.08874],[74.33202,18.08898],[74.33446,18.0893],[74.33714,18.09045],[74.33782,18.09074],[74.34171,18.09256],[74.3423,18.09249],[74.34378,18.09323],[74.34478,18.09379],[74.34499,18.09388],[74.34527,18.09391],[74.34545,18.09397],[74.34641,18.09459],[74.3468,18.09482],[74.34694,18.09494],[74.34717,18.09515],[74.34785,18.09506],[74.34789,18.09507],[74.34859,18.09526],[74.35116,18.09548],[74.35136,18.09554],[74.35164,18.09556],[74.35178,18.09561],[74.35207,18.09589],[74.35224,18.09599],[74.35294,18.0963],[74.3535,18.09656],[74.3537,18.09661],[74.35389,18.09662],[74.35426,18.0966],[74.35455,18.09661],[74.35697,18.09706],[74.35765,18.09677],[74.35879,18.09613],[74.35944,18.09583],[74.35989,18.09551],[74.36023,18.09519],[74.36031,18.09504],[74.36032,18.09479],[74.3604,18.09465],[74.36062,18.09455],[74.3607,18.09445],[74.36114,18.09361],[74.36133,18.09309],[74.36148,18.09273],[74.36152,18.09264],[74.3615,18.0924],[74.36153,18.09223],[74.36174,18.09164],[74.36198,18.09079],[74.36202,18.09052],[74.362,18.08979],[74.36198,18.089],[74.36202,18.08872],[74.36242,18.08718],[74.36254,18.08697],[74.36307,18.08666],[74.36342,18.08648],[74.36432,18.08624],[74.36529,18.08604],[74.36579,18.0859],[74.36632,18.08581],[74.36664,18.08577],[74.36689,18.0858],[74.36733,18.08589],[74.36747,18.08598],[74.3678,18.08634],[74.36798,18.08643],[74.3681,18.08643],[74.36817,18.08636],[74.36818,18.08591],[74.36819,18.08555],[74.36824,18.08542],[74.36835,18.08531],[74.3688,18.0851],[74.36953,18.08489],[74.36967,18.08479],[74.36995,18.08446],[74.37008,18.08432],[74.3707,18.08353],[74.37092,18.08322],[74.37117,18.08299],[74.37311,18.08034],[74.3775,18.07433],[74.38108,18.07126],[74.38529,18.07078],[74.3897,18.07318],[74.39072,18.07339],[74.39204,18.07369],[74.39312,18.07394],[74.39337,18.07404],[74.39388,18.07421],[74.39414,18.07425],[74.39492,18.07432],[74.39531,18.07429],[74.39599,18.07413],[74.39711,18.07367],[74.39727,18.07356],[74.39758,18.07327],[74.39771,18.0732],[74.39838,18.07297],[74.39875,18.07284],[74.3992,18.07265],[74.39933,18.07256],[74.39937,18.07236],[74.39941,18.07229],[74.39951,18.07229],[74.39959,18.07242],[74.39967,18.07244],[74.3998,18.07233],[74.39994,18.0723],[74.40008,18.07234],[74.40017,18.07232],[74.40025,18.07224],[74.40063,18.07184],[74.40103,18.07139],[74.40121,18.07126],[74.40192,18.07104],[74.40277,18.07071],[74.40314,18.07063],[74.40358,18.07058],[74.40375,18.07061],[74.40405,18.07072],[74.40423,18.07075],[74.40482,18.07076],[74.4049,18.07074],[74.40506,18.07061],[74.40516,18.0706],[74.40523,18.07065],[74.40523,18.07081],[74.40534,18.07088],[74.40571,18.07086],[74.40585,18.07088],[74.40604,18.07094],[74.40622,18.07098],[74.40678,18.07107],[74.40692,18.07106],[74.40714,18.07098],[74.40732,18.07095],[74.40857,18.07091],[74.4092,18.07093],[74.41017,18.07103],[74.41053,18.07105],[74.41146,18.07104],[74.412,18.07099],[74.41216,18.07101],[74.41248,18.0711],[74.4126,18.07112],[74.41271,18.07109],[74.41309,18.07093],[74.41335,18.07089],[74.41376,18.0708],[74.41495,18.07061],[74.4151,18.07056],[74.41579,18.07033],[74.41617,18.07019],[74.41667,18.06992],[74.41701,18.06963],[74.4172,18.0695],[74.41818,18.06905],[74.41909,18.06863],[74.42,18.06821],[74.42086,18.06792],[74.42124,18.06783],[74.42166,18.06775],[74.42181,18.06779],[74.42199,18.06799],[74.42223,18.06807],[74.42232,18.06804],[74.42234,18.06797],[74.4223,18.06788],[74.42232,18.06783],[74.4224,18.06782],[74.42247,18.06787],[74.42254,18.06806],[74.4226,18.06811],[74.42269,18.06813],[74.42312,18.06799],[74.42316,18.06792],[74.42318,18.06766],[74.42327,18.0676],[74.42354,18.06753],[74.42367,18.06752],[74.42398,18.06763],[74.42414,18.06763],[74.42449,18.06746],[74.4247,18.0674],[74.42546,18.06725],[74.42595,18.06709],[74.42619,18.06704],[74.427,18.06691],[74.42814,18.06674],[74.42973,18.06645],[74.43001,18.06637],[74.43095,18.06614],[74.43175,18.06596],[74.43264,18.06584],[74.43348,18.06579],[74.43408,18.06574],[74.43472,18.06566],[74.43499,18.06559],[74.43597,18.06536],[74.43654,18.06524],[74.43697,18.0651],[74.43744,18.06482],[74.43849,18.06413],[74.4389,18.06385],[74.43966,18.06337],[74.4402,18.06309],[74.44103,18.06248],[74.44116,18.06235],[74.44129,18.06216],[74.4415,18.06154],[74.44166,18.06131],[74.44228,18.06063],[74.44667,18.05751],[74.44789,18.05676],[74.44843,18.05641],[74.44861,18.05632],[74.44884,18.05625],[74.44907,18.05622],[74.45043,18.05579],[74.45401,18.05246],[74.45509,18.05145],[74.45672,18.05063],[74.46012,18.04893],[74.46046,18.04876],[74.46083,18.04857],[74.46243,18.04838],[74.46477,18.04817],[74.46491,18.04812],[74.46502,18.04823],[74.46511,18.04827],[74.46543,18.04834],[74.46591,18.04852],[74.46609,18.04855],[74.4667,18.0485],[74.4673,18.04844],[74.46759,18.04845],[74.46837,18.04853],[74.46867,18.04854],[74.46962,18.04859],[74.47094,18.04869],[74.47148,18.04879],[74.47188,18.04891],[74.47222,18.04897],[74.47255,18.04898],[74.47269,18.04903],[74.47289,18.04915],[74.47309,18.04919],[74.47349,18.04924],[74.47415,18.04945],[74.47442,18.0495],[74.47455,18.04955],[74.47478,18.04971],[74.47499,18.04979],[74.47513,18.0498],[74.47528,18.04984],[74.47562,18.04998],[74.4761,18.05017],[74.47636,18.05024],[74.47645,18.05029],[74.47666,18.0505],[74.47711,18.05065],[74.47759,18.05081],[74.4783,18.05104],[74.47847,18.05109],[74.47991,18.05156],[74.48046,18.05215],[74.48075,18.05235],[74.4823,18.05319],[74.48296,18.05349],[74.48327,18.05367],[74.4847,18.05461],[74.48534,18.05501],[74.48568,18.05519],[74.48732,18.05635],[74.48859,18.05718],[74.48872,18.05726],[74.48927,18.05748],[74.4908,18.05807],[74.49103,18.05816],[74.49387,18.05928],[74.49428,18.05944],[74.49464,18.05946],[74.49656,18.05956],[74.49716,18.05959],[74.50372,18.05972],[74.50473,18.05987],[74.50506,18.05988],[74.50558,18.05986],[74.50674,18.0601],[74.5074,18.06014],[74.50971,18.06026],[74.51082,18.06024],[74.51157,18.06022],[74.51423,18.06012],[74.51494,18.06027],[74.51523,18.06033],[74.51592,18.06038],[74.51628,18.06037],[74.5171,18.06031],[74.51729,18.06027],[74.5177,18.06012],[74.51784,18.06011],[74.518,18.06019],[74.51814,18.06019],[74.51869,18.06007],[74.51951,18.06005],[74.52352,18.0601],[74.52479,18.05979],[74.52681,18.05921],[74.52776,18.05898],[74.52898,18.05857],[74.52985,18.0583],[74.53004,18.05828],[74.53019,18.05832],[74.53034,18.05833],[74.53045,18.05829],[74.53055,18.0582],[74.53065,18.05817],[74.53078,18.05822],[74.53089,18.05823],[74.53135,18.0582],[74.53167,18.05819],[74.53184,18.05814],[74.53202,18.05816],[74.53218,18.05825],[74.53239,18.05829],[74.53251,18.05828],[74.53282,18.05832],[74.53363,18.05826],[74.53575,18.05811],[74.53625,18.05832],[74.53688,18.05862],[74.53888,18.06036],[74.53968,18.06105],[74.5398,18.0611],[74.53998,18.06125],[74.54018,18.06137],[74.54124,18.06196],[74.54156,18.0622],[74.54222,18.06287],[74.54288,18.06361],[74.54314,18.06395],[74.54332,18.06422],[74.54558,18.06622],[74.54591,18.0665],[74.54601,18.0666],[74.54616,18.06693],[74.54627,18.06707],[74.54641,18.06716],[74.54647,18.06721],[74.54654,18.06736],[74.54662,18.06742],[74.54689,18.06748],[74.54701,18.06757],[74.54713,18.06774],[74.54721,18.06777],[74.54729,18.06777],[74.54735,18.06783],[74.5474,18.06798],[74.54746,18.06805],[74.54752,18.06807],[74.54769,18.06805],[74.5478,18.06809],[74.54824,18.06828],[74.5489,18.06861],[74.54909,18.06866],[74.55077,18.06953],[74.55302,18.07002],[74.55317,18.07004],[74.55327,18.07014],[74.55343,18.07021],[74.55484,18.07054],[74.55526,18.0706],[74.55576,18.07063],[74.55631,18.07073],[74.55649,18.07074],[74.55689,18.07075],[74.55712,18.07077],[74.55787,18.07095],[74.55836,18.0711],[74.55844,18.0711],[74.55849,18.07107],[74.55863,18.07084],[74.55872,18.07082],[74.55913,18.07091],[74.55927,18.0709],[74.55941,18.07085],[74.55967,18.07053],[74.55981,18.07043],[74.56025,18.07036],[74.56044,18.07029],[74.56115,18.06986],[74.56148,18.06956],[74.56187,18.06909],[74.56204,18.06883],[74.56234,18.06823],[74.56253,18.06795],[74.56294,18.06736],[74.56304,18.06729],[74.56323,18.06714],[74.56331,18.06702],[74.56339,18.06677],[74.56347,18.06666],[74.56371,18.06642],[74.5639,18.06617],[74.56536,18.06443],[74.56586,18.06378],[74.56618,18.06324],[74.56755,18.06179],[74.56966,18.05693],[74.57405,18.05506],[74.57425,18.05498],[74.57543,18.05449],[74.57597,18.05447],[74.57623,18.05444],[74.57718,18.05408],[74.57744,18.05393],[74.57791,18.05358],[74.57818,18.05332],[74.57889,18.05302],[74.57974,18.05267],[74.57983,18.05263],[74.58049,18.05169],[74.58247,18.04891],[74.58359,18.04734],[74.58478,18.04826],[74.58507,18.04849],[74.58576,18.04902],[74.58617,18.04934],[74.58621,18.04937],[74.58653,18.05069],[74.58663,18.05108],[74.58699,18.05318],[74.58768,18.054],[74.58843,18.05462],[74.58921,18.05509],[74.58968,18.05529],[74.59037,18.05553],[74.59079,18.05557],[74.5917,18.05548],[74.59266,18.0553],[74.5931,18.05515],[74.59339,18.05498],[74.59364,18.05475],[74.5938,18.05467],[74.59399,18.05462],[74.59432,18.05462],[74.59451,18.05455],[74.59573,18.05387],[74.59666,18.05334],[74.5969,18.05324],[74.59729,18.05315],[74.59747,18.05306],[74.59786,18.05282],[74.5987,18.05235],[74.59928,18.05199],[74.6001,18.05142],[74.60102,18.05097],[74.60281,18.05007],[74.60312,18.04991],[74.60416,18.04938],[74.60454,18.04919],[74.60702,18.04793],[74.61188,18.04769],[74.61349,18.04791],[74.61416,18.048],[74.61623,18.04828],[74.61817,18.04855],[74.6189,18.04903],[74.61958,18.04947],[74.62007,18.04958],[74.62016,18.04964],[74.62023,18.04975],[74.6203,18.04982],[74.62069,18.04995],[74.62083,18.05002],[74.62097,18.05021],[74.6211,18.05032],[74.62173,18.05063],[74.62182,18.05071],[74.62193,18.05086],[74.622,18.0509],[74.62206,18.0509],[74.62219,18.05078],[74.62225,18.05079],[74.62228,18.05084],[74.62226,18.05097],[74.62228,18.05107],[74.62244,18.05123],[74.62512,18.05311],[74.62872,18.05548],[74.62963,18.05608],[74.62976,18.05616],[74.63208,18.05534],[74.63295,18.05503],[74.63307,18.05499],[74.63366,18.05445],[74.63443,18.05367],[74.63487,18.05321],[74.63497,18.05306],[74.63506,18.05282],[74.63514,18.05268],[74.63541,18.05232],[74.63619,18.05098],[74.6375,18.04945],[74.63958,18.04562],[74.64063,18.04548],[74.64167,18.04535],[74.64208,18.04529],[74.6432,18.04637],[74.64369,18.04684],[74.64662,18.04968],[74.64744,18.05046],[74.6481,18.05074],[74.6488,18.05113],[74.64939,18.05156],[74.64962,18.05175],[74.64999,18.05216],[74.65052,18.05268],[74.65074,18.05276],[74.65085,18.05286],[74.651,18.05345],[74.65111,18.05373],[74.6513,18.05409],[74.65143,18.0545],[74.6553,18.05938],[74.65545,18.0598],[74.65543,18.06063],[74.65514,18.06331],[74.65535,18.06489],[74.65534,18.06537],[74.65533,18.06579],[74.65532,18.06613],[74.65542,18.06627],[74.65661,18.06796],[74.65718,18.06878],[74.65758,18.06935],[74.65751,18.06978],[74.65786,18.06983],[74.6587,18.06976],[74.65887,18.06976],[74.65945,18.06977],[74.65972,18.06977],[74.66362,18.06963],[74.66664,18.07007],[74.66699,18.06988],[74.66768,18.0694],[74.66798,18.06914],[74.66929,18.0678],[74.66946,18.06758],[74.66978,18.06697],[74.66996,18.06684],[74.67032,18.06663],[74.67413,18.06415],[74.67645,18.0634],[74.67707,18.0632],[74.67958,18.06238],[74.68721,18.05991],[74.68727,18.05989],[74.68728,18.05982],[74.6877,18.05778],[74.68786,18.05701],[74.68796,18.05656],[74.689,18.05149],[74.68909,18.05106],[74.68911,18.05096],[74.69057,18.04384],[74.69355,18.03985],[74.69843,18.03852],[74.70042,18.03795],[74.70089,18.03793],[74.70113,18.0379],[74.70198,18.03756],[74.70262,18.03718],[74.70285,18.03699],[74.70299,18.03683],[74.70372,18.03569],[74.70549,18.03445],[74.7063,18.0339],[74.70642,18.03326],[74.70649,18.03303],[74.70693,18.03213],[74.70707,18.03198],[74.70751,18.0316],[74.70784,18.03144],[74.70795,18.03134],[74.70811,18.03113],[74.70829,18.031],[74.70878,18.03075],[74.70897,18.03072],[74.70973,18.03069],[74.70997,18.03063],[74.71052,18.03047],[74.71125,18.03025],[74.7117,18.03007],[74.71344,18.02928],[74.71396,18.02909],[74.71419,18.02905],[74.71473,18.02901],[74.71489,18.02902],[74.71521,18.0291],[74.7154,18.02913],[74.71604,18.02905],[74.71621,18.02907],[74.71655,18.02912],[74.71745,18.02924],[74.71777,18.02928],[74.7184,18.02942],[74.72071,18.02924],[74.72114,18.0293],[74.72474,18.02976],[74.7259,18.02991],[74.72752,18.03011],[74.72764,18.03012],[74.72814,18.03003],[74.72843,18.02998],[74.72916,18.02983],[74.73124,18.02931],[74.73142,18.02922],[74.7324,18.02916],[74.73597,18.02813],[74.73649,18.02798],[74.738,18.02754],[74.73818,18.02749],[74.74119,18.02662],[74.74222,18.0263],[74.74415,18.02576],[74.74439,18.02547],[74.74471,18.02499],[74.74483,18.02472],[74.74503,18.02455],[74.74558,18.02367],[74.74885,18.01932],[74.75242,18.01913],[74.75257,18.01936],[74.75276,18.01953],[74.7531,18.0198],[74.75327,18.01984],[74.7535,18.01981],[74.75365,18.01987],[74.7548,18.02061],[74.75533,18.02097],[74.75656,18.02179],[74.75709,18.02212],[74.75812,18.02265],[74.75927,18.02329],[74.75948,18.02338],[74.75976,18.02348],[74.76146,18.02402],[74.76244,18.02433],[74.76395,18.02467],[74.76425,18.02475],[74.76445,18.02479],[74.76483,18.02482],[74.76648,18.02351],[74.76673,18.02342],[74.76768,18.02281],[74.76818,18.02241],[74.76881,18.02169],[74.7696,18.02061],[74.77019,18.01979],[74.77031,18.01965],[74.77042,18.01956],[74.77099,18.01921],[74.77118,18.01914],[74.77149,18.01907],[74.77162,18.01899],[74.77197,18.01855],[74.77241,18.01794],[74.77248,18.01777],[74.77252,18.01758],[74.77261,18.01663],[74.77266,18.01648],[74.77312,18.01584],[74.77377,18.01499],[74.77391,18.0149],[74.77412,18.01484],[74.77477,18.01471],[74.7751,18.0146],[74.7759,18.01421],[74.77644,18.01381],[74.77705,18.01322],[74.77733,18.01289],[74.77853,18.01155],[74.78013,18.0117],[74.78049,18.01143],[74.78066,18.01136],[74.7817,18.01105],[74.78195,18.01103],[74.78251,18.01108],[74.78423,18.011],[74.78448,18.01097],[74.78563,18.01091],[74.78695,18.01082],[74.78718,18.01082],[74.78748,18.01091],[74.78767,18.01091],[74.78873,18.01071],[74.78971,18.01032],[74.79068,18.0097],[74.79137,18.00922],[74.79149,18.00911],[74.7919,18.00855],[74.79198,18.00848],[74.79206,18.00845],[74.79228,18.00845],[74.79238,18.00841],[74.79275,18.0081],[74.79293,18.00782],[74.79391,18.00812],[74.79814,18.00648],[74.80114,18.00445],[74.80239,18.00099],[74.80417,17.99876],[74.80596,17.99796],[74.80602,17.99794],[74.80668,17.99765],[74.80771,17.99745],[74.80834,17.99733],[74.80976,17.99746],[74.81023,17.99794],[74.81049,17.99821],[74.81095,17.99882],[74.8112,17.99914],[74.8114,18.00015],[74.81116,18.00088],[74.81106,18.00119],[74.81045,18.0032],[74.81025,18.00522],[74.80959,18.01181],[74.81009,18.01507],[74.8108,18.01675],[74.81122,18.01745],[74.81268,18.01776],[74.81413,18.01807],[74.81681,18.01742],[74.8237,18.01438],[74.82481,18.01318],[74.82608,18.0118],[74.82698,18.01082],[74.82731,18.01047],[74.82752,18.01019],[74.83075,18.00593],[74.83174,18.00115],[74.83206,17.99752],[74.83225,17.99543],[74.83398,17.99294],[74.8345,17.99282],[74.83473,17.9928],[74.83628,17.99288],[74.83656,17.99291],[74.8372,17.99279],[74.83845,17.99256],[74.83921,17.99242],[74.83989,17.99229],[74.84838,17.99558],[74.84875,17.99557],[74.84889,17.99557],[74.85327,17.99563],[74.85382,17.99559],[74.85439,17.99559],[74.85487,17.99558],[74.85606,17.99488],[74.86014,17.99397],[74.86122,17.99353],[74.86268,17.99295],[74.863,17.99282],[74.86477,17.99211],[74.86514,17.99141],[74.8655,17.99074],[74.86595,17.98828],[74.86625,17.98662],[74.86421,17.98187],[74.8642,17.98184],[74.86301,17.97908],[74.86278,17.97696],[74.86228,17.97235],[74.85958,17.96904],[74.85926,17.96865],[74.85134,17.96193],[74.84942,17.95946],[74.84914,17.9591],[74.84589,17.95309],[74.84673,17.9512],[74.84791,17.94852],[74.85017,17.94752],[74.85139,17.94698],[74.85187,17.94677],[74.8522,17.94662],[74.85272,17.94639],[74.85664,17.94773],[74.86031,17.94899],[74.86695,17.95126],[74.86732,17.95139],[74.86838,17.95175],[74.86873,17.95173],[74.87053,17.95168],[74.87098,17.9512],[74.87137,17.95076],[74.87169,17.95034],[74.87204,17.94986],[74.8724,17.94924],[74.87285,17.94835],[74.87581,17.94544],[74.87666,17.94517],[74.87988,17.9441],[74.88075,17.94401],[74.88278,17.94372],[74.88342,17.94359],[74.88501,17.94309],[74.88584,17.94276],[74.88613,17.94259],[74.88704,17.94193],[74.88753,17.94153],[74.88916,17.94054],[74.88976,17.94015],[74.89057,17.93955],[74.89083,17.93933],[74.8915,17.93854],[74.89161,17.93842],[74.89174,17.93834],[74.89322,17.93754],[74.89341,17.9375],[74.89356,17.93752],[74.8941,17.93766],[74.8947,17.9379],[74.89557,17.93838],[74.89756,17.93816],[74.89833,17.93826],[74.89854,17.93829],[74.89989,17.93847],[74.9034,17.94107],[74.90399,17.94152],[74.90705,17.94379],[74.90777,17.94432],[74.90794,17.94445],[74.90833,17.94456],[74.91224,17.94563],[74.91711,17.94563],[74.91806,17.94561],[74.91981,17.94503],[74.91996,17.945],[74.9335,17.94233],[74.93343,17.94146],[74.93556,17.94127],[74.93611,17.94132],[74.93627,17.94132],[74.93638,17.94129],[74.93669,17.94115],[74.93927,17.94078],[74.9412,17.94003],[74.94134,17.94001],[74.94286,17.93885],[74.94304,17.93875],[74.94447,17.93746],[74.94444,17.93558],[74.94495,17.93123],[74.94445,17.92704],[74.94441,17.92609],[74.94439,17.92546],[74.94613,17.92497],[74.94722,17.9253],[74.95177,17.92451],[74.9531,17.92396],[74.95386,17.92364],[74.95399,17.92359],[74.95593,17.92213],[74.95676,17.92161],[74.95736,17.9212],[74.95828,17.92049],[74.9585,17.92034],[74.96018,17.91927],[74.96041,17.91884],[74.96084,17.91834],[74.96288,17.91662],[74.96326,17.91654],[74.96388,17.9164],[74.96489,17.91709],[74.96581,17.917],[74.96622,17.91696],[74.96741,17.91686],[74.96764,17.91686],[74.9699,17.91655],[74.97051,17.91668],[74.97079,17.91672],[74.97139,17.91675],[74.97155,17.91678],[74.97187,17.91689],[74.97203,17.9169],[74.97242,17.91687],[74.97295,17.91694],[74.97316,17.91694],[74.97455,17.91697],[74.97485,17.91701],[74.97545,17.91709],[74.97567,17.9171],[74.97669,17.91707],[74.97748,17.91707],[74.97859,17.91653],[74.97975,17.91655],[74.98214,17.91607],[74.98335,17.91574],[74.98327,17.91561],[74.98903,17.91323],[74.99029,17.91302],[74.99514,17.9122],[75.00078,17.9112],[75.00094,17.91116],[75.00456,17.91056],[75.00476,17.91053],[75.00767,17.91005],[75.00827,17.90995],[75.0089,17.90969],[75.01001,17.90923],[75.0103,17.90915],[75.01143,17.90893],[75.01171,17.90888],[75.01246,17.90867],[75.01267,17.90865],[75.01489,17.90888],[75.01534,17.9089],[75.01573,17.90888],[75.01726,17.90876],[75.01764,17.90869],[75.01784,17.90861],[75.01823,17.90828],[75.01863,17.90819],[75.01898,17.90816],[75.01997,17.90766],[75.02019,17.90755],[75.0204,17.90639],[75.02085,17.90279],[75.02089,17.90244],[75.02169,17.89608],[75.02185,17.89497],[75.02204,17.89484],[75.02252,17.89451],[75.02263,17.89448],[75.02296,17.89421],[75.02318,17.89405],[75.0236,17.89376],[75.02428,17.89329],[75.02438,17.89322],[75.02479,17.89294],[75.02491,17.89286],[75.02541,17.89302],[75.02635,17.89333],[75.02671,17.89345],[75.02777,17.89379],[75.02789,17.89389],[75.02823,17.89417],[75.02899,17.89478],[75.03229,17.89748],[75.03766,17.90187],[75.03946,17.90366],[75.03965,17.90371],[75.04004,17.90382],[75.04092,17.90407],[75.04225,17.90445],[75.04246,17.90442],[75.04351,17.90424],[75.04399,17.90416],[75.04445,17.90409],[75.04461,17.90406],[75.04589,17.90385],[75.04658,17.90404],[75.04775,17.9035],[75.04877,17.90303],[75.0491,17.90292],[75.04977,17.9028],[75.05015,17.90271],[75.05066,17.902],[75.05141,17.90171],[75.05163,17.90162],[75.05238,17.90133],[75.05242,17.90135],[75.05299,17.90161],[75.05318,17.9017],[75.05328,17.90175],[75.05345,17.90183],[75.05539,17.9027],[75.05596,17.90366],[75.05614,17.90397],[75.05624,17.90414],[75.05632,17.90428],[75.05658,17.90474],[75.05674,17.90505],[75.0564,17.9055],[75.05637,17.90554],[75.0558,17.90626],[75.05548,17.90666],[75.05514,17.90709],[75.05265,17.91024],[75.05235,17.91073],[75.05118,17.91215],[75.05072,17.9127],[75.05028,17.91326],[75.04941,17.91435],[75.04928,17.91453],[75.04738,17.91836],[75.04763,17.91893],[75.04917,17.9219],[75.04972,17.92231],[75.05356,17.92515],[75.05609,17.9255],[75.05846,17.92582],[75.05864,17.92585],[75.06081,17.9243],[75.06226,17.92315],[75.06322,17.92231],[75.06435,17.92118],[75.06512,17.92035],[75.06707,17.91834],[75.06776,17.91757],[75.06802,17.91736],[75.06881,17.91694],[75.06927,17.91661],[75.0704,17.91612],[75.0712,17.91578],[75.072,17.91549],[75.07317,17.91507],[75.0747,17.91557],[75.08416,17.91928],[75.08787,17.92201],[75.08983,17.92345],[75.08944,17.92462],[75.08925,17.92521],[75.08911,17.92563],[75.08836,17.92771],[75.08833,17.92787],[75.08813,17.92808],[75.08807,17.92823],[75.08798,17.92864],[75.08786,17.9288],[75.0871,17.92948],[75.08627,17.93005],[75.08474,17.93108],[75.08414,17.93201],[75.08352,17.93301],[75.08363,17.93478],[75.08376,17.93694],[75.08453,17.9381],[75.08546,17.93949],[75.08786,17.94038],[75.09271,17.94192],[75.09522,17.94241],[75.09805,17.94308],[75.10068,17.94306],[75.10111,17.94296],[75.10198,17.94277],[75.10267,17.94262],[75.10443,17.9412],[75.10488,17.94051],[75.10534,17.93985],[75.10584,17.9392],[75.107,17.93758],[75.10702,17.93747],[75.10731,17.93722],[75.10741,17.93718],[75.10759,17.93711],[75.10853,17.93674],[75.10925,17.93646],[75.11197,17.93539],[75.11571,17.9374],[75.11631,17.93876],[75.11761,17.94168],[75.11826,17.94312],[75.11837,17.94337],[75.1194,17.94567],[75.12244,17.94752],[75.12235,17.94767],[75.12275,17.94793],[75.12355,17.94819],[75.12846,17.95117],[75.13162,17.95496],[75.1304,17.95872],[75.13038,17.95873],[75.12981,17.95909],[75.12875,17.95975],[75.12862,17.95983],[75.12664,17.96107],[75.12482,17.96203],[75.12338,17.96281],[75.11947,17.96492],[75.11859,17.96521],[75.11837,17.96528],[75.11799,17.96551],[75.11721,17.96702],[75.11827,17.96923],[75.11948,17.97048],[75.12073,17.97178],[75.1219,17.97188],[75.12375,17.97174],[75.12468,17.97161],[75.12512,17.97155],[75.12537,17.97151],[75.126,17.97142],[75.12677,17.9712],[75.12907,17.97019],[75.13041,17.96975],[75.13327,17.97012],[75.13514,17.97028],[75.13525,17.97029],[75.13564,17.97032],[75.13594,17.97034],[75.13426,17.97348],[75.134,17.97372],[75.13367,17.9739],[75.13347,17.97408],[75.1328,17.97481],[75.13226,17.97545],[75.13215,17.97566],[75.13207,17.97592],[75.13199,17.97647],[75.13162,17.97674],[75.1315,17.9769],[75.13133,17.97725],[75.13075,17.9786],[75.13021,17.97997],[75.12984,17.98082],[75.12965,17.98151],[75.1296,17.98191],[75.12956,17.98256],[75.12951,17.98357],[75.1294,17.98478],[75.12919,17.98644],[75.1291,17.98701],[75.12869,17.98863],[75.12823,17.99001],[75.12768,17.99151],[75.12719,17.99301],[75.12671,17.9945],[75.12435,17.9972],[75.1214,17.99847],[75.12115,17.99858],[75.12093,17.99864],[75.12009,17.99862],[75.11581,17.99851],[75.11483,17.99848],[75.11467,17.99838],[75.11457,17.99828],[75.11034,17.99419],[75.11,17.99386],[75.10821,17.98614],[75.10626,17.97789],[75.10592,17.97595],[75.10429,17.97458],[75.10353,17.97397],[75.10302,17.97353],[75.09996,17.97357],[75.09722,17.97455],[75.09458,17.97519],[75.09415,17.97535],[75.09251,17.97607],[75.08724,17.97741],[75.08338,17.97858],[75.08273,17.97867],[75.08028,17.97903],[75.07151,17.97653],[75.07069,17.97172],[75.06968,17.9694],[75.06956,17.969],[75.06872,17.96635],[75.06626,17.96147],[75.06443,17.9581],[75.06362,17.95715],[75.0631,17.95731],[75.06224,17.95583],[75.06067,17.95312],[75.06004,17.95204],[75.05992,17.95197],[75.05898,17.95145],[75.05828,17.95106],[75.05816,17.951],[75.05703,17.95037],[75.0568,17.95024],[75.05453,17.94898],[75.05244,17.94783],[75.05165,17.94739],[75.05077,17.9474],[75.05019,17.94725],[75.04834,17.94743],[75.04389,17.94747],[75.04286,17.94736],[75.04127,17.9475],[75.04076,17.94784],[75.04003,17.94832],[75.03944,17.94905],[75.03909,17.94949],[75.03869,17.94999],[75.03776,17.95088],[75.03738,17.95123],[75.03723,17.95136],[75.03538,17.95305],[75.03331,17.9547],[75.03301,17.95492],[75.03292,17.95499],[75.0323,17.95545],[75.0311,17.95646],[75.02917,17.95808],[75.02713,17.95954],[75.02568,17.96039],[75.02449,17.96128],[75.02248,17.96278],[75.02247,17.96403],[75.02247,17.96414],[75.02245,17.96812],[75.02279,17.96944],[75.02506,17.97826],[75.02597,17.98178],[75.02843,17.98622],[75.02987,17.98884],[75.03009,17.9892],[75.03381,17.99355],[75.03737,17.99773],[75.03897,17.99956],[75.0443,18.00568],[75.04592,18.00754],[75.04842,18.01196],[75.05189,18.01808],[75.05203,18.01832],[75.05251,18.01918],[75.05357,18.02104],[75.05437,18.02182],[75.05834,18.02564],[75.06086,18.02781],[75.06205,18.02884],[75.06237,18.02912],[75.06346,18.03005],[75.06953,18.03266],[75.06947,18.03279],[75.07004,18.03288],[75.07806,18.03633],[75.0793,18.03753],[75.08258,18.04072],[75.08288,18.04102],[75.0847,18.0428],[75.08731,18.04661],[75.08846,18.05063],[75.08887,18.05185],[75.08907,18.05244],[75.08991,18.05495],[75.09164,18.06449],[75.09163,18.0646],[75.09163,18.06465],[75.0916,18.06517],[75.09147,18.06664],[75.09321,18.06908],[75.09468,18.06971],[75.09576,18.07012],[75.09779,18.07027],[75.10197,18.07192],[75.10365,18.07241],[75.10379,18.07245],[75.10414,18.07256],[75.10684,18.07338],[75.10698,18.07341],[75.11159,18.07442],[75.11172,18.07445],[75.11271,18.07466],[75.1166,18.07559],[75.11865,18.07598],[75.1203,18.07595],[75.1206,18.07595],[75.12108,18.07594],[75.12327,18.07586],[75.12584,18.07565],[75.12726,18.07553],[75.13122,18.07614],[75.13334,18.07847],[75.13435,18.08409],[75.13452,18.08504],[75.13477,18.08585],[75.13551,18.08828],[75.13576,18.08909],[75.13612,18.0891],[75.13854,18.09233],[75.14427,18.09652],[75.15168,18.09932],[75.15666,18.10121],[75.16033,18.10334],[75.16408,18.10726],[75.16467,18.11373],[75.16463,18.11414],[75.16458,18.11687],[75.16457,18.11698],[75.16369,18.11951],[75.15897,18.12173],[75.1467,18.12409],[75.14005,18.12335],[75.13025,18.1204],[75.12432,18.11957],[75.11937,18.11888],[75.11927,18.11886],[75.1122,18.11973],[75.11077,18.11991],[75.11003,18.11986],[75.11003,18.11967],[75.10626,18.1196],[75.09961,18.11916],[75.0962,18.1205],[75.09567,18.12122],[75.09472,18.12298],[75.09444,18.12517],[75.09269,18.13898],[75.09217,18.1441],[75.09246,18.14621],[75.09257,18.14663],[75.09257,18.14677],[75.09272,18.14716],[75.09382,18.15128],[75.094,18.15169],[75.09624,18.1568],[75.09996,18.1623],[75.10436,18.1679],[75.10785,18.17396],[75.10983,18.17951],[75.11131,18.18369],[75.11151,18.18425],[75.11314,18.19293],[75.11511,18.20026],[75.11238,18.2089],[75.11055,18.21508],[75.10805,18.21823],[75.10778,18.21857],[75.10489,18.22099],[75.10392,18.22113],[75.10298,18.22127],[75.09967,18.22169],[75.099,18.22178],[75.09807,18.2219],[75.0976,18.2218],[75.0852,18.21913],[75.08293,18.21866],[75.07406,18.21221],[75.06959,18.2077],[75.06763,18.20548],[75.06439,18.20245],[75.06237,18.20037],[75.06171,18.19969],[75.06029,18.19831],[75.05032,18.19755],[75.04145,18.19636],[75.03748,18.19634],[75.03605,18.1955],[75.0343,18.1943],[75.03043,18.19054],[75.02898,18.18973],[75.02567,18.18834],[75.02291,18.18823],[75.01046,18.20659],[75.00999,18.20728],[75.00958,18.20825],[75.00926,18.20885],[75.00927,18.20898],[75.00907,18.20945],[75.00948,18.2128],[75.01076,18.21506],[75.01265,18.21839],[75.01629,18.22456],[75.01931,18.22847],[75.02003,18.22926],[75.02318,18.23272],[75.02593,18.23566],[75.02743,18.23726],[75.02772,18.2376],[75.02907,18.23914],[75.03138,18.24192],[75.03297,18.24311],[75.03465,18.24453],[75.03609,18.24569],[75.0381,18.24685],[75.04178,18.2507],[75.04548,18.25502],[75.04661,18.25632],[75.04642,18.25937],[75.0464,18.25971],[75.04565,18.26286],[75.0423,18.26387],[75.0403,18.26338],[75.03756,18.26271],[75.03254,18.25915],[75.03239,18.25906],[75.018,18.25092],[75.01405,18.24855],[75.00771,18.24609],[75.0071,18.2459],[75.00441,18.24518],[74.9974,18.24313],[74.99517,18.2422],[74.99429,18.2418],[74.99411,18.24173],[74.99341,18.24171],[74.99035,18.24164],[74.98707,18.24216],[74.98497,18.24272],[74.98071,18.24504],[74.98048,18.24514],[74.97913,18.24589],[74.97543,18.24797],[74.97269,18.24913],[74.96968,18.25063],[74.96551,18.25312],[74.96493,18.25346],[74.96115,18.25618],[74.95782,18.25959],[74.95615,18.26167],[74.95204,18.26417],[74.95059,18.26394],[74.95045,18.26392],[74.94867,18.26365],[74.94545,18.26341],[74.94191,18.26267],[74.92983,18.26014],[74.92823,18.25978],[74.92344,18.25914],[74.91735,18.25877],[74.91684,18.25874],[74.91092,18.2594],[74.91036,18.25946],[74.90699,18.25985],[74.89862,18.25975],[74.89678,18.25973],[74.89612,18.25972],[74.89595,18.25968],[74.88893,18.25818],[74.88207,18.25337],[74.87762,18.24806],[74.87686,18.24805],[74.87655,18.24804],[74.87571,18.24803],[74.87425,18.24802],[74.87397,18.24801],[74.86973,18.24796],[74.86796,18.24794],[74.86526,18.24736],[74.86445,18.24719],[74.85136,18.2444],[74.84469,18.24408],[74.84297,18.244],[74.84037,18.24489],[74.84031,18.24491],[74.83411,18.24705],[74.83089,18.25024],[74.82622,18.25466],[74.8261,18.25477],[74.82319,18.25911],[74.82122,18.26204],[74.82039,18.26327],[74.81334,18.27042],[74.81259,18.27088],[74.8056,18.27512],[74.79752,18.28002],[74.79657,18.28335],[74.79609,18.28501],[74.79526,18.28682],[74.79469,18.2893],[74.79491,18.29231],[74.79573,18.29386],[74.79633,18.2951],[74.79681,18.29605],[74.79799,18.29843],[74.79983,18.30058],[74.80131,18.3015],[74.80208,18.30326],[74.80505,18.30211],[74.81478,18.30063],[74.82134,18.29964],[74.82709,18.29722],[74.8275,18.29704],[74.82913,18.29649],[74.82967,18.2964],[74.83002,18.29626],[74.83092,18.29619],[74.83733,18.29492],[74.84279,18.30072],[74.84389,18.30398],[74.84396,18.30676],[74.8437,18.31012],[74.83818,18.31426],[74.83759,18.31647],[74.8334,18.32193],[74.83205,18.32832],[74.83213,18.32951],[74.83229,18.33045],[74.83313,18.33211],[74.83418,18.33566],[74.83431,18.3364],[74.83434,18.33697],[74.8344,18.33808],[74.82856,18.34324],[74.82745,18.34422],[74.82495,18.34557],[74.82394,18.34542],[74.82261,18.34472],[74.81973,18.34327],[74.81677,18.34348],[74.81113,18.34479],[74.80798,18.3453],[74.80715,18.34567],[74.80171,18.34808],[74.79704,18.35205],[74.79539,18.35585],[74.79582,18.35681],[74.79664,18.35867],[74.79723,18.35999],[74.79771,18.36128],[74.79814,18.36173],[74.79824,18.36188],[74.79836,18.36245],[74.79845,18.36262],[74.7987,18.363],[74.7989,18.36318],[74.79917,18.36336],[74.79935,18.36354],[74.80396,18.37078],[74.80542,18.37264],[74.80591,18.37325],[74.80613,18.37358],[74.80635,18.37401],[74.80912,18.3765],[74.8093,18.37778],[74.80951,18.37925],[74.8097,18.38059],[74.80989,18.38199],[74.81003,18.38301],[74.80984,18.3842],[74.80944,18.38678],[74.80908,18.38705],[74.80595,18.38937],[74.79971,18.394],[74.79933,18.39428],[74.7992,18.3944],[74.7988,18.39474],[74.79798,18.39545],[74.79757,18.3958],[74.79606,18.3971],[74.79523,18.39781],[74.79137,18.40112],[74.79045,18.4019],[74.79008,18.40222],[74.78764,18.40432],[74.78628,18.40584],[74.7861,18.40598],[74.78555,18.40628],[74.78542,18.40636],[74.78513,18.40671],[74.78501,18.40681],[74.78476,18.40694],[74.78449,18.40702],[74.78432,18.4071],[74.78394,18.40731],[74.78281,18.40817],[74.78236,18.40857],[74.78228,18.4086],[74.78213,18.40858],[74.78205,18.40857],[74.7818,18.40865],[74.7808,18.40915],[74.77734,18.40886],[74.77714,18.40883],[74.77664,18.40878],[74.77644,18.40878],[74.77624,18.40883],[74.77615,18.40882],[74.77585,18.40869],[74.77572,18.40866],[74.77543,18.40867],[74.77534,18.40865],[74.77517,18.40852],[74.77507,18.40851],[74.77491,18.40855],[74.7748,18.40855],[74.77448,18.40852],[74.77409,18.40846],[74.7739,18.4084],[74.7733,18.40814],[74.77321,18.40811],[74.77303,18.40813],[74.77288,18.4081],[74.7725,18.40795],[74.77199,18.40783],[74.77174,18.40777],[74.77124,18.4076],[74.77113,18.40755],[74.77102,18.40735],[74.77091,18.40732],[74.7707,18.40735],[74.77057,18.4073],[74.76992,18.40689],[74.76981,18.40686],[74.76965,18.40689],[74.76951,18.40689],[74.76931,18.40683],[74.7692,18.40675],[74.76873,18.40626],[74.76861,18.40618],[74.76817,18.40597],[74.76803,18.40589],[74.76732,18.40529],[74.76614,18.4044],[74.76485,18.40287],[74.76,18.39819],[74.75771,18.39759],[74.75744,18.39752],[74.75599,18.39713],[74.74933,18.3964],[74.7491,18.39638],[74.74866,18.39633],[74.74538,18.39691],[74.74347,18.39724],[74.74154,18.39758],[74.7407,18.39801],[74.7403,18.39806],[74.73999,18.39809],[74.73947,18.3982],[74.73776,18.39825],[74.73554,18.39864],[74.73512,18.39939],[74.73491,18.39975],[74.7346,18.40029],[74.73181,18.40524],[74.7293,18.4097],[74.72911,18.41002],[74.72882,18.41042],[74.72861,18.4107],[74.72778,18.41182],[74.72516,18.41538],[74.72405,18.41687],[74.72315,18.41839],[74.72291,18.4188],[74.72266,18.41922],[74.71793,18.42719],[74.71767,18.42763],[74.71699,18.42878],[74.71568,18.43099],[74.71749,18.43617],[74.71766,18.43665],[74.71772,18.43682],[74.71785,18.43783],[74.71811,18.43836],[74.71826,18.43858],[74.7187,18.43908],[74.71889,18.4394],[74.71944,18.44033],[74.71978,18.44091],[74.72012,18.4413],[74.72023,18.44152],[74.72041,18.44207],[74.7205,18.44225],[74.72081,18.4428],[74.72095,18.44309],[74.72108,18.44352],[74.72121,18.44417],[74.72132,18.44455],[74.7226,18.44711],[74.72281,18.44753],[74.72315,18.4482],[74.72335,18.4486],[74.72432,18.45053],[74.72466,18.45121],[74.72543,18.45464],[74.72685,18.46099],[74.72722,18.46443],[74.72734,18.4655],[74.72811,18.47266],[74.72796,18.47859],[74.72795,18.47908],[74.72791,18.48041],[74.72721,18.48149],[74.72694,18.4819],[74.72438,18.48588],[74.72349,18.48727],[74.72236,18.48903],[74.72143,18.49047],[74.71755,18.49501],[74.7168,18.49588],[74.71307,18.49835],[74.71291,18.49845],[74.71252,18.49871],[74.71172,18.49923],[74.70809,18.50275],[74.70589,18.50488],[74.70172,18.50645],[74.69812,18.50479],[74.69233,18.50213],[74.69164,18.50197],[74.69017,18.50162],[74.68879,18.50129],[74.68188,18.49539],[74.68167,18.49514],[74.68141,18.49503],[74.68026,18.4945],[74.67874,18.49393],[74.67694,18.4934],[74.6723,18.49185],[74.669,18.49064],[74.66697,18.49013],[74.66469,18.48933],[74.66335,18.48831],[74.663,18.48804],[74.66277,18.48787],[74.66046,18.48609],[74.66023,18.48579],[74.65815,18.48317],[74.65771,18.48281],[74.65772,18.48227],[74.65764,18.48212],[74.65751,18.48201],[74.65761,18.48185],[74.65766,18.47769],[74.65878,18.47447],[74.66107,18.47129],[74.66127,18.47116],[74.66175,18.47048],[74.6619,18.47035],[74.66208,18.47023],[74.66301,18.46917],[74.66317,18.46836],[74.6641,18.46706],[74.66476,18.46614],[74.67134,18.46559],[74.67153,18.46556],[74.6721,18.46551],[74.67383,18.4638],[74.67465,18.46299],[74.67533,18.46225],[74.67511,18.46178],[74.67114,18.4597],[74.66281,18.45763],[74.66256,18.45757],[74.66139,18.45699],[74.66105,18.45685],[74.66042,18.4567],[74.66023,18.45665],[74.65972,18.45643],[74.65931,18.45625],[74.65837,18.45588],[74.65793,18.45564],[74.65656,18.45479],[74.65637,18.4548],[74.65606,18.45497],[74.65594,18.455],[74.65582,18.45494],[74.65545,18.45461],[74.65505,18.45428],[74.65459,18.45399],[74.65173,18.45271],[74.64993,18.45216],[74.64923,18.45197],[74.64901,18.45183],[74.64842,18.45134],[74.64828,18.45131],[74.64809,18.45136],[74.64796,18.45138],[74.64774,18.45135],[74.64744,18.45127],[74.64665,18.45123],[74.64641,18.45115],[74.64585,18.45091],[74.64567,18.45087],[74.64533,18.45095],[74.64521,18.45097],[74.64422,18.45081],[74.64412,18.45077],[74.644,18.45066],[74.64057,18.45163],[74.6387,18.45215],[74.62945,18.45667],[74.62376,18.4618],[74.62338,18.46214],[74.62283,18.46247],[74.62202,18.46294],[74.62075,18.46446],[74.61924,18.46519],[74.61316,18.46819],[74.61227,18.46843],[74.6098,18.4691],[74.60864,18.46941],[74.60527,18.47032],[74.60393,18.47062],[74.60378,18.47061],[74.60349,18.4705],[74.60333,18.47048],[74.6027,18.47052],[74.60212,18.47055],[74.60195,18.47062],[74.60187,18.47071],[74.6018,18.47098],[74.60173,18.47109],[74.60156,18.47117],[74.60104,18.47116],[74.6006,18.47122],[74.59988,18.47144],[74.59872,18.47152],[74.59813,18.4717],[74.59654,18.47196],[74.59186,18.47239],[74.59121,18.47262],[74.58944,18.4729],[74.58237,18.47391],[74.58221,18.47393],[74.58171,18.47399],[74.58155,18.47399],[74.58149,18.47396],[74.58146,18.47388],[74.58141,18.47386],[74.58136,18.47387],[74.58123,18.474],[74.58036,18.47474],[74.58019,18.47489],[74.57995,18.47521],[74.57651,18.47744],[74.57616,18.47785],[74.57508,18.47913],[74.57489,18.47925],[74.57464,18.47941],[74.57496,18.47962],[74.574,18.481],[74.57285,18.48274],[74.57183,18.48424],[74.57176,18.48435],[74.5715,18.48473],[74.57103,18.48543],[74.56973,18.48736],[74.56172,18.49321],[74.55737,18.49724],[74.55649,18.49806],[74.55591,18.4986],[74.55486,18.49958],[74.55226,18.50354],[74.55173,18.50434],[74.55123,18.5051],[74.54867,18.509],[74.54912,18.51018],[74.54988,18.51218],[74.55075,18.51448],[74.55077,18.51453],[74.55966,18.52178],[74.56089,18.52215],[74.5623,18.52284],[74.56404,18.52362],[74.5645,18.52416],[74.56467,18.52424],[74.56723,18.52629],[74.56995,18.52848],[74.57183,18.52998],[74.57277,18.53124],[74.57382,18.53266],[74.57402,18.53293],[74.5739,18.53377],[74.57362,18.53569],[74.57358,18.53597],[74.57339,18.53723],[74.57294,18.54032],[74.57243,18.54382],[74.57229,18.54475],[74.57219,18.54543],[74.57248,18.54562],[74.57285,18.54587],[74.57374,18.54647],[74.57485,18.54649],[74.577,18.54653],[74.57834,18.54655],[74.58136,18.5466],[74.58157,18.5466],[74.58206,18.54763],[74.58251,18.54855],[74.5822,18.54941],[74.58199,18.55],[74.58177,18.55062],[74.58175,18.55067],[74.58165,18.55096],[74.58136,18.55176],[74.58117,18.5523],[74.58089,18.55308],[74.58056,18.5532],[74.57177,18.55628],[74.56686,18.5598],[74.56321,18.56675],[74.56219,18.56866],[74.55957,18.5711],[74.55844,18.57288],[74.55837,18.57299],[74.55565,18.57727],[74.55426,18.57762],[74.5528,18.57799],[74.54969,18.57877],[74.54906,18.57945],[74.54769,18.58092],[74.54475,18.58407],[74.54504,18.58453],[74.54729,18.58806],[74.547,18.58912],[74.54697,18.58924],[74.54664,18.59044],[74.54603,18.5927],[74.54637,18.59373],[74.54692,18.59538],[74.54711,18.59594],[74.54841,18.59986],[74.54855,18.60028],[74.5488,18.60102],[74.54897,18.60154],[74.54936,18.60271],[74.54995,18.60448],[74.55181,18.61007],[74.55191,18.61038],[74.55174,18.61365],[74.55168,18.61468],[74.55082,18.61524],[74.5501,18.61571],[74.54963,18.61601],[74.54653,18.61802],[74.54556,18.61814],[74.54008,18.61883],[74.53727,18.61875],[74.52874,18.61852],[74.52787,18.61849],[74.52034,18.61699],[74.52023,18.61697],[74.51797,18.61651],[74.51171,18.61663],[74.51089,18.61827],[74.50844,18.62315],[74.50842,18.62317],[74.50449,18.62656],[74.50225,18.62664],[74.49685,18.62684],[74.49483,18.62765],[74.48657,18.631],[74.4803,18.63451],[74.48001,18.63482],[74.47957,18.63529],[74.47555,18.64192],[74.47547,18.64275],[74.47514,18.64605],[74.47554,18.64664],[74.47668,18.64836],[74.478,18.64826],[74.4803,18.64808],[74.48222,18.64791],[74.48538,18.64766],[74.48562,18.64764],[74.48726,18.64751],[74.49077,18.64722],[74.49123,18.64819],[74.4918,18.64939],[74.49195,18.64972],[74.49212,18.65008],[74.49312,18.65219],[74.49345,18.65478],[74.49389,18.65491],[74.49443,18.65506],[74.49457,18.6551],[74.50119,18.65702],[74.50574,18.65931],[74.51075,18.66313],[74.51186,18.66622],[74.51255,18.66815],[74.51237,18.66957],[74.5119,18.67337],[74.50998,18.67591],[74.50909,18.67709],[74.50893,18.6773],[74.50828,18.67816],[74.50681,18.67812],[74.50656,18.67811],[74.50388,18.678],[74.50197,18.67793],[74.50182,18.6779],[74.49675,18.67699],[74.49639,18.67693],[74.49489,18.67666],[74.48755,18.67533],[74.48334,18.67924],[74.482,18.68048],[74.48007,18.68227],[74.47885,18.68496],[74.47875,18.68517],[74.47667,18.68976],[74.47806,18.69489],[74.48251,18.70301],[74.48266,18.70329],[74.48271,18.70338],[74.48228,18.71229],[74.48208,18.7164],[74.47853,18.72226],[74.47822,18.72236],[74.47795,18.72268],[74.4778,18.72297],[74.47067,18.72416],[74.46836,18.72547],[74.46151,18.72408],[74.45269,18.72039],[74.45228,18.72034],[74.45187,18.72028],[74.44883,18.72191],[74.44811,18.72229],[74.44639,18.72468],[74.44584,18.72543],[74.44539,18.72863],[74.44487,18.73233],[74.44433,18.73616],[74.44189,18.7393],[74.4418,18.73935],[74.43639,18.74286],[74.43523,18.74361],[74.43408,18.74436],[74.43035,18.74678],[74.42593,18.74965],[74.42131,18.74866],[74.42064,18.74852],[74.41884,18.74742],[74.41675,18.74614],[74.4166,18.74619],[74.41643,18.74612],[74.41633,18.74592],[74.41578,18.74566],[74.41549,18.74536],[74.41281,18.74373],[74.40055,18.74202],[74.39996,18.74597],[74.3999,18.7463],[74.39988,18.74645],[74.39974,18.74736],[74.39962,18.74815],[74.3995,18.74897],[74.3994,18.74961],[74.39917,18.75111],[74.39907,18.75182],[74.39681,18.76678],[74.39705,18.77092],[74.39775,18.77306],[74.39781,18.77325],[74.39798,18.77377],[74.39837,18.77499],[74.39851,18.77542],[74.40065,18.77796],[74.39694,18.78081],[74.39555,18.78187],[74.39314,18.78627],[74.39281,18.78743],[74.39185,18.79081],[74.3918,18.79098],[74.3915,18.79211],[74.39106,18.7961],[74.39054,18.79776],[74.39076,18.79877],[74.38654,18.8039],[74.38673,18.80582],[74.38683,18.80686],[74.38702,18.80878],[74.38753,18.80945],[74.38888,18.8112],[74.38907,18.81145],[74.39158,18.81563],[74.39248,18.81588],[74.39289,18.81641],[74.39319,18.81735],[74.39379,18.81778],[74.39394,18.8179],[74.39401,18.81802],[74.39518,18.82031],[74.39582,18.82139],[74.39759,18.82435],[74.39865,18.82592],[74.39879,18.82647],[74.39843,18.83112],[74.39795,18.83148],[74.39566,18.8332],[74.39428,18.83424],[74.39399,18.83446],[74.39309,18.83485],[74.39292,18.83493],[74.39282,18.83497],[74.39096,18.83576],[74.3896,18.83535],[74.387,18.83457],[74.38274,18.83516],[74.37879,18.83571],[74.37664,18.83601],[74.37149,18.83672],[74.37079,18.83704],[74.36886,18.83792],[74.36517,18.83961],[74.36492,18.83972],[74.35968,18.84212],[74.35433,18.84383],[74.35271,18.84435],[74.35076,18.84346],[74.35009,18.84315],[74.34459,18.84064],[74.34293,18.83988],[74.34165,18.83929],[74.33978,18.83843],[74.33847,18.83836],[74.33316,18.83807],[74.3278,18.8401],[74.3268,18.84048],[74.32516,18.84188],[74.3226,18.84406],[74.31915,18.84745],[74.31234,18.85413],[74.31147,18.85658],[74.31121,18.85731],[74.30985,18.86117],[74.31001,18.86309],[74.31042,18.86817],[74.30716,18.87142],[74.30523,18.87335],[74.30519,18.87347],[74.30481,18.87473],[74.30478,18.87483],[74.30423,18.87666],[74.30427,18.87727],[74.30442,18.87956],[74.30429,18.87995],[74.30427,18.88031],[74.30426,18.88051],[74.30425,18.8808],[74.30422,18.88111],[74.3042,18.88129],[74.30417,18.88153],[74.3016,18.88388],[74.30131,18.88435],[74.30087,18.88505],[74.30028,18.88601],[74.2997,18.88693],[74.29905,18.88799],[74.29859,18.88873],[74.29818,18.8914],[74.29721,18.89773],[74.2969,18.89975],[74.29688,18.89985],[74.29642,18.90114],[74.29544,18.90392],[74.28919,18.90689],[74.28646,18.90819],[74.28376,18.91285],[74.28323,18.91319],[74.28222,18.91385],[74.28188,18.91407],[74.28074,18.91482],[74.28059,18.91514],[74.27988,18.9158],[74.27908,18.91607],[74.27872,18.91614],[74.27585,18.91802],[74.27495,18.91883],[74.27181,18.92165],[74.27145,18.92246],[74.26861,18.9289],[74.26853,18.92909],[74.26784,18.92991],[74.26507,18.9332],[74.26428,18.93427],[74.2641,18.93451],[74.26382,18.93468],[74.26278,18.93592],[74.26185,18.93702],[74.26173,18.93717],[74.26075,18.93877],[74.26002,18.93998],[74.25912,18.94142],[74.25774,18.94346],[74.25701,18.94461],[74.2566,18.94526],[74.25655,18.94535],[74.25649,18.94544],[74.25597,18.94626],[74.25541,18.94714],[74.2551,18.94763],[74.2524,18.9519],[74.25139,18.95349],[74.25038,18.95344],[74.24766,18.9533],[74.24699,18.95327],[74.24663,18.95332],[74.24089,18.95407],[74.24062,18.9549],[74.24029,18.95592],[74.23925,18.95916],[74.23974,18.96109],[74.24069,18.96487],[74.23927,18.96612],[74.23849,18.9668],[74.23748,18.96769],[74.23733,18.96782],[74.23569,18.96828],[74.23493,18.9685],[74.2347,18.96856],[74.23404,18.96875],[74.23132,18.96952],[74.2311,18.96958],[74.2287,18.97148],[74.22762,18.97234],[74.22586,18.97373],[74.22413,18.97676],[74.22438,18.97998],[74.22449,18.98135],[74.22509,18.98282],[74.22523,18.98302],[74.22596,18.9842],[74.22625,18.98505],[74.22617,18.98546],[74.22634,18.98587],[74.22718,18.98792],[74.22586,18.99153],[74.2258,18.9917],[74.22575,18.99184],[74.22536,18.9929],[74.22228,18.99414],[74.22225,18.99415],[74.22203,18.99424],[74.22104,18.99422],[74.21765,18.99415],[74.21683,18.99413],[74.21678,18.99413],[74.21374,18.99599],[74.21458,18.99925],[74.2146,18.99934],[74.21653,19.00047],[74.21705,19.00078],[74.21769,19.00116],[74.21734,19.00235],[74.21578,19.00761],[74.21187,19.01028],[74.20641,19.01039],[74.20531,19.01093],[74.20355,19.01179],[74.20323,19.01223],[74.20059,19.01579],[74.19992,19.01669],[74.1967,19.01773],[74.19454,19.01843],[74.19207,19.01995],[74.19235,19.02144],[74.19107,19.02439],[74.19068,19.0253],[74.18999,19.02688],[74.1875,19.02814],[74.18556,19.02911],[74.18439,19.0297],[74.18037,19.03173],[74.1789,19.03342],[74.17737,19.03517],[74.17616,19.03657],[74.17623,19.0401],[74.17623,19.0402],[74.17628,19.04249],[74.17888,19.04564],[74.18255,19.05008],[74.18497,19.05302],[74.18664,19.0555],[74.18699,19.05602],[74.19063,19.0614],[74.19128,19.06285],[74.19157,19.06349],[74.19246,19.06547],[74.19354,19.06786],[74.19422,19.07481],[74.19437,19.07631],[74.19489,19.07839],[74.19588,19.08234],[74.19641,19.08444],[74.19809,19.08571],[74.19835,19.08591],[74.20145,19.08827],[74.20145,19.08855],[74.20144,19.08935],[74.20142,19.091],[74.2014,19.09302],[74.20138,19.09453],[74.20015,19.09739],[74.19882,19.10448],[74.19875,19.10486],[74.19844,19.10651],[74.19931,19.10737],[74.19936,19.10742],[74.19939,19.10746],[74.19944,19.1075],[74.19955,19.10761],[74.20202,19.11004],[74.2039,19.11276],[74.20517,19.1146],[74.209,19.12125],[74.2116,19.12575],[74.2155,19.12785],[74.22175,19.13027],[74.22574,19.13043],[74.22824,19.12735],[74.22926,19.12671],[74.23176,19.12514],[74.23703,19.12398],[74.23728,19.12504],[74.23877,19.13147],[74.23986,19.13334],[74.24536,19.14273],[74.25015,19.14793],[74.25313,19.14971],[74.25387,19.15015],[74.25652,19.15276],[74.25758,19.1538],[74.25844,19.15536],[74.26008,19.15829],[74.26069,19.15939],[74.26179,19.16137],[74.26606,19.1633],[74.267,19.16652],[74.26752,19.18074],[74.26757,19.18239],[74.26917,19.18521],[74.27161,19.18612],[74.272,19.18621],[74.27526,19.1863],[74.27666,19.18634],[74.27941,19.18642],[74.28338,19.18653],[74.29143,19.18675],[74.29345,19.18681],[74.29454,19.18705],[74.30165,19.18863],[74.30249,19.18882],[74.30312,19.18896],[74.30533,19.18945],[74.30859,19.19377],[74.30982,19.1954],[74.31065,19.1965],[74.31147,19.19759],[74.31183,19.19829],[74.31221,19.19903],[74.31315,19.20086],[74.31467,19.20382],[74.31676,19.20596],[74.31767,19.2069],[74.31747,19.20873],[74.31687,19.20893],[74.31095,19.21091],[74.31055,19.21105],[74.30909,19.21154],[74.30531,19.2128],[74.30093,19.21427],[74.2988,19.21498],[74.29458,19.2164],[74.29359,19.21673],[74.28344,19.21779],[74.28144,19.218],[74.2687,19.22353],[74.2659,19.22474],[74.26325,19.22102],[74.26274,19.2203],[74.25768,19.21859],[74.25698,19.21818],[74.25472,19.21735],[74.25209,19.21638],[74.25202,19.21635],[74.25126,19.21607],[74.25079,19.2159],[74.25024,19.2157],[74.24883,19.21518],[74.24855,19.21508],[74.24839,19.21502],[74.24703,19.21452],[74.24671,19.2144],[74.24305,19.21305],[74.23037,19.20546],[74.2299,19.20501],[74.22908,19.20448],[74.2281,19.20418],[74.22747,19.20399],[74.22703,19.20392],[74.22623,19.20364],[74.2256,19.20338],[74.22102,19.204],[74.21584,19.20425],[74.21554,19.20426],[74.21081,19.20448],[74.20589,19.20622],[74.19906,19.20863],[74.19529,19.20996],[74.18816,19.21564],[74.18524,19.21682],[74.17751,19.21738],[74.1728,19.22038],[74.16966,19.22033],[74.16864,19.219],[74.16683,19.21216],[74.1671,19.20997],[74.16749,19.2067],[74.16508,19.20565],[74.15997,19.20342],[74.15645,19.21647],[74.15497,19.21992],[74.15387,19.22248],[74.15071,19.22347],[74.14653,19.22479],[74.14483,19.22532],[74.14366,19.221],[74.13761,19.22089],[74.13689,19.22088],[74.13406,19.22083],[74.12941,19.22075],[74.12902,19.22098],[74.12887,19.22107],[74.12704,19.22216],[74.12653,19.22246],[74.12638,19.22255],[74.12624,19.22263],[74.126,19.22277],[74.12512,19.22329],[74.12345,19.22428],[74.11894,19.22696],[74.11824,19.22738],[74.11767,19.22772],[74.11685,19.2282],[74.1166,19.22835],[74.11275,19.23063],[74.11159,19.23076],[74.10815,19.23112],[74.10537,19.23142],[74.09913,19.2329],[74.09385,19.23521],[74.09022,19.23558],[74.09061,19.23276],[74.09772,19.22847],[74.09751,19.22612],[74.0949,19.2269],[74.09082,19.22984],[74.08585,19.2318],[74.08352,19.2343],[74.07801,19.23591],[74.0765,19.23669],[74.07084,19.23965],[74.06847,19.24088],[74.06719,19.24154],[74.06202,19.24505],[74.06021,19.24433],[74.06004,19.24426],[74.05733,19.24317],[74.05597,19.24374],[74.05441,19.2444],[74.0534,19.24685],[74.05176,19.25086],[74.04846,19.25893],[74.03937,19.25327],[74.03766,19.2522],[74.03756,19.25214],[74.03722,19.25193],[74.03561,19.25092],[74.03419,19.25309],[74.03711,19.25714],[74.03568,19.26063],[74.02786,19.26951],[74.02943,19.27167],[74.03143,19.27443],[74.03317,19.28093],[74.03296,19.28438],[74.03062,19.28682],[74.03045,19.287],[74.03014,19.28733],[74.0291,19.28841],[74.02758,19.29],[74.02328,19.28577],[74.02144,19.28678],[74.0195,19.28922],[74.01654,19.29293],[74.01518,19.29625],[74.01539,19.29941],[74.01794,19.29847],[74.0181,19.29841],[74.02042,19.29756],[74.02399,19.2976],[74.02629,19.2994],[74.02816,19.30086],[74.02861,19.30122],[74.03019,19.30623],[74.02935,19.31099],[74.0288,19.31153],[74.0273,19.31298],[74.02579,19.31446],[74.02223,19.31794],[74.02184,19.31832],[74.02011,19.32168],[74.01413,19.32627],[74.01319,19.32949],[74.01305,19.32998],[74.01294,19.33034],[74.01299,19.33717],[74.01211,19.33855],[74.01079,19.34014],[74.00911,19.34204],[74.00726,19.34466],[74.00645,19.34746],[74.00487,19.34995],[74.00453,19.35299],[74.00108,19.35819],[73.99714,19.35694],[73.99044,19.35483],[73.98792,19.35403],[73.98334,19.35259],[73.98102,19.35186],[73.98041,19.35187],[73.97431,19.35194],[73.97368,19.356],[73.97103,19.35434],[73.96737,19.35203],[73.96591,19.35111],[73.96292,19.35083],[73.95914,19.35046],[73.95864,19.34835],[73.95787,19.34513],[73.95772,19.34453],[73.95696,19.34482],[73.95481,19.34566],[73.95442,19.34581],[73.95302,19.34636],[73.94841,19.34493],[73.94801,19.3483],[73.9467,19.34833],[73.94505,19.34836],[73.94301,19.34711],[73.94208,19.34654],[73.94184,19.34602],[73.94179,19.34591],[73.94104,19.34434],[73.93714,19.34299],[73.93608,19.34263],[73.93487,19.34221],[73.93202,19.34123],[73.92674,19.34678],[73.92607,19.34784],[73.92397,19.35121],[73.92374,19.35156],[73.92369,19.35168],[73.9215,19.35736],[73.92083,19.3591],[73.9203,19.35983],[73.91958,19.36081],[73.91857,19.3622],[73.91822,19.36269],[73.91817,19.36276],[73.91769,19.36341],[73.91719,19.3641],[73.91591,19.36586],[73.91018,19.36782],[73.90746,19.36876],[73.9033,19.37019],[73.8999,19.37285],[73.89847,19.37397],[73.89723,19.37494],[73.893,19.37616],[73.88678,19.3768],[73.8854,19.37694],[73.87886,19.36362],[73.87382,19.3602],[73.8694,19.35895],[73.86772,19.35884],[73.86658,19.35876],[73.86445,19.35862],[73.86378,19.35857],[73.8635,19.35862],[73.85996,19.35918],[73.85828,19.35945],[73.85472,19.36187],[73.85225,19.36355],[73.85076,19.36457],[73.84905,19.36622],[73.84499,19.37014],[73.84561,19.37289],[73.84466,19.37593],[73.84294,19.3771],[73.84044,19.37881],[73.83459,19.38122],[73.8341,19.3815],[73.83321,19.38199],[73.83259,19.38234],[73.83184,19.38275],[73.8258,19.38611],[73.82457,19.3868],[73.82354,19.38737],[73.82207,19.38819],[73.8199,19.3894],[73.81845,19.3902],[73.81477,19.39354],[73.81032,19.39426],[73.80518,19.39511],[73.80326,19.39543],[73.80299,19.39547],[73.80239,19.39557],[73.80177,19.39551],[73.80105,19.39543],[73.79798,19.39512],[73.78688,19.39195],[73.78597,19.39169],[73.78461,19.39131],[73.78273,19.38664]]]}}]}
